CODIGO,NOMBRE,INSTITUCIÓN,UBIGEO,REGION,PROVINCIA,DISTRITO,DIRECCIÓN,latitude,longitude
1,"HOSPITAL IQUITOS ""CESAR GARAYAR GARCIA""",GOBIERNO REGIONAL,160101,LORETO,MAYNAS,IQUITOS,CALLE CORNEJO PORTUGAL N° 1710 MAYNAS LORETO,-3.7640763,-73.2543029
3,"HOSPITAL REGIONAL DE LORETO ""FELIPE SANTIAGO ARRIOLA IGLESIAS""",GOBIERNO REGIONAL,160108,LORETO,MAYNAS,PUNCHANA,AVENIDA AVENIDA 28 DE JULIO SN NÚMERO SN DISTRITO PUNCHANA PROVINCIA MAYNAS DEPARTAMENTO LORETO  MAYNAS LORETO,-3.7276304,-73.2488933
66,HOSPITAL II-1 SANTA CLOTILDE,GOBIERNO REGIONAL,160107,LORETO,MAYNAS,NAPO,ACTUALIZAR MAYNAS LORETO,-3.7700696,-73.2625513
162,HOSPITAL II-I  CONTAMANA,GOBIERNO REGIONAL,160601,LORETO,UCAYALI,CONTAMANA,JR. BUENA VENTURA MARQUEZ N° 504 UCAYALI LORETO,-7.3481567,-75.006916
210,HOSPITAL SANTA GEMA DE  YURIMAGUAS,GOBIERNO REGIONAL,160201,LORETO,ALTO AMAZONAS,YURIMAGUAS,JIRÓN JR. PROGRESO 305 - 307 DISTRITO YURIMAGUAS PROVINCIA ALTO AMAZONAS DEPARTAMENTO LORETO  ALTO AMAZONAS LORETO,-5.8881513,-76.1134804
308,HOSPITAL REGIONAL DOCENTE DE MEDICINA TROPICAL DR. JULIO CESAR DEMARINI CARO,GOBIERNO REGIONAL,120301,JUNIN,CHANCHAMAYO,CHANCHAMAYO,AV. DANIEL A. CARRION SN AAVV PAMPA DEL CARMEN CHANCHAMAYO JUNIN,-11.0729616,-75.3378401
340,HOSPITAL DE APOYO PICHANAKI,GOBIERNO REGIONAL,120303,JUNIN,CHANCHAMAYO,PICHANAQUI,AVENIDA AV. SAN MARTIN SN PICHANAKI SN AV. SAN MARTIN SN PICHANAKI PICHANAQUI CHANCHAMAYO JUNIN  CHANCHAMAYO JUNIN,-10.9262966,-74.8728347
365,HOSPITAL DOMINGO OLAVEGOYA,GOBIERNO REGIONAL,120401,JUNIN,JAUJA,JAUJA,JIRÓN JR. SAN MARTIN N1153 URBANIZACION OLAVEGOYA DISTRITO JAUJA PROVINCIA JAUJA DEPARTAMENTO JUNIN  JAUJA JUNIN,-11.7769551,-75.4961451
432,DE APOYO MANUEL HIGA ARAKAKI,GOBIERNO REGIONAL,120601,JUNIN,SATIPO,SATIPO,CALLE CALLE DANIEL ALCIDES CARRION N 398 DISTRITO SATIPO PROVINCIA SATIPO DEPARTAMENTO JUNIN  SATIPO JUNIN,-11.2490622,-74.6361823
442,SAN MARTIN DE PANGOA,GOBIERNO REGIONAL,120606,JUNIN,SATIPO,PANGOA,AV. PANGOA SN ESQUINA CON AV. ESPAA SATIPO JUNIN,-11.4282809,-74.4889972
519,DE APOYO JUNIN,GOBIERNO REGIONAL,120501,JUNIN,JUNIN,JUNIN,JR.SAENZ PEA N 650 JUNIN JUNIN,-11.1581347,-75.9981233
520,DE APOYO FELIX MAYORCA SOTO,GOBIERNO REGIONAL,120701,JUNIN,TARMA,TARMA,AV.PACHECO N 362 TARMA JUNIN,-11.4250735,-75.692987
646,PEDRO SANCHEZ MEZA,GOBIERNO REGIONAL,120901,JUNIN,CHUPACA,CHUPACA,JIRÓN RUFINO ECHENIQUE N 560 -690 JR. RUFINO ECHENIQUE N 560 -690 CHUPACA CHUPACA JUNIN  CHUPACA JUNIN,-12.0561522,-75.2858208
753,HOSPITAL REGIONAL DOCENTE CLINICO QUIRURGICO DANIEL ALCIDES CARRION,GOBIERNO REGIONAL,120101,JUNIN,HUANCAYO,HUANCAYO,AV. DANIEL A.CARRION N 1552-1556 HUANCAYO JUNIN,-12.0868682,-75.2135164
754,HOSPITAL REGIONAL HERMILIO VALDIZAN,GOBIERNO REGIONAL,100101,HUANUCO,HUANUCO,HUANUCO,JIRÓN JR. HERMILIO VALDIZAN N° 950 JR. HERMILIO VALDIZAN N° 950 HUANUCO HUANUCO HUANUCO  HUANUCO HUANUCO,-9.927915,-76.2361437
756,CARLOS SHOWING FERRARI,GOBIERNO REGIONAL,100102,HUANUCO,HUANUCO,AMARILIS,AVENIDA AV. MICAELA BASTIDAS SN PAUCARBAMBA SN AV. MICAELA BASTIDAS SN PAUCARBAMBA AMARILIS HUANUCO HUANUCO  HUANUCO HUANUCO,-9.9431731,-76.2419877
932,HOSPITAL DE TINGO MARIA (HOSPITAL DE CONTINGENCIA),GOBIERNO REGIONAL,100605,HUANUCO,LEONCIO PRADO,LUYANDO,HOSPITAL MAPRESA-TINGO MARIA LEONCIO PRADO HUANUCO,-9.3016801,-76.0000687
979,DR.DANIEL ALCIDES CARRION GARCIA.,GOBIERNO REGIONAL,190113,PASCO,PASCO,YANACANCHA,ACTUALIZAR PASCO PASCO,-10.663981,-76.2533128
980,ERNESTO GERMAN GUZMÁN GONZALES,GOBIERNO REGIONAL,190301,PASCO,OXAPAMPA,OXAPAMPA,JR. BOTTGER 760 - OXAPAMPA OXAPAMPA PASCO,-10.5756397,-75.4013739
981,"HOSP. ""ROMAN EGOAVIL PANDO"" VILLA RICA",GOBIERNO REGIONAL,190307,PASCO,OXAPAMPA,VILLA RICA,AV. VALENTIN CUEVA SN- VILLA RICA OXAPAMPA PASCO,-10.7373231,-75.2736149
1231,HOSPITAL REGIONAL HONORIO DELGADO ESPINOZA,GOBIERNO REGIONAL,40101,AREQUIPA,AREQUIPA,AREQUIPA,AV. ALCIDES CARRION N° 505 AREQUIPA AREQUIPA,-16.4164481,-71.5330489
1232,HOSPITAL GOYENECHE,GOBIERNO REGIONAL,40101,AREQUIPA,AREQUIPA,AREQUIPA,AVENIDA GOYENECHE N° 100 AREQUIPA AREQUIPA,-16.4024659,-71.5288751
1344,HOSPITAL DE CAMANA,GOBIERNO REGIONAL,40201,AREQUIPA,CAMANA,CAMANA,AV LIMA 550 CAMANA AREQUIPA,-16.6182632,-72.7081727
1382,HOSPITAL APLAO,GOBIERNO REGIONAL,40401,AREQUIPA,CASTILLA,APLAO,AVENIDA AVENIDA 21 DE MARZO SN NÚMERO SN DISTRITO APLAO PROVINCIA CASTILLA DEPARTAMENTO AREQUIPA  CASTILLA AREQUIPA,-16.0766864,-72.4874525
1472,HOSPITAL DE APOYO RECUAY,GOBIERNO REGIONAL,21701,ANCASH,RECUAY,RECUAY,JR. BOLIVAR N 200 RECUAY RECUAY ANCASH,-9.7289114,-77.4528086
1516,HOSPITAL DE APOYO CARHUAZ,GOBIERNO REGIONAL,20601,ANCASH,CARHUAZ,CARHUAZ,JR. UNION SN CARHUAZ CARHUAZ ANCASH,-9.2835636,-77.6430013
1543,"HOSPITAL ""VICTOR RAMOS GUARDIA"" - HUARAZ",GOBIERNO REGIONAL,20101,ANCASH,HUARAZ,HUARAZ,AV. LUZURIAGA SN CUADRA 12 HUARAZ ANCASH,-9.528728,-77.5290584
1587,HOSPITAL DE APOYO CARAZ,GOBIERNO REGIONAL,21201,ANCASH,HUAYLAS,CARAZ,AVENIDA AV. 9 DE OCTUBRE SN - CARAZ NÚMERO SN DISTRITO CARAZ PROVINCIA HUAYLAS DEPARTAMENTO ANCASH  HUAYLAS ANCASH,-9.04835,-77.8040025
1633,HOSPITAL DE APOYO YUNGAY,GOBIERNO REGIONAL,22001,ANCASH,YUNGAY,YUNGAY,AVENIDA AV. REPUBLICA DE CUBA SN - YUNGAY NÚMERO SN DISTRITO YUNGAY PROVINCIA YUNGAY DEPARTAMENTO ANCASH  YUNGAY ANCASH,-9.1401635,-77.7446032
1652,HOSPITAL LA CALETA,GOBIERNO REGIONAL,21801,ANCASH,SANTA,CHIMBOTE,AV. MALECON GRAU SN URB. LA CALETA SANTA ANCASH,-9.0773008,-78.5949468
1703,ELEAZAR GUZMAN BARRON,GOBIERNO REGIONAL,21809,ANCASH,SANTA,NUEVO CHIMBOTE,AV. BRASIL SN URB. SANTA CRISTINA SANTA ANCASH,-9.119811,-78.5216348
1719,HOSPITAL DE APOYO CASMA,GOBIERNO REGIONAL,20801,ANCASH,CASMA,CASMA,AV. GARCILAZO DE LA VEGA N 659 CASMA ANCASH,-9.4740224,-78.3055424
1741,HOSPITAL DE APOYO HUARMEY,GOBIERNO REGIONAL,21101,ANCASH,HUARMEY,HUARMEY,PANAMERICANA SN HUARMEY ANCASH,-10.0688152,-78.1562881
1765,"HOSPITAL DE APOYO DE POMABAMBA "" ANTONIO CALDAS DOMINGUEZ""",GOBIERNO REGIONAL,21601,ANCASH,POMABAMBA,POMABAMBA,AVENIDA AV. SEOR DE LOS MILAGROS SN - HUAJTACHACRA NÚMERO SN DISTRITO POMABAMBA PROVINCIA POMABAMBA DEPARTAMENTO ANCASH  POMABAMBA ANCASH,-8.8135716,-77.4634013
1795,HOSPITAL DE APOYO SIHUAS,GOBIERNO REGIONAL,21901,ANCASH,SIHUAS,SIHUAS,JIRÓN JR. DANIEL ALCIDES CARRION SN - AGUASHIRCA-SIHUAS NÚMERO SN DISTRITO SIHUAS PROVINCIA SIHUAS DEPARTAMENTO ANCASH  SIHUAS ANCASH,-8.5526723,-77.6319839
1813,HOSPITAL DE APOYO HUARI,GOBIERNO REGIONAL,21001,ANCASH,HUARI,HUARI,AVENIDA CIRCUNVALACION BAJA SN HUARI NÚMERO SN DISTRITO HUARI PROVINCIA HUARI DEPARTAMENTO ANCASH  HUARI ANCASH,-9.347077,-77.170608
1866,CLAS CORRALES,GOBIERNO REGIONAL,240102,TUMBES,TUMBES,CORRALES,PASAJE PASAJE ALEJANDRO HENCKELL N 104 DISTRITO CORRALES PROVINCIA TUMBES DEPARTAMENTO TUMBES  TUMBES TUMBES,-3.6007696,-80.4823359
1896,CENTRO DE SALUD ZARUMILLA,GOBIERNO REGIONAL,240301,TUMBES,ZARUMILLA,ZARUMILLA,CALLE LETICIA SIN NUMERO ZARUMILLA ZARUMILLA TUMBES,-3.5011895,-80.2756432
1900,ZORRITOS,GOBIERNO REGIONAL,240201,TUMBES,CONTRALMIRANTE VILLAR,ZORRITOS,AVENIDA AV. REPUBLICA SN ZORRITOS NÚMERO SN DISTRITO ZORRITOS PROVINCIA CONTRALMIRANTE VILLAR DEPARTAMENTO TUMBES  CONTRALMIRANTE VILLAR TUMBES,-3.6777516,-80.6680771
1910,"HOSPITAL DE APOYO II - 2, SULLANA",GOBIERNO REGIONAL,200601,PIURA,SULLANA,SULLANA,AV. SANTA ROSA SN SULLANA PIURA,-4.8957207,-80.6939993
2021,HOSPITAL DE APOYO II - 1 NUESTRA SEÑORA DE LAS MERCEDES - PAITA,GOBIERNO REGIONAL,200501,PIURA,PAITA,PAITA,LOS PESCADORES SN LA PUNTA PAITA PIURA,-5.0906919,-81.0904127
2084,HOSPITAL DE LA AMISTAD PERU - COREA SANTA ROSA II-2,GOBIERNO REGIONAL,200115,PIURA,PIURA,VEINTISEIS DE OCTUBRE,AV. GRAU - CHULUCANAS SN SAN MARTIN PIURA PIURA,-5.1839027,-80.664665
2143,E.S I-4 SECHURA,GOBIERNO REGIONAL,200801,PIURA,SECHURA,SECHURA,"SECHURA, SECHURA, PIURA",-5.557128,-80.820019
2161,E.S  II-1  HOSPITAL  CHULUCANAS,GOBIERNO REGIONAL,200401,PIURA,MORROPON,CHULUCANAS,CALLE DANIEL ALCIDES CARRION SN VATE MANRIQUE MORROPON PIURA,-5.1034125,-80.1708546
2171,E.S. FRÍAS,GOBIERNO REGIONAL,200202,PIURA,AYABACA,FRIAS,AV. HUARIGAS SN AYABACA PIURA,-12.09832,-77.0146339
2232,C.S EL TUNAL,GOBIERNO REGIONAL,200305,PIURA,HUANCABAMBA,LALAQUIZ,CALLE CANCHAQUE SN HUANCABAMBA PIURA,-5.376267,-79.60582
2250,ESTABLECIMIENTO DE SALUD HUANCABAMBA (JESUS GUERRERO CRUZ),GOBIERNO REGIONAL,200301,PIURA,HUANCABAMBA,HUANCABAMBA,"HUANCABAMBA, HUANCABAMBA, PIURA",-5.2476357,-79.4548608
2289,HOSPITAL DE APOYO DEPARTAMENTAL CUSCO,GOBIERNO REGIONAL,80101,CUSCO,CUSCO,CUSCO,AVENIDA LA CULTURA SN SN AV. LA CULTURA SN CUSCO CUSCO CUSCO  CUSCO CUSCO,-13.5278267,-71.9420429
2300,SAN JERONIMO,GOBIERNO REGIONAL,80104,CUSCO,CUSCO,SAN JERONIMO,AVENIDA AVENIDA MANCO CPAC SN  SAN JERÓNIMO  CUSCO  CUSCO SN AVENIDA MANCO CPAC SN  SAN JERÓNIMO  CUSCO  CUSCO SAN JERONIMO CUSCO CUSCO  CUSCO CUSCO,-13.5461862,-71.8896087
2305,ANTONIO LORENA DEL CUSCO,GOBIERNO REGIONAL,80106,CUSCO,CUSCO,SANTIAGO,URB. PRIMAVERA CUARTEL AGUSTIN GAMARRA CALLE CARLOS UGARTE SN CUSCO CUSCO,-13.5256469,-71.9881733
2317,ACOMAYO,GOBIERNO REGIONAL,80201,CUSCO,ACOMAYO,ACOMAYO,AVENIDA AVENIDA FRANCISCO BOLOGNESI SN  ACOMAYO  ACOMAYO  CUSCO SN AVENIDA FRANCISCO BOLOGNESI SN  ACOMAYO  ACOMAYO  CUSCO ACOMAYO ACOMAYO CUSCO  ACOMAYO CUSCO,-13.919276,-71.683763
2378,SICUANI,GOBIERNO REGIONAL,80601,CUSCO,CANCHIS,SICUANI,AVENIDA AV. MANUEL CALLO ZEBALOS SN SN AV. MANUEL CALLO ZEBALOS SN SICUANI CANCHIS CUSCO  CANCHIS CUSCO,-14.2651909,-71.2281146
2398,SANTO TOMAS,GOBIERNO REGIONAL,80701,CUSCO,CHUMBIVILCAS,SANTO TOMAS,AVENIDA AVENIDA PERU SN SANTO TOMAS  CHUMBIVILCAS  CUSCO SN AVENIDA PERU SN SANTO TOMAS  CHUMBIVILCAS  CUSCO SANTO TOMAS CHUMBIVILCAS CUSCO  CHUMBIVILCAS CUSCO,-14.4558719,-72.0816354
2421,QUILLABAMBA,GOBIERNO REGIONAL,80901,CUSCO,LA CONVENCION,SANTA ANA,AVENIDA AVENIDA GENERAL GAMARRA SN SANTA ANA LA CONVENCION SN AVENIDA GENERAL GAMARRA SN SANTA ANA LA CONVENCION SANTA ANA LA CONVENCION CUSCO  LA CONVENCION CUSCO,-12.8641556,-72.6907998
2469,SAN JUAN DE KIMBIRI-VRAEM,GOBIERNO REGIONAL,80907,CUSCO,LA CONVENCION,KIMBIRI,AVENIDA AVENIDA AEROPUERTOSN  KIMBIRI  LA CONVENCIÓN  CUSCO SN AVENIDA AEROPUERTOSN  KIMBIRI  LA CONVENCIÓN  CUSCO KIMBIRI LA CONVENCION CUSCO  LA CONVENCION CUSCO,-12.6160299,-73.7949809
2499,PARURO,GOBIERNO REGIONAL,81001,CUSCO,PARURO,PARURO,CALLE CALLE ALFONSO UGARTE SN  PARURO  PARURO  CUSCO SN CALLE ALFONSO UGARTE SN  PARURO  PARURO  CUSCO PARURO PARURO CUSCO  PARURO CUSCO,-12.1281106,-76.9822908
2536,OCONGATE,GOBIERNO REGIONAL,81210,CUSCO,QUISPICANCHI,OCONGATE,CALLE CALLE LAGUNILLAS SN  OCONGATE  QUISPICANCHI  CUSCO SN CALLE LAGUNILLAS SN  OCONGATE  QUISPICANCHI  CUSCO OCONGATE QUISPICANCHI CUSCO  QUISPICANCHI CUSCO,-12.0817493,-76.9431895
2538,QUIQUIJANA,GOBIERNO REGIONAL,81212,CUSCO,QUISPICANCHI,QUIQUIJANA,OTROS CALLAPAMPA  QUIQUIJANA  QUISPICANCHI  CUSCO CALLAPAMPA  QUIQUIJANA  QUISPICANCHI  CUSCO QUIQUIJANA QUISPICANCHI CUSCO  QUISPICANCHI CUSCO,-13.8262541,-71.5401821
2625,TAMBOBAMBA,GOBIERNO REGIONAL,30501,APURIMAC,COTABAMBAS,TAMBOBAMBA,BARRIO PAMPAA SECTOR CHILCAMAYO SN COTABAMBAS APURIMAC,-13.945728,-72.1756733
2698,SANTA ROSA,GOBIERNO REGIONAL,170101,MADRE DE DIOS,TAMBOPATA,TAMBOPATA,JR. CAJAMARCA N 171 TAMBOPATA MADRE DE DIOS,-12.5892035,-69.1962596
2793,SAN MARTIN DE PORRES DE IBERIA,GOBIERNO REGIONAL,170302,MADRE DE DIOS,TAHUAMANU,IBERIA,CALLE CALLE MOCOPATA SN NÚMERO SN DISTRITO IBERIA PROVINCIA TAHUAMANU DEPARTAMENTO MADRE DE DIOS  TAHUAMANU MADRE DE DIOS,-11.4042828,-69.4878891
2818,HOSPITAL ILO,GOBIERNO REGIONAL,180301,MOQUEGUA,ILO,ILO,AVENIDA AVENIDA N 01 LOTE 01 MZ. C AREA 4 (A-4) PAMPA INALAMBRICA DISTRITO ILO PROVINCIA ILO DEPARTAMENTO MOQUEGUA  ILO MOQUEGUA,-17.6534749,-71.3372775
2864,HOSPITAL HIPOLITO UNANUE DE TACNA,GOBIERNO REGIONAL,230101,TACNA,TACNA,TACNA,CALLE FEDERICO BARRETO SN TACNA TACNA,-18.0130111,-70.2557544
2883,LA ESPERANZA,GOBIERNO REGIONAL,230102,TACNA,TACNA,ALTO DE LA ALIANZA,AVENIDA AV.JORGE BASADRE N1100 AV.JORGE BASADRE N1100 ALTO DE LA ALIANZA TACNA TACNA  TACNA TACNA,-18.0128248,-70.2359672
2941,CARLOS CORNEJO ROSELLO,GOBIERNO REGIONAL,210201,PUNO,AZANGARO,AZANGARO,JR- FRANCISCO BOLOGNESI N 557 AZANGARO PUNO,-14.904166,-70.1996866
2974,HOSPITAL SAN MARTÍN DE PORRES,GOBIERNO REGIONAL,210301,PUNO,CARABAYA,MACUSANI,JR. GRAU N 511 - MACUSANI CARABAYA PUNO,-12.067668,-77.038245
2990,JULI,GOBIERNO REGIONAL,210401,PUNO,CHUCUITO,JULI,AVENIDA PANAMERICANA SN CHUCUITO PUNO,-15.891345,-69.887985
3032,ILAVE,GOBIERNO REGIONAL,210501,PUNO,EL COLLAO,ILAVE,JR. ATAHUALPA N 685 - ILAVE EL COLLAO PUNO,-16.0838117,-69.6385627
3068,HOSPITAL LUCIO ALDAZABAL PAUCA,GOBIERNO REGIONAL,210601,PUNO,HUANCANE,HUANCANE,AV SANTA CRUZ SN HUANCANE PUNO,-15.1979739,-69.7663851
3128,ANTONIO BARRIONUEVO (LAMPA),GOBIERNO REGIONAL,210701,PUNO,LAMPA,LAMPA,JR. ANTONIO BARRIONUEVO N 323 LAMPA PUNO,-15.362597,-70.3663
3156,SAN JUAN DE DIOS (AYAVIRI),GOBIERNO REGIONAL,210801,PUNO,MELGAR,AYAVIRI,JR. ARICA N 310 MELGAR PUNO,-14.8745287,-70.5951995
3251,HOSPITAL REGIONAL MANUEL NUÑEZ BUTRON,GOBIERNO REGIONAL,210101,PUNO,PUNO,PUNO,JIRON RICARDO PALMA N 120 PUNO PUNO,-15.8423172,-70.0226727
3299,CARLOS MONJE MEDRANO,GOBIERNO REGIONAL,211101,PUNO,SAN ROMAN,JULIACA,SALIDA A HUANACANE KILOMETRO 2 SAN ROMAN PUNO,-15.4817126,-70.1201534
3335,HOSPITAL SANDIA,GOBIERNO REGIONAL,211201,PUNO,SANDIA,SANDIA,"SANDIA, SANDIA, PUNO",-14.3218451,-69.4662454
3349,YUNGUYO,GOBIERNO REGIONAL,211301,PUNO,YUNGUYO,YUNGUYO,JR. LIMA N 938 - YUNGUYO YUNGUYO PUNO,-16.2469386,-69.0908554
3358,REGIONAL DE ICA,GOBIERNO REGIONAL,110101,ICA,ICA,ICA,PROLONGACIÓN PROLONG. AYABACA SN NÚMERO SN DISTRITO ICA PROVINCIA ICA DEPARTAMENTO ICA  ICA ICA,-14.0719444,-75.7338889
3359,SANTA MARIA DEL SOCORRO,GOBIERNO REGIONAL,110101,ICA,ICA,ICA,CALLE CALLE CASTROVIRREYNA N° 759 CALLE CASTROVIRREYNA N° 759 ICA ICA ICA  ICA ICA,-14.0585465,-75.7292629
3414,HOSPITAL SAN JOSE DE CHINCHA,GOBIERNO REGIONAL,110201,ICA,CHINCHA,CHINCHA ALTA,AVENIDA ABELARDO ALVA MAURTUA N° 600 AV. ABELARDO ALVA MAURTUA N° 600 CHINCHA ALTA CHINCHA ICA  CHINCHA ICA,-13.4156394,-76.1286726
3443,RICARDO CRUZADO RIVAROLA DE NASCA,GOBIERNO REGIONAL,110301,ICA,NAZCA,NAZCA,CALLE CALLE CALLAO SN 5TA. CUADRA SN CALLE CALLAO SN 5TA. CUADRA NAZCA NAZCA ICA  NAZCA ICA,-14.826858,-74.9404228
3472,SAN JUAN DE DIOS,GOBIERNO REGIONAL,110501,ICA,PISCO,PISCO,OTROS ALTO LA LUNA SN COSTADO DEL MINISTERIO DE AGRICULTURA NÚMERO SN DISTRITO PISCO PROVINCIA PISCO DEPARTAMENTO ICA  PISCO ICA,-12.085823,-77.007803
3494,HOSPITAL DE APOYO CANGALLO,GOBIERNO REGIONAL,50201,AYACUCHO,CANGALLO,CANGALLO,JR. SANTA ROSA N 110 CANGALLO AYACUCHO,-13.6291985,-74.143899
3523,HOSPITAL DE APOYO DE CORACORA,GOBIERNO REGIONAL,50701,AYACUCHO,PARINACOCHAS,CORACORA,AV. NELLO CATANZARO  SN PARINACOCHAS AYACUCHO,-15.0135416,-73.7826789
3543,"HOSPITAL REGIONAL DE AYACUCHO ""MIGUEL ANGEL MARISCAL LLERENA""",GOBIERNO REGIONAL,50101,AYACUCHO,HUAMANGA,AYACUCHO,JIRÓN INDEPENDENCIA N355 URB. MARISCAL CACERES HUAMANGA AYACUCHO,-13.1497751,-74.2239188
3575,HOSPITAL  JESUS NAZARENO,GOBIERNO REGIONAL,50115,AYACUCHO,HUAMANGA,JESUS NAZARENO,JR. CIRO ALEGRIA N 800 HUAMANGA AYACUCHO,-13.1556451,-74.2142113
3655,"HOSPITAL DE APOYO DE HUANTA ""DANIEL ALCIDES CARRIÓN""",GOBIERNO REGIONAL,50401,AYACUCHO,HUANTA,HUANTA,AV. MARISCAL CASTILLA  N 625 HUANTA AYACUCHO,-12.9364543,-74.2517485
3727,"HOSPITAL DE APOYO DE PUQUIO ""FELIPE HUAMÁN POMA DE AYALA""",GOBIERNO REGIONAL,50601,AYACUCHO,LUCANAS,PUQUIO,AV. ARNALDO ALVARADO DE GREGORY N 969 - PUQUIO LUCANAS AYACUCHO,-14.6863532,-74.1195572
3754,HOSPITAL DE APOYO SAN FRANCISCO,GOBIERNO REGIONAL,50503,AYACUCHO,LA MAR,AYNA,AV. HUANTA SN LA MAR AYACUCHO,-12.6235962,-73.791055
3770,APOYO SIVIA,GOBIERNO REGIONAL,50407,AYACUCHO,HUANTA,SIVIA,PLAZA PRINCIPAL MZ.T LTE.6 HUANTA AYACUCHO,-12.5083493,-73.8625844
3792,HOSPITAL DE APOYO  SAN MIGUEL,GOBIERNO REGIONAL,50501,AYACUCHO,LA MAR,SAN MIGUEL,AV. RAMON CASTILLA SN LA MAR AYACUCHO,-13.012467,-73.981242
3853,HOSPITAL DEPARTAMENTAL DE HUANCAVELICA,GOBIERNO REGIONAL,90101,HUANCAVELICA,HUANCAVELICA,HUANCAVELICA,AV. ANDRES AVELINO CACERES SN YANANACO HUANCAVELICA HUANCAVELICA,-12.7874452,-74.9806702
3917,HOSPITAL PROVINCIAL DE ACOBAMBA,GOBIERNO REGIONAL,90201,HUANCAVELICA,ACOBAMBA,ACOBAMBA,AVENIDA AV. MANCO CAPAC N° 705 AV. MANCO CAPAC N° 705 ACOBAMBA ACOBAMBA HUANCAVELICA  ACOBAMBA HUANCAVELICA,-12.8445863,-74.5690892
3943,HOSPITAL DE LIRCAY,GOBIERNO REGIONAL,90301,HUANCAVELICA,ANGARAES,LIRCAY,AVENIDA ESMERALDA SN BELLAVISTA - LIRCAY SN AV. ESMERALDA SN BELLAVISTA - LIRCAY LIRCAY ANGARAES HUANCAVELICA  ANGARAES HUANCAVELICA,-12.9965739,-74.7236336
4074,HOSPITAL DE PAMPAS,GOBIERNO REGIONAL,90701,HUANCAVELICA,TAYACAJA,PAMPAS,JIRÓN BOLIVAR SN SN JR. BOLIVAR SN PAMPAS TAYACAJA HUANCAVELICA  TAYACAJA HUANCAVELICA,-12.402274,-74.866829
4131,HOSPITAL SUBREGIONAL DE ANDAHUAYLAS,GOBIERNO REGIONAL,30201,APURIMAC,ANDAHUAYLAS,ANDAHUAYLAS,JIRÓN HUGO PESCE N° 180 JR. HUGO PESCE N° 180 ANDAHUAYLAS ANDAHUAYLAS APURIMAC  ANDAHUAYLAS APURIMAC,-13.6579063,-73.381736
4140,HOSPITAL CHINCHEROS,GOBIERNO REGIONAL,30601,APURIMAC,CHINCHEROS,CHINCHEROS,AV. FERNANDO B. TERRY SN CHINCHEROS APURIMAC,-13.5166628,-73.7211089
4210,GRAL. JAEN,GOBIERNO REGIONAL,60801,CAJAMARCA,JAEN,JAEN,AVENIDA AV. PAKAMAUROS SN SN AV. PAKAMAUROS SN JAEN JAEN CAJAMARCA  JAEN CAJAMARCA,-5.7279233,-78.7959125
4223,SAN JAVIER BELLAVISTA,GOBIERNO REGIONAL,60802,CAJAMARCA,JAEN,BELLAVISTA,JR DANIEL ALCIDES CARRION SN JAEN CAJAMARCA,-7.1463747,-78.5203229
4317,HOSPITAL REGIONAL DOCENTE LAS MERCEDES,GOBIERNO REGIONAL,140101,LAMBAYEQUE,CHICLAYO,CHICLAYO,AV. LUIS GONZALES N 635 CHICLAYO LAMBAYEQUE,-6.7725343,-79.8424766
4370,HOSPITAL BELEN - LAMBAYEQUE,GOBIERNO REGIONAL,140301,LAMBAYEQUE,LAMBAYEQUE,LAMBAYEQUE,AV. RAMON CASTILLA  N 597 LAMBAYEQUE LAMBAYEQUE,-6.839133,-79.9356071
4440,HOSPITAL REFERENCIAL FERREÑAFE,GOBIERNO REGIONAL,140201,LAMBAYEQUE,FERREÑAFE,FERREÑAFE,AV. AUGUSTO B. LEGUIA N 600 FERREAFE LAMBAYEQUE,-6.7626317,-79.8421674
4466,DE APOYO CELENDIN,GOBIERNO REGIONAL,60301,CAJAMARCA,CELENDIN,CELENDIN,AV. TUPAC AMARU SN CELENDIN CAJAMARCA,-6.8686551,-78.1426417
4511,DE APOYO CAJABAMBA,GOBIERNO REGIONAL,60201,CAJAMARCA,CAJABAMBA,CAJABAMBA,JR. LA TORRE N 277 CAJABAMBA CAJAMARCA,-7.6206489,-78.045505
4655,SIMON BOLIVAR,GOBIERNO REGIONAL,60101,CAJAMARCA,CAJAMARCA,CAJAMARCA,AV.MARIO URTEAGA N 500 CAJAMARCA CAJAMARCA,-7.1555371,-78.5138267
4659,HOSPITAL DE APOYO CHOTA - JOSE SOTO CADENILLAS,GOBIERNO REGIONAL,60401,CAJAMARCA,CHOTA,CHOTA,JR. EXEQUIEL  MONTOYA N 718 CHOTA CAJAMARCA,-6.5624454,-78.6522533
4782,BAMBAMARCA - TITO VILLAR CABEZAS,GOBIERNO REGIONAL,60701,CAJAMARCA,HUALGAYOC,BAMBAMARCA,JR. RICARDO PALMA HUALGAYOC CAJAMARCA,-6.6713022,-78.5287612
4838,HOSPITAL REGIONAL VIRGEN DE FATIMA,GOBIERNO REGIONAL,10101,AMAZONAS,CHACHAPOYAS,CHACHAPOYAS,JIRON TRIUNFO N 035 CHACHAPOYAS AMAZONAS,-6.2348008,-77.8727184
4950,MARIA AUXILIADORA,GOBIERNO REGIONAL,10601,AMAZONAS,RODRIGUEZ DE MENDOZA,SAN NICOLAS,JIRÓN JIRON ALONSO DE ALVARADO SN - RODRIGUEZ DE MENDOZA SN JIRON ALONSO DE ALVARADO SN - RODRIGUEZ DE MENDOZA SAN NICOLAS RODRIGUEZ DE MENDOZA AMAZONAS  RODRIGUEZ DE MENDOZA AMAZONAS,-6.3953903,-77.4791263
4981,SANTA MARIA DE CUTERVO,GOBIERNO REGIONAL,60601,CAJAMARCA,CUTERVO,CUTERVO,JR. EL INCA SN-CUTERVO CUTERVO CAJAMARCA,-6.3886651,-78.817185
5044,HOSPITAL DE APOYO GUSTAVO LANATTA LUJAN,GOBIERNO REGIONAL,10201,AMAZONAS,BAGUA,BAGUA,AVENIDA AVENIDA HEROES DEL CENEPA N° 980 - BAGUA CAPITAL AVENIDA HEROES DEL CENEPA N° 980 - BAGUA CAPITAL BAGUA BAGUA AMAZONAS  BAGUA AMAZONAS,-5.6397725,-78.5307201
5125,HOSPITAL  SANTIAGO APOSTOL DE UTCUBAMBA,GOBIERNO REGIONAL,10701,AMAZONAS,UTCUBAMBA,BAGUA GRANDE,AVENIDA FELIPE SANTIAGO SN - BAGUA GRANDE UTCUBAMBA AMAZONAS,-5.7572823,-78.4422607
5145,SANTA MARIA DE NIEVA,GOBIERNO REGIONAL,10401,AMAZONAS,CONDORCANQUI,NIEVA,CALLE PRINCIPAL SN - URBANIZACIÓN JUAN VELAZCO  -  CIUDAD SANTA MARIA DE NIEVA CONDORCANQUI AMAZONAS,-4.6010065,-77.8610254
5195,HOSPITAL BELEN DE TRUJILLO,GOBIERNO REGIONAL,130101,LA LIBERTAD,TRUJILLO,TRUJILLO,JIRÓN JIRON BOLIVAR 350 DISTRITO TRUJILLO PROVINCIA TRUJILLO DEPARTAMENTO LA LIBERTAD  TRUJILLO LA LIBERTAD,-8.1144934,-79.027954
5196,REGIONAL DOCENTE DE TRUJILLO,GOBIERNO REGIONAL,130101,LA LIBERTAD,TRUJILLO,TRUJILLO,AVENIDA AV. MANSICHE SN NÚMERO SN DISTRITO TRUJILLO PROVINCIA TRUJILLO DEPARTAMENTO LA LIBERTAD  TRUJILLO LA LIBERTAD,-8.1053265,-79.0306032
5197,IRO,GOBIERNO REGIONAL,130101,LA LIBERTAD,TRUJILLO,TRUJILLO,OTROS MZ P LOTE 7-A SECTOR NATASHA ALTA DISTRITO TRUJILLO PROVINCIA TRUJILLO DEPARTAMENTO LA LIBERTAD  TRUJILLO LA LIBERTAD,-8.1131823,-79.0486157
5204,HOSPITAL DE ESPECIALIDADES BASICAS LA NORIA,GOBIERNO REGIONAL,130101,LA LIBERTAD,TRUJILLO,TRUJILLO,AVENIDA AVENIDA BLAS PASCAL N 124 URBANIZACION LA NORIA DISTRITO TRUJILLO PROVINCIA TRUJILLO DEPARTAMENTO LA LIBERTAD  TRUJILLO LA LIBERTAD,-8.103728,-79.0103354
5209,HOSPITAL DISTRITAL DE EL PORVENIR SANTA ISABEL,GOBIERNO REGIONAL,130102,LA LIBERTAD,TRUJILLO,EL PORVENIR,OTROS GABRIEL AGUILAR N 1605 DISTRITO EL PORVENIR PROVINCIA TRUJILLO DEPARTAMENTO LA LIBERTAD  TRUJILLO LA LIBERTAD,-8.0832752,-78.9967017
5217,HOSPITAL DISTRITAL EL ESFUERZO DE FLORENCIA DE MORA,GOBIERNO REGIONAL,130103,LA LIBERTAD,TRUJILLO,FLORENCIA DE MORA,CALLE CALLE 18 DE MAYO N 1356 DISTRITO FLORENCIA DE MORA PROVINCIA TRUJILLO DEPARTAMENTO LA LIBERTAD  TRUJILLO LA LIBERTAD,-8.0875162,-79.0255337
5226,HOSPITAL DISTRITAL JERUSALEN,GOBIERNO REGIONAL,130105,LA LIBERTAD,TRUJILLO,LA ESPERANZA,AVENIDA AVENIDA LOS CEDROS CUADRA 4 CS DISTRITO LA ESPERANZA PROVINCIA TRUJILLO DEPARTAMENTO LA LIBERTAD  TRUJILLO LA LIBERTAD,-8.0690033,-79.0543877
5231,HOSPITAL DISTRITAL LAREDO,GOBIERNO REGIONAL,130106,LA LIBERTAD,TRUJILLO,LAREDO,AVENIDA ANTENOR ORREGO SN URB. CENTENARIO NÚMERO SN DISTRITO LAREDO PROVINCIA TRUJILLO DEPARTAMENTO LA LIBERTAD  TRUJILLO LA LIBERTAD,-8.1270487,-79.0314756
5243,HOSPITAL DISTRITAL VISTA ALEGRE,GOBIERNO REGIONAL,130111,LA LIBERTAD,TRUJILLO,VICTOR LARCO HERRERA,JIRÓN JIRON BERNARDO ALCEDO N 193 DISTRITO VICTOR LARCO HERRERA PROVINCIA TRUJILLO DEPARTAMENTO LA LIBERTAD  TRUJILLO LA LIBERTAD,-8.1383948,-79.048516
5251,HOSPITAL PROVINCIAL DE VIRU,GOBIERNO REGIONAL,131201,LA LIBERTAD,VIRU,VIRU,CALLE SUCRE N 799 VIRU LA LIBERTAD,-8.4152088,-78.7501539
5263,"HOSPITAL PROVINCIAL ASCOPE ""ROSA SANCHEZ DE SANTILLAN""",GOBIERNO REGIONAL,130201,LA LIBERTAD,ASCOPE,ASCOPE,AVENIDA AV. GRAU SN NÚMERO SN DISTRITO ASCOPE PROVINCIA ASCOPE DEPARTAMENTO LA LIBERTAD  ASCOPE LA LIBERTAD,-7.7134804,-79.1072765
5277,HOSPITAL PROVINICIAL DE CASCAS,GOBIERNO REGIONAL,131101,LA LIBERTAD,GRAN CHIMU,CASCAS,AVENIDA AV. LIBERTAD N 249 DISTRITO CASCAS PROVINCIA GRAN CHIMU DEPARTAMENTO LA LIBERTAD  GRAN CHIMU LA LIBERTAD,-7.4813907,-78.8174106
5292,HOSPITAL DE APOYO TOMAS LAFORA,GOBIERNO REGIONAL,130702,LA LIBERTAD,PACASMAYO,GUADALUPE,JIRÓN JR. LA VICTORIA SN NÚMERO SN DISTRITO GUADALUPE PROVINCIA PACASMAYO DEPARTAMENTO LA LIBERTAD  PACASMAYO LA LIBERTAD,-7.2416742,-79.4745424
5296,HOSPITAL DISTRITAL DE PACASMAYO,GOBIERNO REGIONAL,130704,LA LIBERTAD,PACASMAYO,PACASMAYO,JIRÓN JIRON RAZURI SN NÚMERO SN DISTRITO PACASMAYO PROVINCIA PACASMAYO DEPARTAMENTO LA LIBERTAD  PACASMAYO LA LIBERTAD,-7.4004914,-79.5714254
5299,HOSPITAL DE APOYO CHEPEN,GOBIERNO REGIONAL,130401,LA LIBERTAD,CHEPEN,CHEPEN,AVENIDA AV. 28 DE JULIO SN NÚMERO SN DISTRITO CHEPEN PROVINCIA CHEPEN DEPARTAMENTO LA LIBERTAD  CHEPEN LA LIBERTAD,-7.2233636,-79.4338129
5306,HOSPITAL PROVINCIAL DE JULCAN,GOBIERNO REGIONAL,130501,LA LIBERTAD,JULCAN,JULCAN,JIRÓN JR CAPULY SN JULCAN NÚMERO SN DISTRITO JULCAN PROVINCIA JULCAN DEPARTAMENTO LA LIBERTAD  JULCAN LA LIBERTAD,-8.0428018,-78.4872055
5314,HOSPITAL DE APOYO OTUZCO ELPIDIO BEROVIDES PEREZ,GOBIERNO REGIONAL,130601,LA LIBERTAD,OTUZCO,OTUZCO,JIRÓN JR. PROGRESO N 385 DISTRITO OTUZCO PROVINCIA OTUZCO DEPARTAMENTO LA LIBERTAD  OTUZCO LA LIBERTAD,-7.9051555,-78.5652226
5332,HOSPITAL DE APOYO CESAR VALLEJO MENDOZA,GOBIERNO REGIONAL,131001,LA LIBERTAD,SANTIAGO DE CHUCO,SANTIAGO DE CHUCO,JIRÓN JR. MARISCAL CACERES 1145 DISTRITO SANTIAGO DE CHUCO PROVINCIA SANTIAGO DE CHUCO DEPARTAMENTO LA LIBERTAD  SANTIAGO DE CHUCO LA LIBERTAD,-8.1451807,-78.1735887
5349,HOSPITAL DE APOYO LEONCIO PRADO,GOBIERNO REGIONAL,130901,LA LIBERTAD,SANCHEZ CARRION,HUAMACHUCO,AVENIDA 10 DE JULIO N 209 DISTRITO HUAMACHUCO PROVINCIA SANCHEZ CARRION DEPARTAMENTO LA LIBERTAD  SANCHEZ CARRION LA LIBERTAD,-7.8171051,-78.0439728
5366,HOSPITAL PROVINCIAL DE BOLIVAR,GOBIERNO REGIONAL,130301,LA LIBERTAD,BOLIVAR,BOLIVAR,"BOLIVAR, BOLIVAR, LA LIBERTAD",-7.3069972,-78.0236781
5375,HOSPITAL PROVINCIAL DE TAYABAMBA,GOBIERNO REGIONAL,130801,LA LIBERTAD,PATAZ,TAYABAMBA,AVENIDA AV. DOS DE MAYO SN NÚMERO SN DISTRITO TAYABAMBA PROVINCIA PATAZ DEPARTAMENTO LA LIBERTAD  PATAZ LA LIBERTAD,-8.2769363,-77.3008506
5395,AGUAYTIA,GOBIERNO REGIONAL,250301,UCAYALI,PADRE ABAD,PADRE ABAD,JIRÓN JR LAMAS N 280 VILLA AGUAYTIA DISTRITO PADRE ABAD PROVINCIA PADRE ABAD DEPARTAMENTO UCAYALI  PADRE ABAD UCAYALI,-9.0395314,-75.5131117
5576,HOSPITAL REGIONAL DE PUCALLPA,GOBIERNO REGIONAL,250101,UCAYALI,CORONEL PORTILLO,CALLERIA,JIRÓN JR AGUSTIN CAUPER N 285 - PUCALLPA JR AGUSTIN CAUPER N 285 - PUCALLPA CALLERIA CORONEL PORTILLO UCAYALI  CORONEL PORTILLO UCAYALI,-8.3748623,-74.5323571
5577,HOSPITAL AMAZONICO - YARINACOCHA,GOBIERNO REGIONAL,250105,UCAYALI,CORONEL PORTILLO,YARINACOCHA,JIRÓN JIRON AGUAYTIA N 605 DISTRITO YARINACOCHA PROVINCIA CORONEL PORTILLO DEPARTAMENTO UCAYALI  CORONEL PORTILLO UCAYALI,-8.3559681,-74.5731026
5617,HOSPITAL SAN JUAN DE LURIGANCHO,MINSA,150132,LIMA METROPOLITANA,LIMA,SAN JUAN DE LURIGANCHO,ENTRE PARADERO 10 Y 11 DE AV. CANTO GRANDE (HUASCAR) LIMA LIMA,-11.9683664,-77.0042145
5850,HOSPITAL SAN JUAN DE MATUCANA,GOBIERNO REGIONAL,150701,LIMA REGION,HUAROCHIRI,MATUCANA,AVENIDA AV FLORIDA SN -COSTADO DE LA UGEL NÚMERO SN DISTRITO MATUCANA PROVINCIA HUAROCHIRI DEPARTAMENTO LIMA  HUAROCHIRI LIMA,-12.11215,-77.028769
5883,HOSPITAL DE HUAYCAN,MINSA,150103,LIMA METROPOLITANA,LIMA,ATE,AV JOSÉ C.MARIÁTEGUI SN ZONA B - A.H.HUAYCÁN LIMA LIMA,-12.015669,-76.8202878
5945,HOSPITAL VITARTE,MINSA,150103,LIMA METROPOLITANA,LIMA,ATE,AVENIDA NICOLAS AYLLON 5880-CARRETERA CENTRAL DISTRITO ATE PROVINCIA LIMA DEPARTAMENTO LIMA  LIMA LIMA,-12.0566354,-76.9689648
5946,HOSPITAL NACIONAL HIPOLITO UNANUE,MINSA,150111,LIMA METROPOLITANA,LIMA,EL AGUSTINO,AVENIDA CÉSAR VALLEJO 1390 - EL AGUSTINO AV. CÉSAR VALLEJO 1390 - EL AGUSTINO EL AGUSTINO LIMA LIMA  LIMA LIMA,-12.0397589,-76.9937711
5947,HOSPITAL DE MEDIANA COMPLEJIDAD JOSE AGURTO TELLO,MINSA,150118,LIMA METROPOLITANA,LIMA,LURIGANCHO,JR. AREQUIPA 214-218 LIMA LIMA,-11.9562018,-77.0516003
5948,HOSPITAL HERMILIO VALDIZAN,MINSA,150137,LIMA METROPOLITANA,LIMA,SANTA ANITA,CARRETERA CARRETERA CENTRAL KM 3.5 SANTA ANITA DISTRITO SANTA ANITA PROVINCIA LIMA DEPARTAMENTO LIMA  LIMA LIMA,-12.0568533,-76.9707422
5986,HOSPITAL REZOLA,GOBIERNO REGIONAL,150501,LIMA REGION,CAÑETE,SAN VICENTE DE CAÑETE,CALLE SAN MARTIN N 120 -124  SAN VICENTE CAETE LIMA,-13.0762811,-76.3855232
5987,HOSPITAL MARIA AUXILIADORA,MINSA,150133,LIMA METROPOLITANA,LIMA,SAN JUAN DE MIRAFLORES,CALLE MIGUEL IGLESIAS N°968 LIMA LIMA,-12.1606065,-76.9587367
6206,NACIONAL  DOS DE MAYO,MINSA,150101,LIMA METROPOLITANA,LIMA,LIMA,PARQUE HISTORIA DE LA MEDICINA PERUANA SN ALTURA CUADRA 13 AV GRAU LIMA LIMA,-12.0567551,-77.016015
6207,HOSPITAL NACIONAL ARZOBISPO LOAYZA,MINSA,150101,LIMA METROPOLITANA,LIMA,LIMA,AV. ALFONSO UGARTE 848 LIMA LIMA,-12.0499974,-77.0426464
6208,INSTITUTO NACIONAL MATERNO PERINATAL,MINSA,150101,LIMA METROPOLITANA,LIMA,LIMA,JIRÓN JR. ANTONIO MIROQUESADA N 941 JR. ANTONIO MIROQUESADA N 941 LIMA LIMA LIMA  LIMA LIMA,-12.0527686,-77.0221638
6209,INSTITUTO NACIONAL DE CIENCIAS NEUROLOGICAS,MINSA,150101,LIMA METROPOLITANA,LIMA,LIMA,JR. ANCASH 1271 - LIMA LIMA LIMA,-12.0461602,-77.0159002
6210,INSTITUTO NACIONAL DE ENFERMEDADES NEOPLASICAS,MINSA,150141,LIMA METROPOLITANA,LIMA,SURQUILLO,AV. ANGAMOS ESTE 2520 URB. CALERA DE LA MERCED LIMA LIMA,-12.1124415,-76.9982768
6211,HOSPITAL DE APOYO SANTA ROSA,MINSA,150121,LIMA METROPOLITANA,LIMA,PUEBLO LIBRE,AV. BOLIVAR SN CUADRA 8 LIMA LIMA,-12.0915579,-77.0560785
6212,HOSPITAL DE EMERGENCIAS PEDIATRICAS,MINSA,150115,LIMA METROPOLITANA,LIMA,LA VICTORIA,AVENIDA AV GRAU 854 - PROLONG JR HUAMANGA 147 DISTRITO LA VICTORIA PROVINCIA LIMA DEPARTAMENTO LIMA  LIMA LIMA,-12.0584282,-77.0215752
6213,HOSPITAL DE EMERGENCIAS JOSE CASIMIRO ULLOA,MINSA,150122,LIMA METROPOLITANA,LIMA,MIRAFLORES,AVENIDA AV. ROOSVELT N° 6355 (EX AV. REPUBLICA DE PANAMA) AV. ROOSVELT N° 6355 (EX AV. REPUBLICA DE PANAMA) MIRAFLORES LIMA LIMA  LIMA LIMA,-12.1370961,-77.0177714
6214,HOSPITAL VICTOR LARCO HERRERA,MINSA,150120,LIMA METROPOLITANA,LIMA,MAGDALENA DEL MAR,AV.AUGUSTO PEREZ ARANIBAR N° 600 LIMA LIMA,-12.1053254,-77.0560049
6215,HOSPITAL NACIONAL DOCENTE MADRE NIÑO SAN BARTOLOME,MINSA,150101,LIMA METROPOLITANA,LIMA,LIMA,AVENIDA AV ALFONSO UGARTE N 825 LIMA CERCADO AV ALFONSO UGARTE N 825 LIMA CERCADO LIMA LIMA LIMA  LIMA LIMA,-12.0498149,-77.0421549
6216,INSTITUTO NACIONAL DE SALUD DEL NIÑO,MINSA,150105,LIMA METROPOLITANA,LIMA,BREÑA,AV. BRASIL N 600 LIMA LIMA,-12.0649989,-77.0458398
6217,INO DR. FRANCISCO CONTRERAS C.,MINSA,150101,LIMA METROPOLITANA,LIMA,LIMA,AVENIDA AV. TINGO MARÍA N 398 DISTRITO LIMA PROVINCIA LIMA DEPARTAMENTO LIMA  LIMA LIMA,-12.0514395,-77.0551828
6218,NAC. DANIEL A. CARRION,GOBIERNO REGIONAL,70102,CALLAO,CALLAO,BELLAVISTA,AV. GUARDIA CHALACA N 2176 CALLAO CALLAO,-12.0628109,-77.1235085
6219,HOSPITAL SAN JOSE,GOBIERNO REGIONAL,70103,CALLAO,CALLAO,CARMEN DE LA LEGUA-REYNOSO,JIRÓN LAS MAGNOLIAS 475 DISTRITO CARMEN DE LA LEGUA-REYNOSO PROVINCIA CALLAO DEPARTAMENTO CALLAO  CALLAO CALLAO,-12.0428159,-77.0985997
6352,HOSPITAL II-E LAMAS,GOBIERNO REGIONAL,220501,SAN MARTIN,LAMAS,LAMAS,OTROS VICTOR RAUL HAYA DE LA TORRE SN NÚMERO SN DISTRITO LAMAS PROVINCIA LAMAS DEPARTAMENTO SAN MARTIN  LAMAS SAN MARTIN,-6.421572,-76.5164307
6359,BANDA SHILCAYO,GOBIERNO REGIONAL,220909,SAN MARTIN,SAN MARTIN,LA BANDA DE SHILCAYO,JIRÓN JR PAJATEN N° 319 DISTRITO LA BANDA DE SHILCAYO PROVINCIA SAN MARTIN DEPARTAMENTO SAN MARTIN SAN MARTIN SAN MARTIN,-6.4938638,-76.348807
6502,HOSPITAL BELLAVISTA,GOBIERNO REGIONAL,220201,SAN MARTIN,BELLAVISTA,BELLAVISTA,JR. ANCASH-CRUCE CON APURIMAC BELLAVISTA SAN MARTIN,-7.0589221,-76.5933967
6580,"HOSPITAL II-1 ""DR. JOSE PEÑA PORTUGUEZ "" - TOCACHE",GOBIERNO REGIONAL,221001,SAN MARTIN,TOCACHE,TOCACHE,JR. JORGE CHAVEZ SN C07 TOCACHE SAN MARTIN,-8.183319,-76.510612
6615,REGIONAL DOCENTE MATERNO INFANTIL EL CARMEN,GOBIERNO REGIONAL,120101,JUNIN,HUANCAYO,HUANCAYO,JR. PUNO N 951 HUANCAYO JUNIN,-12.0619436,-75.1999345
6732,HOSPITAL DE  RIOJA,GOBIERNO REGIONAL,220801,SAN MARTIN,RIOJA,RIOJA,JR. VENECIA SN RIOJA SAN MARTIN,-6.0684054,-77.1702671
6733,HOSPITAL  MOYOBAMBA,GOBIERNO REGIONAL,220101,SAN MARTIN,MOYOBAMBA,MOYOBAMBA,CARRETERA CARRETERA BAOS TERMALES KM 1.5 CARRETERA BAOS TERMALES KM 1.5 MOYOBAMBA MOYOBAMBA SAN MARTIN  MOYOBAMBA SAN MARTIN,-6.0415716,-76.9707919
6918,HOSPITAL TARAPOTO,GOBIERNO REGIONAL,220901,SAN MARTIN,SAN MARTIN,TARAPOTO,ESQUINAS JR. PAJATEN Y BOLIVAR SN NÚMERO SN DISTRITO TARAPOTO PROVINCIA SAN MARTIN DEPARTAMENTO SAN MARTIN  SAN MARTIN SAN MARTIN,-6.4735739,-76.3713254
6919,HOSPITAL II-E JUANJUI - MC LUIS IZQUIERDO VÁSQUEZ,GOBIERNO REGIONAL,220601,SAN MARTIN,MARISCAL CACERES,JUANJUI,JR. ARICA CUADRA 2 MARISCAL CACERES SAN MARTIN,-12.0903805,-77.0170829
7126,HOSPITAL DE VENTANILLA,GOBIERNO REGIONAL,70106,CALLAO,CALLAO,VENTANILLA,AV. PEDRO BELTRAN  CALLE 3 SN (REF. AL COSTADO CO CALLAO CALLAO,-11.8706413,-77.1204966
7135,ESPINAR,GOBIERNO REGIONAL,80801,CUSCO,ESPINAR,ESPINAR,CALLE DOMINGO HUARCA CRUZ SN BARRIO TUPAC AMARU  ESPINAR  ESPINAR  CUSCO SN CALLE DOMINGO HUARCA CRUZ SN BARRIO TUPAC AMARU  ESPINAR  ESPINAR  CUSCO ESPINAR ESPINAR CUSCO  ESPINAR CUSCO,-14.7905984,-71.4039378
7152,HOSPITAL DISTRITAL ALTO MOCHE-WALTER CRUZ VILCA,GOBIERNO REGIONAL,130107,LA LIBERTAD,TRUJILLO,MOCHE,OTROS MZ N 37 LOTE 01 DISTRITO MOCHE PROVINCIA TRUJILLO DEPARTAMENTO LA LIBERTAD  TRUJILLO LA LIBERTAD,-8.1852546,-78.9891957
7277,REGIONAL DE ENFERMEDADES NEOPLASICAS - NORTE - DR. LUIS PINILLOS GANOZA,GOBIERNO REGIONAL,130101,LA LIBERTAD,TRUJILLO,TRUJILLO,CARRETERA CARRETERA PANAMERICANA NORTE KM 558 DISTRITO TRUJILLO PROVINCIA TRUJILLO DEPARTAMENTO LA LIBERTAD  TRUJILLO LA LIBERTAD,-8.134261,-79.0196529
7322,HOSPITAL PRIVADO REFERENCIAL DOCENTE TUMÁN,PRIVADO,140120,LAMBAYEQUE,CHICLAYO,TUMAN,BLOCK 10 SN TUMAN CHICLAYO LAMBAYEQUE,-6.7469921,-79.6988921
7397,INSTITUTO REGIONAL DE ENFERMEDADES NEOPLASICAS,GOBIERNO REGIONAL,40101,AREQUIPA,AREQUIPA,AREQUIPA,AV. LA SALUD SN CERCADO AREQUIPA AREQUIPA,-16.3918146,-71.5430599
7632,HOSPITAL CARLOS LANFRANCO LA HOZ,MINSA,150125,LIMA METROPOLITANA,LIMA,PUENTE PIEDRA,AV. SAENZ PEA - CUADRA 6 SN LIMA LIMA,-11.8628121,-77.0793757
7633,HOSPITAL NACIONAL CAYETANO HEREDIA,MINSA,150135,LIMA METROPOLITANA,LIMA,SAN MARTIN DE PORRES,AVENIDA AV. HONORIO DELGADO 262 URB. INGENIERIA AV. HONORIO DELGADO 262 URB. INGENIERIA SAN MARTIN DE PORRES LIMA LIMA  LIMA LIMA,-12.022498,-77.0553495
7634,HOSPITAL NACIONAL SERGIO E. BERNALES,MINSA,150110,LIMA METROPOLITANA,LIMA,COMAS,AV. TUPAC AMARU KM. 14.5 LIMA LIMA,-11.9331579,-77.0455704
7635,HOSPITAL DE BARRANCA,GOBIERNO REGIONAL,150201,LIMA REGION,BARRANCA,BARRANCA,AV. NICOLAS DE PIEROLA 210 -224 BARRANCA LIMA,-10.7542808,-77.7641839
7636,HOSPITAL DE SUPE LAURA ESTHER RODRIGUEZ DULANTO,GOBIERNO REGIONAL,150204,LIMA REGION,BARRANCA,SUPE,JIRÓN  ALFONSO UGARTE N 350 DISTRITO SUPE PROVINCIA BARRANCA DEPARTAMENTO LIMA BARRANCA LIMA,-10.7517663,-77.758433
7637,HOSPITAL SAN JUAN BAUTISTA HUARAL,GOBIERNO REGIONAL,150601,LIMA REGION,HUARAL,HUARAL,CALLE CALLE TACNA N 120 URB. SAN JUAN I DISTRITO HUARAL PROVINCIA HUARAL DEPARTAMENTO LIMA  HUARAL LIMA,-11.5031049,-77.2132114
7638,"HOSPITAL DE CHANCAY Y SBS ""Dr. HIDALGO ATOCHE LÓPEZ""",GOBIERNO REGIONAL,150605,LIMA REGION,HUARAL,CHANCAY,JIRÓN JR. . SUCRE SN NÚMERO SN DISTRITO CHANCAY PROVINCIA HUARAL DEPARTAMENTO LIMA  HUARAL LIMA,-11.5606689,-77.2709562
7639,HOSPITAL GENERAL DE HUACHO,GOBIERNO REGIONAL,150801,LIMA REGION,HUAURA,HUACHO,AVENIDA JOSE ARAMBULO LA ROSA N 221-251-271 HUAURA LIMA,-11.1157518,-77.6063672
7686,HOSPITAL REGIONAL DOCENTE CAJAMARCA,GOBIERNO REGIONAL,60101,CAJAMARCA,CAJAMARCA,CAJAMARCA,AV. MARIO URTEAGA N 500 CAJAMARCA CAJAMARCA,-7.1555371,-78.5138267
7719,HOSPITAL REGIONAL GUILLERMO DIAZ DE LA VEGA,GOBIERNO REGIONAL,30101,APURIMAC,ABANCAY,ABANCAY,AV DANIEL ALCIDES CARRION SN ABANCAY APURIMAC,-13.638739,-72.8827854
7732,HOSPITAL REGIONAL MOQUEGUA,GOBIERNO REGIONAL,180101,MOQUEGUA,MARISCAL NIETO,MOQUEGUA,AVENIDA SAN ANTONIO NORTE SN MARISCAL NIETO MOQUEGUA,-17.2054376,-70.9529408
7733,"INSTITUTO NACIONAL DE SALUD MENTAL ""HONORIO DELGADO - HIDEYO NOGUCHI""",MINSA,150135,LIMA METROPOLITANA,LIMA,SAN MARTIN DE PORRES,JR. ELOY ESPINOZA SALDAA 709 - URB. PALAO LIMA LIMA,-12.0205996,-77.0562402
7734,"INSTITUTO NACIONAL DE REHABILITACION ""DRA. ADRIANA REBAZA FLORES"" AMISTAD PERU - JAPON",MINSA,150108,LIMA METROPOLITANA,LIMA,CHORRILLOS,AVENIDA AV. DEFENSORES DEL MORRO N° 213 - 215 DISTRITO CHORRILLOS PROVINCIA LIMA DEPARTAMENTO LIMA  LIMA LIMA,-12.1668011,-77.0261724
7874,CLINICA FEIJOO EIRL,PRIVADO,240101,TUMBES,TUMBES,TUMBES,AV. MARISCAL CASTILLA N° 305 TUMBES TUMBES,-3.5719024,-80.4567346
8024,CLINICA CAYETANO HEREDIA,PRIVADO,120114,JUNIN,HUANCAYO,EL TAMBO,AVENIDA AV.HUANCAVELICA NRO.745 JUNIN-HUANCAYO-EL TAMBO DISTRITO EL TAMBO PROVINCIA HUANCAYO DEPARTAMENTO JUNIN  HUANCAYO JUNIN,-12.0632194,-75.2193272
8108,HOSPITAL  DIOSPI SUYANA,PRIVADO,30104,APURIMAC,ABANCAY,CURAHUASI,SECTOR CCOCHARAY SN ABANCAY APURIMAC,-13.6301155,-72.8788627
8146,POLICLINICO HERMANA MARIA DONROSE SUTMÖLLER,ESSALUD,70106,CALLAO,CALLAO,VENTANILLA,AVENIDA AVENIDA GONZALES GANOZA SN I SECTOR IZQUIERDO URB ANTONIO MORENO DE CACERES NÚMERO SN DISTRITO VENTANILLA PROVINCIA CALLAO DEPARTAMENTO CALLAO  CALLAO CALLAO,-11.8865243,-77.1243942
8151,CLÍNICA METROPOLITANA,PRIVADO,140101,LAMBAYEQUE,CHICLAYO,CHICLAYO,CALLE MANUEL MARIA IZAGA 154 CHICLAYO LAMBAYEQUE,-6.7731516,-79.8432899
8154,CLINICA EL NAZARENO,PRIVADO,50101,AYACUCHO,HUAMANGA,AYACUCHO,JR. QUINUA N 428 HUAMANGA AYACUCHO,-13.1552562,-74.2231839
8258,REJUVENECIMIENTO Y ESTETICA CABANI SRL,PRIVADO,150130,LIMA METROPOLITANA,LIMA,SAN BORJA,AV GUARDIA CIVIL 627 LIMA LIMA,-12.0959889,-77.0106324
8265,HOSPITAL NACIONAL ALBERTO SABOGAL SOLOGUREN DE LA RED ASISTENCIAL SABOGAL,ESSALUD,70102,CALLAO,CALLAO,BELLAVISTA,JR. COLINA NRO. 1081 CALLAO CALLAO,-12.0641779,-77.1224358
8266,HOSPITAL NAVAL,SANIDAD DE LA MARINA DE GUERRA DEL PERU,70102,CALLAO,CALLAO,BELLAVISTA,AV. VENEZUELA SN CALLAO CALLAO,-12.0624218,-77.0978016
8269,SERVICIOS MEDICOS LIONEL FLORES E HIJOS SAC - CLINICA SAN MARTIN,PRIVADO,220901,SAN MARTIN,SAN MARTIN,TARAPOTO,JR SAN MARTIN 274 SAN MARTIN SAN MARTIN,-6.4786546,-76.3862761
8271,CLINICA SAN JUAN BAUTISTA,PRIVADO,150132,LIMA METROPOLITANA,LIMA,SAN JUAN DE LURIGANCHO,AV. PROCERES DE LA INDEPENDENCIA 1764 MZ. G OOTES 10-11-20-21 - URB. LAS FLORES LIMA LIMA,-12.0040406,-77.0066878
8281,CLUB DE LA SALUD,PRIVADO,150101,LIMA METROPOLITANA,LIMA,LIMA,JR. MIGUEL ALJOVIN  NRO. 208 -222 LIMA LIMA,-12.0274012,-77.0768952
8317,HOSPITAL AURELIO DIAZ UFANO Y PERAL,ESSALUD,150132,LIMA METROPOLITANA,LIMA,SAN JUAN DE LURIGANCHO,CALLE MAJES SN G-11 - URB. LOS PINOS LIMA LIMA,-12.1182819,-76.9949691
8318,ESSALUD - HOSPITAL I JORGE VOTO BERNALES CORPANCHO,ESSALUD,150137,LIMA METROPOLITANA,LIMA,SANTA ANITA,CARRETERA CENTRAL KM. 3.5 N 1351 LIMA LIMA,-12.05157,-76.9574204
8325,CLINICA CENTENARIO PERUANO JAPONESA,PRIVADO,150121,LIMA METROPOLITANA,LIMA,PUEBLO LIBRE,AV. PASO DE LOS ANDES 675 LIMA LIMA,-12.0731243,-77.059128
8351,CLINICAS SAN BERNARDO S.A.,PRIVADO,150121,LIMA METROPOLITANA,LIMA,PUEBLO LIBRE,CALLE CALLE SAN  JOSE 161 DISTRITO PUEBLO LIBRE PROVINCIA LIMA DEPARTAMENTO LIMA  LIMA LIMA,-12.0850393,-77.0628422
8353,ESSALUD - HOSPITAL II VITARTE,ESSALUD,150103,LIMA METROPOLITANA,LIMA,ATE,JR. SAN MARTIN DE PORTES 265 LIMA LIMA,-12.0894516,-77.0708987
8370,POLICLINICO CHOSICA - ESSALUD,ESSALUD,150118,LIMA METROPOLITANA,LIMA,LURIGANCHO,JR.TRUJILLO SUR 800 LIMA LIMA,-11.9386985,-76.6991937
8388,TG LASER OFTALMICA S.A.,PRIVADO,150131,LIMA METROPOLITANA,LIMA,SAN ISIDRO,Av. Dos de Mayo 666 San Isidro. Lima-Perú,-12.0911772,-77.0385323
8398,CLINICA EL GOLF,PRIVADO,150131,LIMA METROPOLITANA,LIMA,SAN ISIDRO,AVENIDA AV AURELIO MIROQUESADA 1030 DISTRITO SAN ISIDRO PROVINCIA LIMA DEPARTAMENTO LIMA  LIMA LIMA,-12.0988563,-77.0514431
8489,ESSALUD - HOSPITAL III SUÁREZ ANGAMOS,ESSALUD,150122,LIMA METROPOLITANA,LIMA,MIRAFLORES,AV. ANGAMOS ESTE N 261 LIMA LIMA,-12.113361,-77.028143
8502,HOSPITAL III EMERGENCIAS GRAU,ESSALUD,150101,LIMA METROPOLITANA,LIMA,LIMA,AVENIDA GRAU N° 351 LIMA LIMA,-12.0589621,-77.0310482
8514,CENTRO DE SALUD CON INTERNAMIENTO PACASMAYO,ESSALUD,130704,LA LIBERTAD,PACASMAYO,PACASMAYO,AVENIDA MARISCAL CÁCERES N° 701 PACASMAYO LA LIBERTAD,-7.4061457,-79.5652246
8516,CLINICA SANTO DOMINGO,PRIVADO,120101,JUNIN,HUANCAYO,HUANCAYO,AV. FRANCISCO SOLANO NRO. 274 HUANCAYO JUNIN,-12.0608786,-75.2042282
8519,CLINICA UNIVERSITARIA,PRIVADO,150110,LIMA METROPOLITANA,LIMA,COMAS,AV. UNIVERSITARIA N° 6062 Y JR. PAGADOR N 137 URB. SANTA LUZMILA LIMA LIMA,-11.951404,-77.059539
8564,HOSPITAL I OCTAVIO MONGRUT MUÑOZ,ESSALUD,150136,LIMA METROPOLITANA,LIMA,SAN MIGUEL,AV PARQUE DE LAS LEYENDAS 255 LIMA LIMA,-12.0659381,-77.0945827
8577,HOSPITAL NACIONAL ALMANZOR AGUINAGA ASENJO,ESSALUD,140101,LAMBAYEQUE,CHICLAYO,CHICLAYO,PLAZA DE LA SEGURIDAD SOCIAL SN CHICLAYO LAMBAYEQUE,-6.773264,-79.8307247
8652,HOSPITAL NACIONAL RAMIRO PRIALE PRIALE,ESSALUD,120114,JUNIN,HUANCAYO,EL TAMBO,AVENIDA INDEPENDENCIA N 296 HUANCAYO JUNIN,-12.0532746,-75.2328684
8653,HOSPITAL II ALBERTO HURTADO ABADIA - LA OROYA,ESSALUD,120808,JUNIN,YAULI,SANTA ROSA DE SACCO,AVENIDA MIGUEL GRAU N 1250 YAULI JUNIN,-11.5432031,-75.929502
8654,HOSPITAL I TARMA,ESSALUD,120701,JUNIN,TARMA,TARMA,AVENIDA ODRIA SN CD. 14 TARMA JUNIN,-11.4025582,-75.6849146
8656,HOSPITAL  SELVA CENTRAL Y ENFERMEDADES TROPICALES LA MERCED,ESSALUD,120301,JUNIN,CHANCHAMAYO,CHANCHAMAYO,JR. LOS CAUCHOS N 223-271 Y JR. LOS ROBLES N 527 CHANCHAMAYO JUNIN,-11.0575884,-75.3371732
8658,HOSPITAL I RIO NEGRO - SATIPO,ESSALUD,120607,JUNIN,SATIPO,RIO NEGRO,JIRON HEROES DEL CENEPA SN 2DA. CIUADRA - RIO NEGRO SATIPO JUNIN,-11.2270544,-74.6486045
8671,HOSPITAL I MARINO MOLINA SCIPPA,ESSALUD,150110,LIMA METROPOLITANA,LIMA,COMAS,AV. GUILLERMO DE LA FUENTE NO 515 URB. SANTA LUZMILA LIMA LIMA,-11.9436138,-77.0576395
8685,HOSPITAL I ALBRECHT,ESSALUD,130101,LA LIBERTAD,TRUJILLO,TRUJILLO,AV JESUS DE NAZARETH SN RESIDENCIAL ALBRECHT TRUJILLO LA LIBERTAD,-8.1100616,-79.0338951
8720,HOSPITAL NACIONAL EDGARDO REBAGLIATI MARTINS,ESSALUD,150113,LIMA METROPOLITANA,LIMA,JESUS MARIA,JIRON EDGARDO REBAGLIATI N490 LIMA LIMA,-12.0780012,-77.0402132
8730,BM CLINICA,PRIVADO,140101,LAMBAYEQUE,CHICLAYO,CHICLAYO,AVENIDA AV.SESQUICENTENARIO 416-URB. SANTA VICTORIA DISTRITO CHICLAYO PROVINCIA CHICLAYO DEPARTAMENTO LAMBAYEQUE  CHICLAYO LAMBAYEQUE,-6.7804543,-79.8427333
8741,ULDARICO ROCCA FERNANDEZ,ESSALUD,150142,LIMA METROPOLITANA,LIMA,VILLA EL SALVADOR,AV.SEPARADORA INDUSTRIAL Y AV. CESAR VALLEJO LIMA LIMA,-12.2106115,-76.9316933
8746,CLINICA GOOD HOPE,PRIVADO,150122,LIMA METROPOLITANA,LIMA,MIRAFLORES,AVENIDA AV. MALECON BALTA N° 956 934 944 Y AV. GRAU N° 755 DISTRITO MIRAFLORES PROVINCIA LIMA DEPARTAMENTO LIMA  LIMA LIMA,-12.1256695,-77.0344457
8750,CLINICA DEL PACIFICO S.A,PRIVADO,140101,LAMBAYEQUE,CHICLAYO,CHICLAYO,AV. JOSÉ LEONARDO ORTIZ N 420 CHICLAYO LAMBAYEQUE,-6.7747523,-79.8458138
8786,CLINICA SAN JUAN DE DIOS,PRIVADO,150134,LIMA METROPOLITANA,LIMA,SAN LUIS,AVENIDA NICOLÁS ARRIOLA 3250 AV. NICOLÁS ARRIOLA 3250 SAN LUIS LIMA LIMA  LIMA LIMA,-12.065508,-76.9896111
8858,CLINICA ORTEGA,PRIVADO,120101,JUNIN,HUANCAYO,HUANCAYO,AV. DANIEL A. CARRION N 1124 HUANCAYO JUNIN,-12.0868682,-75.2135164
8901,"ESSALUD HOSPITAL 1 ""AGUSTIN ARBULU NEYRA"" FERREÑAFE",ESSALUD,140206,LAMBAYEQUE,FERREÑAFE,PUEBLO NUEVO,CALLE MIGUEL PASCO N° 101 - PUEBLO NUEVO DISTRITO PUEBLO NUEVO PROVINCIA FERREAFE DEPARTAMENTO LAMBAYEQUE FERREAFE LAMBAYEQUE,-6.6392972,-79.7931847
8956,CLINICA DEL INCA,PRIVADO,150122,LIMA METROPOLITANA,LIMA,MIRAFLORES,AVENIDA 28 DE JULIO  1331 AVENIDA 28 DE JULIO  1331 MIRAFLORES LIMA LIMA  LIMA LIMA,-12.1302732,-77.0193227
9037,HOSPITAL II CHOCOPE,ESSALUD,130203,LA LIBERTAD,ASCOPE,CHOCOPE,PANAMERICANA NORTE KM N° 604 DISTRITO JESUS MARIA PROVINCIA LIMA DEPARTAMENTO LIMA  ASCOPE LA LIBERTAD,-11.8453073,-77.0987134
9038,CENTRO DE SALUD CON INTERNAMIENTO MOCHE,ESSALUD,130107,LA LIBERTAD,TRUJILLO,MOCHE,CALLE ELIO JACOBO CAFFO SN URB EL PARAISO TRUJILLO LA LIBERTAD,-8.1435407,-78.9990887
9040,HOSPITAL I - LA ESPERANZA,ESSALUD,130105,LA LIBERTAD,TRUJILLO,LA ESPERANZA,JIRÓN LIMA CUADRA 4 SECTOR SANTA VERÓNICA TRUJILLO LA LIBERTAD,-8.0750561,-79.0539742
9041,CENTRO DE SALUD CON INTERNAMIENTO EL PORVENIR,ESSALUD,130102,LA LIBERTAD,TRUJILLO,EL PORVENIR,JIRON MAYTA CAPAC N 823 RIO SECO TRUJILLO LA LIBERTAD,-8.0863394,-79.0085737
9042,VICTOR LAZARTE ECHEGARAY,ESSALUD,130101,LA LIBERTAD,TRUJILLO,TRUJILLO,PROLONGACION UNION 1350 TRUJILLO LA LIBERTAD,-8.0993822,-79.0122686
9047,HOSPITAL III CHIMBOTE,ESSALUD,21801,ANCASH,SANTA,CHIMBOTE,AV.CIRCUNVALACION N 119 - LADERAS DEL NORTE SANTA ANCASH,-9.0611812,-78.5884403
9053,HOSPITAL II HUARAZ,ESSALUD,20105,ANCASH,HUARAZ,INDEPENDENCIA,AV INDEPENDENCIA N 2161 BARRIO VICHAY HUARAZ ANCASH,-9.4932351,-77.5374156
9066,HOSPITAL HIGOS URCO,ESSALUD,10101,AMAZONAS,CHACHAPOYAS,CHACHAPOYAS,JR. ORTIZ ARRIETA N° 612 CHACHAPOYAS AMAZONAS,-6.2354735,-77.8733506
9067,HOSPITAL EL BUEN SAMARITANO,ESSALUD,10701,AMAZONAS,UTCUBAMBA,BAGUA GRANDE,JR. ANGAMOS N 990 UTCUBAMBA AMAZONAS,-5.7515038,-78.446255
9068,HOSPITAL I HEROES DEL CENEPA,ESSALUD,10201,AMAZONAS,BAGUA,BAGUA,JR. LAMBAYEQUE N° 517 BAGUA AMAZONAS,-5.633839,-78.5343024
9089,ONCOGYN CLINICA INTEGRAL,PRIVADO,150113,LIMA METROPOLITANA,LIMA,JESUS MARIA,AV. SAN FELIPE 1015 - 1017 LIMA LIMA,-12.0817789,-77.04735
9090,"CLINICA "" LIMATAMBO""",PRIVADO,150132,LIMA METROPOLITANA,LIMA,SAN JUAN DE LURIGANCHO,AV. PROCERES DE LA INDEPENDENCIA 2701 - Y GANIMIDES 106 - 110 LIMA LIMA,-11.986855,-77.0077168
9104,CLINICA SAN MIGUEL ARCANGEL S.A.C.,PRIVADO,150132,LIMA METROPOLITANA,LIMA,SAN JUAN DE LURIGANCHO,"Jirón Las Gardenias 754-760, San Juan de Lurigancho 15419",-11.9702835,-77.0018315
9116,CLINICA SAN FELIPE S.A.,PRIVADO,150113,LIMA METROPOLITANA,LIMA,JESUS MARIA,AV. GREGORIO ESCOBEDO N° 650 LIMA LIMA,-12.085969,-77.054094
9123,CLINICA ANGLOAMERICANA,PRIVADO,150131,LIMA METROPOLITANA,LIMA,SAN ISIDRO,CALLE ALFREDO SALAZAR N 350 LIMA LIMA,-12.109555,-77.039261
9132,HOSPITAL II HUANCAVELICA,ESSALUD,90118,HUANCAVELICA,HUANCAVELICA,ASCENSION,AV. FELIX R. CRISPIN VARGAS SN HUANCAVELICA HUANCAVELICA,-12.7832573,-74.9890025
9141,CENTRO DE SALUD CON INTERNAMIENTO CASA GRANDE,ESSALUD,130208,LA LIBERTAD,ASCOPE,CASA GRANDE,PROLONGACION AV. ATAHUALPA MZ 15 LOTE 01 URB. 8 DE SETIEMBRE ASCOPE LA LIBERTAD,-7.7473403,-79.1901505
9145,CLINICA MONTE SINAI,PRIVADO,150116,LIMA METROPOLITANA,LIMA,LINCE,"Jirón Garcilaso de la Vega 1799, Lince 15073",-12.0831365,-77.040755
9153,CLINICA MONTEFIORI,PRIVADO,150114,LIMA METROPOLITANA,LIMA,LA MOLINA,AV. SEPARADORA INDUSTRIAL N 1818-1820 (ANTES 380-390) MZ. A1. LT 17-24 URB. CACTUS LIMA LIMA,-12.0654591,-76.9659877
9180,HOSPITAL I TINGO MARIA,ESSALUD,100601,HUANUCO,LEONCIO PRADO,RUPA-RUPA,JR. BOLOGNESI 120 PPJJ TUPAC AMARU LEONCIO PRADO HUANUCO,-9.2971053,-75.9995756
9188,HOSPITAL II RAMON CASTILLA,ESSALUD,150101,LIMA METROPOLITANA,LIMA,LIMA,JIRÓN JIRÓN GUILLERMO DANSEY N 390 JIRÓN GUILLERMO DANSEY N 390 LIMA LIMA LIMA  LIMA LIMA,-12.045443,-77.041405
9215,HOSPITAL III BASE  (PUNO) - RED ASISTENCIAL PUNO,ESSALUD,210101,PUNO,PUNO,PUNO,JR. FRANCISCO CACERES JARA N 600 - DEL PARQUE INDUSTRIAL SALCEDO PUNO PUNO,-15.8741257,-70.0003341
9234,CLINICA LOS FRESNOS,PRIVADO,60101,CAJAMARCA,CAJAMARCA,CAJAMARCA,JR LOS NOGALES 179 - URBANIZACION EL INGENIO CAJAMARCA CAJAMARCA,-7.1481536,-78.5149432
9250,CLINICA BELLAVISTA,PRIVADO,70102,CALLAO,CALLAO,BELLAVISTA,AV. LAS GAVIOTAS 207 URB. SAN JOSE CALLAO CALLAO,-12.0576329,-77.0965671
9251,HOSPITAL NACIONAL GUILLERMO ALMENARA IRIGOYEN,ESSALUD,150115,LIMA METROPOLITANA,LIMA,LA VICTORIA,AV. GRAU N 800 LIMA LIMA,-12.0583082,-77.0224618
9278,FLORENCIA DE MORA,ESSALUD,130103,LA LIBERTAD,TRUJILLO,FLORENCIA DE MORA,AVENIDA NUEVE DE OCTUBRE SN TRUJILLO LA LIBERTAD,-8.0994392,-79.0253009
9319,HOSPITAL I VICTOR ALFREDO LAZO PERALTA,ESSALUD,170101,MADRE DE DIOS,TAMBOPATA,TAMBOPATA,AV. ANDRES AVELINO CACERES N 560 TAMBOPATA MADRE DE DIOS,-12.5885116,-69.2193217
9409,CLINICA RICARDO PALMA,PRIVADO,150131,LIMA METROPOLITANA,LIMA,SAN ISIDRO,AV. JAVIER PRADO ESTE 1066 LIMA LIMA,-12.0905573,-77.0183295
9431,CLÍNICA SANTA CATALINA,PRIVADO,150115,LIMA METROPOLITANA,LIMA,LA VICTORIA,CALLE CALLE JOSE BAZZOCHI N 339  339 SANTA CATALINA CALLE JOSE BAZZOCHI N 339 - URB. SANTA CATALINA LA VICTORIA LIMA LIMA  LIMA LIMA,-12.0826458,-77.0232457
9437,CLINICA LIMATAMBO,PRIVADO,150131,LIMA METROPOLITANA,LIMA,SAN ISIDRO,AVENIDA AV. REPUBLICA DE PANAMA 3606 DISTRITO SAN ISIDRO PROVINCIA LIMA DEPARTAMENTO LIMA  LIMA LIMA,-12.1006305,-77.0194827
9483,OCULASER SAC,PRIVADO,150101,LIMA METROPOLITANA,LIMA,LIMA,AV. ARENALES 1181LIMA CERCADO LIMA LIMA,-12.0798735,-77.0363455
9505,OFTALMOSALUD,PRIVADO,150131,LIMA METROPOLITANA,LIMA,SAN ISIDRO,AVENIDA AV. JAVIER PRADO ESTE N° 1142 DISTRITO SAN ISIDRO PROVINCIA LIMA DEPARTAMENTO LIMA  LIMA LIMA,-12.0892205,-77.0129351
9591,CLINICA LIMATAMBO CAJAMARCA S.A.C.,PRIVADO,60101,CAJAMARCA,CAJAMARCA,CAJAMARCA,JR PUNO 265 CAJAMARCA CAJAMARCA,-7.1513657,-78.5234273
9599,CLINICA SAN FRANCISCO DE ASIS S.A. (CLINICA SAN FRANCISCO DE ASIS),PRIVADO,60101,CAJAMARCA,CAJAMARCA,CAJAMARCA,JR. MIGUEL GRAU N 851 CAJAMARCA CAJAMARCA,-7.1579599,-78.5098186
9600,HOSPITAL II PUCALLPA- ESSALUD,ESSALUD,250101,UCAYALI,CORONEL PORTILLO,CALLERIA,AV.LLOQUE YUPANQUI  510 CORONEL PORTILLO UCAYALI,-8.3938454,-74.5364676
9606,VIRGEN DEL ROSARIO SA,PRIVADO,110101,ICA,ICA,ICA,CALLE CALLAO N° 263 ICA ICA,-14.0618065,-75.7293562
9627,SAN MARTIN,PRIVADO,110101,ICA,ICA,ICA,AVENIDA AV SAN MARTIN 598 URB. LA MORALES AV SAN MARTIN 598 URB. LA MORALES ICA ICA ICA  ICA ICA,-14.0693699,-75.729224
9641,CLINICA MUNDO SALUD SAC,PRIVADO,150117,LIMA METROPOLITANA,LIMA,LOS OLIVOS,AV. CARLOS IZAGUIRRE NO 1234 LIMA LIMA,-11.9914139,-77.076977
9648,CLINICA TATAJE,PRIVADO,110101,ICA,ICA,ICA,AVENIDA CONDE DE NIEVA N° 355 URB. LUREN DISTRITO ICA PROVINCIA ICA DEPARTAMENTO ICA  ICA ICA,-14.0734598,-75.7248839
9660,SEÑOR DE LUREN DE ICA,PRIVADO,110101,ICA,ICA,ICA,AVENIDA SAN MARTIN N° 536 URB. LA MORALES DISTRITO ICA PROVINCIA ICA DEPARTAMENTO ICA  ICA ICA,-14.0686337,-75.7294208
9682,CLÍNICA INTERNACIONAL,PRIVADO,150130,LIMA METROPOLITANA,LIMA,SAN BORJA,AVENIDA GUARDIA CIVIL N 385 AV. GUARDIA CIVIL N 385 SAN BORJA LIMA LIMA  LIMA LIMA,-12.0917442,-77.0082406
9683,CLINICA PROSALUD,PRIVADO,210101,PUNO,PUNO,PUNO,JR JOSE CARLOS MARIATEGUI 253 PUNO PUNO,-15.8331062,-70.0216816
9685,CLINICA PUNO,PRIVADO,210101,PUNO,PUNO,PUNO,JR RAMON CASTILLA 178 URB SAN VICENTE DE PAUL PUNO PUNO,-15.8414662,-70.022757
9747,HOSPITAL II PASCO,ESSALUD,190109,PASCO,PASCO,SIMON BOLIVAR,BARRIO BUENOS AIRES SN PASCO PASCO,-10.6639323,-76.2535962
9748,HOSPITAL I OXAPAMPA,ESSALUD,190301,PASCO,OXAPAMPA,OXAPAMPA,PROLONGACION ENRIQUE BOTTGER SN DISTRITO PROVINCIA DE OXAPAMPA Y REGIÓN PASCO OXAPAMPA PASCO,-10.5764218,-75.4031286
9749,HOSPITAL II - E HUARIACA,ESSALUD,190103,PASCO,PASCO,HUARIACA,CARRETERA CENTRAL SN HUARIACA DISTRITO DE HUARIACA PROVINCIA Y REGIÓN PASCO PASCO PASCO,-10.4440152,-76.1885171
9850,CLÍNICA VESALIO,PRIVADO,150130,LIMA METROPOLITANA,LIMA,SAN BORJA,CALLE JOSEPH THOMPSON N° 140 - URB. SANTO TOMAS LIMA LIMA,-12.1062906,-77.0072219
9886,CLINICA SAN BORJA,PRIVADO,150130,LIMA METROPOLITANA,LIMA,SAN BORJA,AVENIDA AV. GUARDIA CIVIL N° 337 AV. GUARDIA CIVIL N° 337 SAN BORJA LIMA LIMA  LIMA LIMA,-12.0920538,-77.0083154
9899,HOSPITAL BASE III JULIACA - ESSALUD - RED ASISTENCIAL JULIACA,ESSALUD,211101,PUNO,SAN ROMAN,JULIACA,AV. JOSÉ SANTOS CHOCANO SN  LA CAPILLA JULIACA. SAN ROMAN PUNO,-15.4904588,-70.1631158
9900,HOSPITAL I LAMPA - ESSALUD - RED ASISTENCIAL JULIACA,ESSALUD,210701,PUNO,LAMPA,LAMPA,JR. ALFONSO UGARTE 124 - LAMPA. LAMPA PUNO,-15.3638308,-70.3686017
9917,CLINICA CARRION,PRIVADO,70106,CALLAO,CALLAO,VENTANILLA,AV. PEDRO BELTRAN 175 URB. SATELITE VENTANILLA CALLAO CALLAO,-11.8733535,-77.1257461
9954,HOSPITAL I CHEPEN ESSALUD,ESSALUD,130401,LA LIBERTAD,CHEPEN,CHEPEN,AVENIDA AV. LAS PALMERAS SN - URB HUANCHACO NÚMERO SN DISTRITO CHEPEN PROVINCIA CHEPEN DEPARTAMENTO LA LIBERTAD  CHEPEN LA LIBERTAD,-7.2221534,-79.4354616
9982,CLINICA REPROMEDIC,PRIVADO,150113,LIMA METROPOLITANA,LIMA,JESUS MARIA,JR.MAXIMO ABRIL N 585 - 589 LIMA LIMA,-12.0713088,-77.0391192
9988,CLINICA SAN PABLO,PRIVADO,150140,LIMA METROPOLITANA,LIMA,SANTIAGO DE SURCO,CALLE CALLE LA CONQUISTA 145-URB. EL DERBY DE MONTERRICO DISTRITO SANTIAGO DE SURCO PROVINCIA LIMA DEPARTAMENTO LIMA  LIMA LIMA,-12.1001866,-76.9714626
9989,CLINICA PADRE LUIS TEZZA,PRIVADO,150140,LIMA METROPOLITANA,LIMA,SANTIAGO DE SURCO,JR. EL POLO 570 MONTERRICO-SANTIAGO DE SURCO LIMA LIMA,-12.1032942,-76.9718807
10014,DR. VICTOR PAREDES,PRIVADO,80101,CUSCO,CUSCO,CUSCO,CALLE LECHUGAL N 405 Y CALLE MATARA N 410 CUSCO CUSCO,-13.5221168,-71.9783153
10023,CORNEJO,PRIVADO,80108,CUSCO,CUSCO,WANCHAQ,AVENIDA CUSCO 211 SAN SEBASTIAN CUSCO CUSCO,-13.5286922,-71.9398585
10041,ADOLFO GUEVARA VELASCO,ESSALUD,80108,CUSCO,CUSCO,WANCHAQ,AV. ANSELMO ALVAREZ SN CUSCO CUSCO,-13.5249528,-71.9613394
10060,CAS URUBAMBA -ESSALUD,ESSALUD,81301,CUSCO,URUBAMBA,URUBAMBA,AV. 9 DE NOVIEMBRE SN  URUBAMBA  URUBAMBA  CUSCO URUBAMBA CUSCO,-13.308205,-72.1121837
10061,ESPINAR - ESSALUD,ESSALUD,80801,CUSCO,ESPINAR,ESPINAR,CALLE 22 DE FEBRERO Y SAN PEDRO N°108  YAURI  ESPINAR  CUSCO ESPINAR CUSCO,-14.792369,-71.4128571
10062,QUILLABAMBA - ESSALUD,ESSALUD,80901,CUSCO,LA CONVENCION,SANTA ANA,AVENIDA KUMPIRUSHIATO SN°  SANTA ANA  LA CONVENCION  CUSCO SN AVENIDA KUMPIRUSHIATO SN°  SANTA ANA  LA CONVENCION  CUSCO SANTA ANA LA CONVENCION CUSCO  LA CONVENCION CUSCO,-12.862626,-72.693354
10063,ESSALUD SICUANI,ESSALUD,80601,CUSCO,CANCHIS,SICUANI,AVENIDA EL SOL N° 501 LA BOMBONERA  SICUANI  CANCHIS  CUSCO CANCHIS CUSCO,-14.2786,-71.2252879
10098,HOSPITAL MILITAR GERIATRICO,SANIDAD DEL EJERCITO DEL PERU,150108,LIMA METROPOLITANA,LIMA,CHORRILLOS,AVENIDA AV. ESCUELA MILITAR SN SN AV. ESCUELA MILITAR SN CHORRILLOS LIMA LIMA  LIMA LIMA,-12.1612636,-77.017196
10135,HOSPITAL I CARLOS ALCANTARA BUTTERFIELD,ESSALUD,150114,LIMA METROPOLITANA,LIMA,LA MOLINA,AV. LOS CONSTRUCTORES 1201 - URB. COVIMA LIMA LIMA,-12.062131,-76.9455439
10136,HOSPITAL II CLINICA JAEN,ESSALUD,60801,CAJAMARCA,JAEN,JAEN,CALLE MARIANO MELGAR N 192- URB. SANTA BEATRIZ JAEN CAJAMARCA,-5.7054452,-78.8046721
10182,CLINICA JESUS DEL NORTE,PRIVADO,150112,LIMA METROPOLITANA,LIMA,INDEPENDENCIA,AVENIDA AVENIDA CARLOS IZAGUIRRE 153 DISTRITO INDEPENDENCIA PROVINCIA LIMA DEPARTAMENTO LIMA  LIMA LIMA,-11.9894316,-77.0587878
10185,HOSPITAL III DANIEL ALCIDES CARRIÓN,ESSALUD,230103,TACNA,TACNA,CALANA,CARRETERA CALANA KM 6.5 - CALANA TACNA TACNA,-17.9825833,-70.2044585
10244,HOSPITAL II JORGE REATEGUI DELGADO,ESSALUD,200101,PIURA,PIURA,PIURA,AVENIDA GRAU N° 1150 PIURA PIURA,-5.193747,-80.6365967
10250,CLINICA OFTALMOLOGICA DEL CENTRO DEL PERU,PRIVADO,120114,JUNIN,HUANCAYO,EL TAMBO,JR ROSEMBERG N 427 HUANCAYO JUNIN,-12.0558237,-75.2165005
10251,CLUB DE LA SALUD,PRIVADO,150108,LIMA METROPOLITANA,LIMA,CHORRILLOS,AV. CHORRILLOS 171 - 173 CHORRILLOS LIMA LIMA,-12.1571478,-77.0228177
10267,HOSPITAL I ESSALUD-SULLANA,ESSALUD,200601,PIURA,SULLANA,SULLANA,CALLE SANTA CLARA MZA O LOTE 44 SANCHEZ CERRO SULLANA PIURA,-4.903638,-80.6864323
10272,HOSPITAL II CAJAMARCA,ESSALUD,60101,CAJAMARCA,CAJAMARCA,CAJAMARCA,AV. MARIO URTEAGA NO  SN CAJAMARCA CAJAMARCA,-7.1593779,-78.5097749
10299,CENTRO DE ATENCION PRIMARIA II SAN IGNACIO,ESSALUD,60901,CAJAMARCA,SAN IGNACIO,SAN IGNACIO,AV.SAN IGNACIO 425 SAN IGNACIO CAJAMARCA,-5.1461517,-79.0009417
10333,CENTRO DE ATENCION PRIMARIA III HUARAL,ESSALUD,150601,LIMA REGION,HUARAL,HUARAL,AVENIDA AV CIRCUNVALACION ESTE 405 DISTRITO HUARAL PROVINCIA HUARAL DEPARTAMENTO LIMA  HUARAL LIMA,-11.4959109,-77.2002153
10434,ESSALUD - CLINICA GERIATRICA SAN ISIDRO LABRADOR,ESSALUD,150137,LIMA METROPOLITANA,LIMA,SANTA ANITA,AVENIDA AV. CARRETERA CENTRAL 1345 KM. 3.5 DISTRITO JESUS MARIA PROVINCIA LIMA DEPARTAMENTO LIMA  LIMA LIMA,-12.0475664,-76.9474703
10467,CLINICA FLEMING,PRIVADO,150130,LIMA METROPOLITANA,LIMA,SAN BORJA,JIRÓN JR ALEXANDER FLEMING 103 URB SAN BORJA SUR DISTRITO SAN BORJA PROVINCIA LIMA DEPARTAMENTO LIMA  LIMA LIMA,-12.1017164,-77.0068144
10475,CENTRO MEDICO ESPECIALIZADO CLINICA DE LA MUJER Y EL NIÑO EIRL (CLINICA DE LA MUJER Y EL NIÑO),PRIVADO,21809,ANCASH,SANTA,NUEVO CHIMBOTE,CALLE 4MANZANA HLOTE 33 - 35NICOLAS GARATEA SANTA ANCASH,-9.1202923,-78.5081204
10515,CLINICA SANTA LUCIA S.A.C.,PRIVADO,150130,LIMA METROPOLITANA,LIMA,SAN BORJA,AV. GUARDIA CIVIL 301 LIMA LIMA,-12.0914623,-77.0083129
10533,"HOSPITAL II LIMA NORTE CALLAO ""LUIS NEGREIROS VEGA"" ESSALUD",ESSALUD,70101,CALLAO,CALLAO,CALLAO,AV. TOMAS VALLE DRA.39 - URB. VIPOL CALLAO CALLAO,-12.0144283,-77.0964431
10536,HOSPITAL II CAÑETE,ESSALUD,150501,LIMA REGION,CAÑETE,SAN VICENTE DE CAÑETE,AV. MARISCAL BENAVIDES N 495 CAETE LIMA,-13.0751576,-76.3801427
10559,CLINICA DANIEL A. CARRION S.A.C.,PRIVADO,110201,ICA,CHINCHA,CHINCHA ALTA,AVENIDA AV. IDELFONSO N 226 - JR. LIMA N° 566 DISTRITO CHINCHA ALTA PROVINCIA CHINCHA DEPARTAMENTO ICA  CHINCHA ICA,-13.423832,-76.1346453
10570,CENTRO MEDICO CASAPALCA,ESSALUD,150705,LIMA REGION,HUAROCHIRI,CHICLA,CENTRO MINERO CASAPALCA CARRETERA CENTRAL KM 116 HUAROCHIRI LIMA,-11.6486161,-76.2350748
10571,HOSPITAL II HUANUCO,ESSALUD,100102,HUANUCO,HUANUCO,AMARILIS,JR.JOSE OLAYA C.2 HUANUCO HUANUCO,-9.9372551,-76.2394027
10581,SANNA/SANCHEZ FERRER S.A.,PRIVADO,130111,LA LIBERTAD,TRUJILLO,VICTOR LARCO HERRERA,CALLE LOS LAURELES N436 URB. CALIFORNIA - VICTOR LARCO HERRERA - TRUJILLO - LA LIBERTAD TRUJILLO LA LIBERTAD,-8.1309086,-79.0401733
10603,CLÍNICA MÉDICA CAYETANO HEREDIA,PRIVADO,150135,LIMA METROPOLITANA,LIMA,SAN MARTIN DE PORRES,AVENIDA HONORIO DELGADO 370 INGENIERIA SMP AV. HONORIO DELGADO 370 INGENIERIA SMP SAN MARTIN DE PORRES LIMA LIMA  LIMA LIMA,-12.0235377,-77.0560922
10669,CLÍNICA PERUANA DE LA VISION,PRIVADO,150113,LIMA METROPOLITANA,LIMA,JESUS MARIA,JIRÓN MAYTA CAPAC NÚMERO 1398 DISTRITO JESUS MARIA PROVINCIA LIMA DEPARTAMENTO LIMA  LIMA LIMA,-12.0764074,-77.0425804
10723,HOSPITAL PRIVADO DEL PERU,PRIVADO,200105,PIURA,PIURA,CATACAOS,CARRETERA KM. 5 CARRETERA PIURA - CATACAOS  CASERÍO SIMBILÁ DISTRITO CATACAOS PROVINCIA PIURA DEPARTAMENTO PIURA  PIURA PIURA,-5.2454611,-80.6529809
10743,CLINICA STELLA MARIS,PRIVADO,150121,LIMA METROPOLITANA,LIMA,PUEBLO LIBRE,AV. PASO DE LOS ANDES N 923 LIMA LIMA,-12.0710917,-77.0591764
10751,HOSPITAL CENTRAL DE LA FUERZA AEREA DEL PERU,SANIDAD DE LA FUERZA AEREA DEL PERU,150122,LIMA METROPOLITANA,LIMA,MIRAFLORES,AV. ARAMBURU 2DA. CUADRA SN LIMA LIMA,-12.1038003,-77.0299359
10777,CLINICA VIRGEN DEL PILAR SCRL,PRIVADO,200601,PIURA,SULLANA,SULLANA,CALLE BOLIVAR 285 SULLANA PIURA,-4.8912254,-80.6887035
10815,CLINICA AMERICANA DE JULIACA,PRIVADO,211101,PUNO,SAN ROMAN,JULIACA,JR. LORETO N 315 URB LA RINCONADA SAN ROMAN PUNO,-15.4976973,-70.1324463
10827,HOGAR DE LA MADRE CLINICA-HOSPITAL,OTRO,150122,LIMA METROPOLITANA,LIMA,MIRAFLORES,GERVASIO SANTILLANA N 260 LIMA LIMA,-12.1043253,-77.0296609
10883,CLINICA SAN PEDRO,PRIVADO,150801,LIMA REGION,HUAURA,HUACHO,AVENIDA AVENIDA ECHENIQUE N 641 - HUACHO AVENIDA ECHENIQUE N 641 - HUACHO HUACHO HUAURA LIMA  HUAURA LIMA,-11.1114966,-77.6099574
10987,INSTITUTO MEDICO ESPECIALIZADO UROGINEC EIRL (UROGINEC E.I.R.L.),PRIVADO,21801,ANCASH,SANTA,CHIMBOTE,JR. SAENZ PEA  173 SANTA ANCASH,-12.0649025,-77.0297173
11009,HOSPITAL I SAMUEL PASTOR DE CAMANA ESSALUD,ESSALUD,40208,AREQUIPA,CAMANA,SAMUEL PASTOR,AV. PLAZA DE ARMAS SN SAMUEL PASTOR - LA PAMPA CAMANA AREQUIPA,-16.6136795,-72.6991202
11020,HOSPITAL II LUIS HEYSEN INCHAUSTEGUI,ESSALUD,140112,LAMBAYEQUE,CHICLAYO,PIMENTEL,KM. 3.5 CARRETERA CHICLAYO-PIMENTEL CHICLAYO LAMBAYEQUE,-6.7876673,-79.8799082
11087,CLINICA LA LUZ S.A.C.,PRIVADO,150101,LIMA METROPOLITANA,LIMA,LIMA,AVENIDA AV. AREQUIPA 1148 - URB. SANTA BEATRIZ AV. AREQUIPA 1148 - URB. SANTA BEATRIZ LIMA LIMA LIMA  LIMA LIMA,-12.0750854,-77.0358619
11110,CLINICA CAMPBELL,PRIVADO,150140,LIMA METROPOLITANA,LIMA,SANTIAGO DE SURCO,AVENIDA AV. BENAVIDES 4813  LAS GARDENIAS DISTRITO SANTIAGO DE SURCO PROVINCIA LIMA DEPARTAMENTO LIMA  LIMA LIMA,-12.1277039,-76.9871194
11113,CLINICA MONTERRICO,PRIVADO,150140,LIMA METROPOLITANA,LIMA,SANTIAGO DE SURCO,AV. MANUEL OLGUIN 1045 - 1047 LIMA LIMA,-12.1030398,-76.9739256
11129,MAX SALUD AVISAL S.A.,PRIVADO,140101,LAMBAYEQUE,CHICLAYO,CHICLAYO,AVENIDA AV.FRANCISCO BOLOGNESI 774 DISTRITO CHICLAYO PROVINCIA CHICLAYO DEPARTAMENTO LAMBAYEQUE  CHICLAYO LAMBAYEQUE,-6.7758879,-79.8374731
11163,PERUANO SUIZA,PRIVADO,80101,CUSCO,CUSCO,CUSCO,AVENIDA PERÚ K-3 URBANIZACIÓN QUISPICANCHISS CUSCO CUSCO,-13.5262499,-71.9454962
11213,SEGURO SOCIAL DE SALUD - ESSALUD,ESSALUD,30101,APURIMAC,ABANCAY,ABANCAY,SUB LOTE A PARTE INTEGRANTE DEL LOTE 61 Y 61A QUINTA CAYETANA PATIBAMBA ABANCAY APURIMAC,-13.641833,-72.896801
11214,HOSPITAL I SANTA MARGARITA,ESSALUD,30201,APURIMAC,ANDAHUAYLAS,ANDAHUAYLAS,JR. AYACUCHO 740 ANDAHUAYLAS APURIMAC,-13.650717,-73.436368
11241,CLINICA SAN VICENTE S.A.,PRIVADO,150135,LIMA METROPOLITANA,LIMA,SAN MARTIN DE PORRES,AVENIDA AV PERÚ 3220 AV PERÚ 3220 SAN MARTIN DE PORRES LIMA LIMA  LIMA LIMA,-12.0311812,-77.0815792
11337,HOSPITAL II GUSTAVO LANATTA LUJAN - ESSALUD,ESSALUD,150801,LIMA REGION,HUAURA,HUACHO,AVENIDA FRANCISCO VIDAL N 707 HUAURA LIMA,-11.1129497,-77.608706
11338,PARDO,PRIVADO,80108,CUSCO,CUSCO,WANCHAQ,AV. LA CULTURA N 710 CUSCO CUSCO,-13.521556,-71.965388
11339,SAN JOSE,PRIVADO,80108,CUSCO,CUSCO,WANCHAQ,AV. LOS INCAS N 1408 CUSCO CUSCO,-13.5252071,-71.9558351
11346,IPOR CLINICA ESPECIALIZADA ONCOLOGIA & CIRUGIA,PRIVADO,150130,LIMA METROPOLITANA,LIMA,SAN BORJA,JR. EDUARDO ORDOEZ N 215 - 219 LIMA LIMA,-12.1056534,-77.0074385
11396,ADMINISTRADORA CLINICA TRESA,PRIVADO,200701,PIURA,TALARA,PARIÑAS,AVENIDA AVENIDA A- 108 B DISTRITO PARIAS PROVINCIA TALARA DEPARTAMENTO PIURA  TALARA PIURA,-4.5785558,-81.2756707
11401,CLINICA SAN JUDAS TADEO,PRIVADO,150136,LIMA METROPOLITANA,LIMA,SAN MIGUEL,CALLE MANUEL RAYGADA N 170 (ANEXO EN CALLE LAUREANO MARTINEZ N 140) - URB EL CAMPILLO LIMA LIMA,-12.0798541,-77.0799336
11409,HOSPITAL III IQUITOS,ESSALUD,160108,LORETO,MAYNAS,PUNCHANA,AVENIDA LA MARINA SN MAYNAS LORETO,-3.7224242,-73.2414624
11448,HOSPITAL REGIONAL DEL SUR,SANIDAD DE LA FUERZA AEREA DEL PERU,40104,AREQUIPA,AREQUIPA,CERRO COLORADO,AVENIDA AVIACION SN AREQUIPA AREQUIPA,-16.366426,-71.5637846
11470,HOSPITAL REGIONAL LAMBAYEQUE,GOBIERNO REGIONAL,140101,LAMBAYEQUE,CHICLAYO,CHICLAYO,VIA DE EVITAMIENTO PANAMERICANA NORTE Y AV. EL PROGRESO SN (PROVINCIA CHICLAYO) CHICLAYO LAMBAYEQUE,-7.8404507,-79.1510661
11547,CLINICA CONTINENTAL,PRIVADO,150130,LIMA METROPOLITANA,LIMA,SAN BORJA,AV. SAN BORJA SUR N° 526 LIMA LIMA,-12.101414,-77.003663
11556,CENTRO DE ATENCION PRIMARIA II CABALLOCOCHA,ESSALUD,160401,LORETO,MARISCAL RAMON CASTILLA,RAMON CASTILLA,CALLE RAMON CASTILLA N° 700 MARISCAL RAMON CASTILLA LORETO,-3.9101854,-70.5135928
11592,CLINICA HUANUCO E-I-R-LTDA.,PRIVADO,100101,HUANUCO,HUANUCO,HUANUCO,JR.CONSTITUCION N 980 HUANUCO HUANUCO,-9.9292225,-76.2352252
11702,"CENTRO DE SALUD ""VICTOR SOLES GARCIA""",ESSALUD,131201,LA LIBERTAD,VIRU,VIRU,AVENIDA VICTOR RAUL SN SECTOR SAN LUIS VIRU LA LIBERTAD,-8.4231047,-78.7521816
11750,CLINICA LOS ANDES SAC,PRIVADO,150122,LIMA METROPOLITANA,LIMA,MIRAFLORES,CALLE CALLE ASUNCION N 177 DISTRITO MIRAFLORES PROVINCIA LIMA DEPARTAMENTO LIMA  LIMA LIMA,-12.1048217,-77.0321021
11763,HOSPITAL I MIGUEL CRUZADO VERA - PAITA,ESSALUD,200501,PIURA,PAITA,PAITA,CARRETERA PAITA - PIURA KM 1.5 PAITA PIURA,-5.088025,-81.1004129
11775,HOSPITAL II DE HUAMANGA,ESSALUD,50110,AYACUCHO,HUAMANGA,SAN JUAN BAUTISTA,AV. VENEZUELA SN HUAMANGA AYACUCHO,-13.1700375,-74.2139042
11794,HOSPITAL REGIONAL PNP AREQUIPA,SANIDAD DE LA POLICIA NACIONAL DEL PERU,40103,AREQUIPA,AREQUIPA,CAYMA,AVENIDA BOLOGNESI N° 602 URBANIZACION LA MARINA AREQUIPA AREQUIPA,-16.3503682,-71.54204
11803,CLINICA VIRGEN DEL ROSARIO SRL,PRIVADO,150120,LIMA METROPOLITANA,LIMA,MAGDALENA DEL MAR,JR. CASTILLA N° 976 LIMA LIMA,-12.1639208,-76.9423759
11849,CLINICA MIRAFLORES SAC,PRIVADO,150122,LIMA METROPOLITANA,LIMA,MIRAFLORES,CALLE J.A. ENCINAS 141 URBANIZACIÓN EL ROSEDAL LIMA LIMA,-12.127351,-77.013511
11950,CLINICA CHORRILLOS,PRIVADO,150108,LIMA METROPOLITANA,LIMA,CHORRILLOS,AVENIDA AV. DEFENSORES DEL MORRO N°1201 DISTRITO CHORRILLOS PROVINCIA LIMA DEPARTAMENTO LIMA  LIMA LIMA,-12.1745254,-77.0188016
11978,CLINICA MONTE SINAI JULIACA E.I.R.L.,PRIVADO,211101,PUNO,SAN ROMAN,JULIACA,JIRON LORETO 343 CERCADO JULIACA SAN ROMAN PUNO,-15.4976257,-70.1327011
11995,CLINICA ALMONTE SAC,PRIVADO,40101,AREQUIPA,AREQUIPA,AREQUIPA,CALLE CALLE MANUEL UGARTECHE 311 URB. SELVA ALEGRE DISTRITO AREQUIPA PROVINCIA AREQUIPA DEPARTAMENTO AREQUIPA  AREQUIPA AREQUIPA,-16.3897115,-71.5291119
12106,CLINICA MEDICA PRIMAVERA,PRIVADO,150117,LIMA METROPOLITANA,LIMA,LOS OLIVOS,JR. LOS JAZMINES N° 122 URB. PRIMAVERA - LOS OLIVOS LIMA LIMA,-12.0086397,-77.0757266
12118,CLÍNICA MONTE HOREB S.A.,PRIVADO,250101,UCAYALI,CORONEL PORTILLO,CALLERIA,JR.INMACULADA N 529 CORONEL PORTILLO UCAYALI,-8.3793483,-74.5310175
12161,MACSALUD,PRIVADO,80108,CUSCO,CUSCO,WANCHAQ,AV. DE LA CULTURA 1410 CUSCO CUSCO,-13.524784,-71.95534
12170,SERVICIOS MEDICOS CLINICA SANTA ANITA SRL,PRIVADO,160101,LORETO,MAYNAS,IQUITOS,Cl Bolognesi Nro 1223 Iquitos - Loreto,-3.7568334,-73.2537286
12206,DETECTA CLINICA,PRIVADO,150141,LIMA METROPOLITANA,LIMA,SURQUILLO,"Av. Angamos 2688, Surquillo 15038",-12.1115662,-76.9956904
12219,CLINICA MONTESUR,PRIVADO,150140,LIMA METROPOLITANA,LIMA,SANTIAGO DE SURCO,AVENIDA AV. EL POLO NRO. 505 URB. EL DERBY MONTERRICO DISTRITO SANTIAGO DE SURCO PROVINCIA LIMA DEPARTAMENTO LIMA  LIMA LIMA,-12.1033943,-76.9727977
12220,CLINICA REAL LOS LAURELES SAC,PRIVADO,150108,LIMA METROPOLITANA,LIMA,CHORRILLOS,CALLE ARMANDO CAMBANA N279 URB. LOS LAURELES - CHORRILLOS LIMA LIMA,-12.1748714,-77.020313
12243,HOSPITAL II TALARA,ESSALUD,200701,PIURA,TALARA,PARIÑAS,AV. PANAMERICANA SN CARRETERA A LOBITOS TALARA PIURA,-7.8404507,-79.1510661
12261,CLINICA INMACULADA,PRIVADO,200601,PIURA,SULLANA,SULLANA,AV. JOSE DE LAMA N 1011 SULLANA PIURA,-4.9010358,-80.6957502
12262,CLÍNICA SANTA ROSA,PRIVADO,200601,PIURA,SULLANA,SULLANA,AVENIDA PANAMERICANA N 332 URBANIZACIÓN SANTA ROSA SULLANA PIURA,-4.9039772,-80.6995385
12267,CLINICA SERVICIOS MEDICOS INTEGRALES SAN MARCOS,PRIVADO,150132,LIMA METROPOLITANA,LIMA,SAN JUAN DE LURIGANCHO,AV. SANTA ROSA 1719 - URB. INCA MANCO CAPAC LIMA LIMA,-12.0019466,-76.9995488
12272,CARLOS ALBERTO CORTEZ JIMENEZ,ESSALUD,240101,TUMBES,TUMBES,TUMBES,PROLONG. AV. TUMBES N 1625 TUMBES TUMBES,-3.5560202,-80.4434232
12292,CLINICA  BELLMED,PRIVADO,130101,LA LIBERTAD,TRUJILLO,TRUJILLO,AV. TUPAC AMARU N 849 URB. PRIMAVERA TRUJILLO LA LIBERTAD,-8.0971674,-79.0304601
12301,CLINICA SAN ANTONIO,PRIVADO,130101,LA LIBERTAD,TRUJILLO,TRUJILLO,AV. LARCO N 620 - 630 URB. SAN ANDRÉS TRUJILLO LA LIBERTAD,-8.1203046,-79.0353327
12457,CLINICA PROVIDA,PRIVADO,140101,LAMBAYEQUE,CHICLAYO,CHICLAYO,CALLLE JUAN CUGLIEVAN N° 160 CHICLAYO LAMBAYEQUE,-6.7761796,-79.8408569
12572,CLINICA PAULISTA DEL PERU S.A.C (CLINICA PAULISTA DEL PERU),PRIVADO,150140,LIMA METROPOLITANA,LIMA,SANTIAGO DE SURCO,AV. AVIACION NRO. 4786   - SANTIAGO DE SURCO LIMA LIMA,-12.1237169,-76.9992829
12633,CLINICA JAVIER PRADO,PRIVADO,150131,LIMA METROPOLITANA,LIMA,SAN ISIDRO,AV. JAVIER PRADO ESTE 499 URB. JARDIN LIMA- SAN ISIDRO LIMA LIMA,-12.091465,-77.0283571
12671,CLINICA SAN PABLO SEDE HUARAZ,PRIVADO,20105,ANCASH,HUARAZ,INDEPENDENCIA,JIRÓN JR. HUAYLAS N 172 DISTRITO INDEPENDENCIA PROVINCIA HUARAZ DEPARTAMENTO ANCASH  HUARAZ ANCASH,-9.5178143,-77.530815
12692,OFTALMOLOGIA AVANZADA,PRIVADO,40126,AREQUIPA,AREQUIPA,YANAHUARA,CALLE LEON VELARDE N 116. URB LOS CLAVELES SECCION 2. AREQUIPA AREQUIPA,-16.3845573,-71.5385631
12761,CLINICA SAN LORENZO S.R.L.,PRIVADO,60101,CAJAMARCA,CAJAMARCA,CAJAMARCA,AV. SAN MARTIN DE PORRES N° 546 CAJAMARCA CAJAMARCA,-7.1668027,-78.5052506
12765,SAN VICENTE,PRIVADO,110101,ICA,ICA,ICA,AVENIDA LOS MAESTROS N 422 URB. SAN JOSE DISTRITO ICA PROVINCIA ICA DEPARTAMENTO ICA  ICA ICA,-14.0743884,-75.7385582
12854,CLINICA ADVENTISTA ANA STAHL,PRIVADO,160101,LORETO,MAYNAS,IQUITOS,AVENIDA LA MARINA N° 285 MAYNAS LORETO,-3.7385992,-73.2411621
12907,SISTEMAS DE ADMINISTRACION HOSPITALARIA S.A.C. (SANNA - CLINICA DEL SUR),PRIVADO,40126,AREQUIPA,AREQUIPA,YANAHUARA,AVENIDA BOLOGNESI 134 - YANAHUARA AREQUIPA AREQUIPA,-16.3800483,-71.5449464
12947,CLINICA SANTA MARIA,PRIVADO,150141,LIMA METROPOLITANA,LIMA,SURQUILLO,CALLE LAS AGUILAS NO. 360 URB. LIMATAMBO LIMA LIMA,-12.1033684,-77.0261531
12975,CL ESPECIALIDADES MEDICAS,PRIVADO,150130,LIMA METROPOLITANA,LIMA,SAN BORJA,JR EDUARDO ORDOEZ 468 LIMA LIMA,-12.1055804,-77.0017997
12995,SAN JUAN PABLO II,OTRO,80106,CUSCO,CUSCO,SANTIAGO,PLAZOLETA ALMUDENA SN DIST. SANTIAGO PROV.CUSCO DPTO. CUSCO CUSCO CUSCO,-13.5241963,-71.986987
13042,CLÍNICA LOS COCOS,PRIVADO,200101,PIURA,PIURA,PIURA,"PIURA, PIURA, PIURA",-5.192823,-80.630113
13044,MEGASALUD NARANJAL S.A.C. (CLINICA NARANJAL),PRIVADO,150117,LIMA METROPOLITANA,LIMA,LOS OLIVOS,AV. NARANJAL 1582 URB PARQUE NARANJAL 2DA ETAPA LIMA LIMA,-11.9758011,-77.0852195
13064,CLINICA CEDRON,PRIVADO,150140,LIMA METROPOLITANA,LIMA,SANTIAGO DE SURCO,AVENIDA AV EL POLO 438 CC MONTERRICO DISTRITO SANTIAGO DE SURCO PROVINCIA LIMA DEPARTAMENTO LIMA  LIMA LIMA,-12.1046619,-76.9729184
13164,CLINICA SANTA MARIA DE CHIMBOTE S.A.C.,PRIVADO,21801,ANCASH,SANTA,CHIMBOTE,ELIAS AGUIRRE 761 - BOLIVAR BAJO SANTA ANCASH,-9.0708539,-78.5909077
13165,CENTRO DE REPOSO SAN JUAN DE DIOS,PRIVADO,200104,PIURA,PIURA,CASTILLA,AVENIDA AVENIDA CAYETANO HEREDIA N° 210 DISTRITO CASTILLA PROVINCIA PIURA DEPARTAMENTO PIURA  PIURA PIURA,-5.19671,-80.6205954
13290,HOSPITAL NACIONAL III-1 CARLOS ALBERTO SEGUÍN ESCOBEDO,ESSALUD,40101,AREQUIPA,AREQUIPA,AREQUIPA,ESQUINA PERAL - EL FILTRO SN AREQUIPA AREQUIPA,-16.3935253,-71.5306332
13291,HOSPITAL III YANAHUARA,ESSALUD,40126,AREQUIPA,AREQUIPA,YANAHUARA,AV. ZAMACOLA Y AV. ENMEL SN AREQUIPA AREQUIPA,-16.3960644,-71.544965
13295,HOSPITAL II MANUEL DE TORRES MUÑOZ -  MOLLENDO,ESSALUD,40701,AREQUIPA,ISLAY,MOLLENDO,CALLE JUAN B. ARENAS SN MOLLENDO ISLAY AREQUIPA,-17.0192967,-72.0160623
13296,HOSPITAL I EDMUNDO ESCOMEL,ESSALUD,40112,AREQUIPA,AREQUIPA,PAUCARPATA,AV. CAYRO SN AREQUIPA AREQUIPA,-16.4169857,-71.5081768
13373,CLINICA PERUANO AMERICANA S. A.,PRIVADO,130101,LA LIBERTAD,TRUJILLO,TRUJILLO,AV. MANSICHE N 810 TRUJILLO LA LIBERTAD,-8.1036718,-79.0368008
13383,CLINICA SANTA ISABEL,PRIVADO,150130,LIMA METROPOLITANA,LIMA,SAN BORJA,AVENIDA GUARDIA CIVIL 135 DISTRITO SAN BORJA PROVINCIA LIMA DEPARTAMENTO LIMA  LIMA LIMA,-12.089417,-77.0071006
13386,LAS CONDES SAC,PRIVADO,110101,ICA,ICA,ICA,AVENIDA CONDE DE NIEVA N° 1073 URB LUREN DISTRITO ICA PROVINCIA ICA DEPARTAMENTO ICA  ICA ICA,-14.0798344,-75.7232656
13395,CLÍNICA MATERNO INFANTIL DEL NORTE S.A,PRIVADO,130101,LA LIBERTAD,TRUJILLO,TRUJILLO,AV. MANUEL VERA ENRIQUEZ N 777 - URB. PRIMAVERA TRUJILLO LA LIBERTAD,-8.1023045,-79.0347243
13494,AUNA CLINICA MIRAFLORES,PRIVADO,200104,PIURA,PIURA,CASTILLA,CALLE LAS DALIAS A-12-URB.MIRAFLORES-CASTILLA-PIURA PIURA PIURA,-5.194352,-80.6225788
13591,HOSPITAL NACIONAL POLICIA NACIONAL DEL PERU GRAL PNP LUIS N. SAENZ.,SANIDAD DE LA POLICIA NACIONAL DEL PERU,150113,LIMA METROPOLITANA,LIMA,JESUS MARIA,AVENIDA BRASIL CUADRA 26 SN SN AVENIDA BRASIL CUADRA 26 SN MIRAFLORES LIMA LIMA  LIMA LIMA,-12.0847014,-77.0602522
13722,CLINICA AREQUIPA S.A.,PRIVADO,40101,AREQUIPA,AREQUIPA,AREQUIPA,ESQUINA PUENTE GRAU CON AVENIDA BOLOGNESI SIN NUMERO AREQUIPA AREQUIPA,-16.3528083,-71.542285
13727,"INSTITUTO MEDICO ESPECIALIZADO EN DIABETES SOY DIABETICO EIRL (INSTITUTO MEDICO ESPECIALIZADO EN DIABETES ""SOY DIABETICO"")",PRIVADO,200101,PIURA,PIURA,PIURA,AVENIDA FORTUNATO CHIRICHIGNO MANZANA L LOTE 5 URB. EL CHIPE PIURA PIURA,-5.1832262,-80.6261697
13910,RENE TOCHE GROPPO,ESSALUD,110201,ICA,CHINCHA,CHINCHA ALTA,AV. SAN ILDEFONSO N° 101 CHINCHA ICA,-13.4245949,-76.1329013
13911,MARIA REICHE NEUMAN,ESSALUD,110304,ICA,NAZCA,MARCONA,AV.CIRCUNVALACION SN ZONA P DISTRITO MARCONA PROVINCIA NAZCA DEPARTAMENTO ICA NAZCA ICA,-15.361755,-75.166167
13912,FELIX TORREALVA GUTIERREZ,ESSALUD,110101,ICA,ICA,ICA,AVENIDA AV. CUTERVO N° 104 DISTRITO ICA PROVINCIA ICA DEPARTAMENTO ICA  ICA ICA,-14.0715791,-75.7269957
13952,HOSPITAL DE LA MUJER.,PRIVADO,150141,LIMA METROPOLITANA,LIMA,SURQUILLO,AVENIDA AV MARISCAL ANDRES AVELINO CACERES 559-563 DISTRITO SURQUILLO PROVINCIA LIMA DEPARTAMENTO LIMA  LIMA LIMA,-12.1193837,-77.0197332
14017,CLINICA PERUANA DE LOS ANDES,PRIVADO,30201,APURIMAC,ANDAHUAYLAS,ANDAHUAYLAS,JIRÓN AYACUCHO 336 JR. AYACUCHO 336 ANDAHUAYLAS ANDAHUAYLAS APURIMAC  ANDAHUAYLAS APURIMAC,-13.6585742,-73.3944064
14092,CLINICA SANTIVAÑEZ,PRIVADO,200101,PIURA,PIURA,PIURA,CALLE CALLE LOS TAMARINDOS 143 URB. 4 DE ENERO DISTRITO PIURA PROVINCIA PIURA DEPARTAMENTO PIURA  PIURA PIURA,-5.1963319,-80.6317664
14147,ANTONIO SKRABONJA ANTONCICH,ESSALUD,110501,ICA,PISCO,PISCO,AVENIDA AV. LAS AMERICAS SN SN AV. LAS AMERICAS SN PISCO PISCO ICA  PISCO ICA,-13.7169333,-76.2075379
14181,CLINICA SERVISALUD,PRIVADO,150113,LIMA METROPOLITANA,LIMA,JESUS MARIA,JR.MAXIMO ABRIL 552 LIMA LIMA,-12.0709289,-77.0395943
14262,CENTRO MEDICO ESPECIALIZADO VERONESI SAC,PRIVADO,150801,LIMA REGION,HUAURA,HUACHO,AVENIDA TUPAC AMARU 516 DISTRITO HUACHO PROVINCIA HUAURA DEPARTAMENTO LIMA  HUAURA LIMA,-11.1075134,-77.597561
14361,INSTITUTO DEL CEREBRO Y LA COLUMNA VERTEBRAL,PRIVADO,150122,LIMA METROPOLITANA,LIMA,MIRAFLORES,AV. ALFREDO BENAVIDES 2965 LIMA LIMA,-12.1282032,-77.0043881
14501,CLINICA SAN GABRIEL S.A.C.,PRIVADO,150136,LIMA METROPOLITANA,LIMA,SAN MIGUEL,AVENIDA AV. LA MARINA 2945-2949-2955-2965 MARANGA- SAN MIGUEL DISTRITO SAN MIGUEL PROVINCIA LIMA DEPARTAMENTO LIMA  LIMA LIMA,-12.0766003,-77.0957921
14509,CLINICA SAN MARTIN,PRIVADO,150132,LIMA METROPOLITANA,LIMA,SAN JUAN DE LURIGANCHO,AV. PROCERES DE LA INDEPENDENCIA 576 LIMA LIMA,-12.022381,-77.0065905
14718,HOSPITAL GERIATRICO PNP SAN JOSE,SANIDAD DE LA POLICIA NACIONAL DEL PERU,150136,LIMA METROPOLITANA,LIMA,SAN MIGUEL,JR RAMON CASTILLA 590 LIMA LIMA,-12.1763972,-76.9513228
15077,LIGA CONTRA EL CÁNCER,PRIVADO,150121,LIMA METROPOLITANA,LIMA,PUEBLO LIBRE,AVENIDA AVENIDA BRASIL 2746 DISTRITO PUEBLO LIBRE PROVINCIA LIMA DEPARTAMENTO LIMA  LIMA LIMA,-12.0847639,-77.0621241
15118,CLINICA MAISON DE SANTE DEL ESTE,PRIVADO,150140,LIMA METROPOLITANA,LIMA,SANTIAGO DE SURCO,AV. PROLONGACION ALFREDO BENAVIDES 5362 URB. LAS GARDENIAS SANTIAGO DE SURCO LIMA LIMA,-12.1304301,-76.9811604
15143,CLINICA ASTOCONDOR,PRIVADO,150130,LIMA METROPOLITANA,LIMA,SAN BORJA,AV BOULEVARD 610 1ER PISO Y SOTANO LIMA LIMA,-12.0963621,-76.9893471
15179,CLINICA KIRSCHBAUM,PRIVADO,150130,LIMA METROPOLITANA,LIMA,SAN BORJA,AV. JAVIER PRADO ESTE 2973 LIMA LIMA,-12.08636,-76.9937599
15182,OPTIMA VISION S.R.L. (OPTIMA VISION),PRIVADO,150122,LIMA METROPOLITANA,LIMA,MIRAFLORES,AV. ANGAMOS OESTE 884 LIMA LIMA,-12.1137996,-77.0377585
15230,HOSPITAL III JOSE CAYETANO HEREDIA,ESSALUD,200104,PIURA,PIURA,CASTILLA,AV. INDEPENDENCIA SN PIURA PIURA,-5.1882308,-80.6185635
15266,CLINICA Y BOTICA SAN JUAN,PRIVADO,60801,CAJAMARCA,JAEN,JAEN,CALLE TUPAC AMARU N° 695 SECTOR MORRO SOLAR JAEN CAJAMARCA,-5.7133176,-78.8111631
15269,CLINICA SAN FERNANDO E.I.R.L,PRIVADO,60801,CAJAMARCA,JAEN,JAEN,MARISCAL CASTILLA N 820 JAEN CAJAMARCA,-5.7038246,-78.8097527
15349,MEDICAL PLASTIC,PRIVADO,150120,LIMA METROPOLITANA,LIMA,MAGDALENA DEL MAR,"Av Brasil 3281, Lima, Perú",-12.0894981,-77.0655561
15375,CLINICA SAN PEDRO (CLINICA SAN PEDRO S.A.C.),PRIVADO,21801,ANCASH,SANTA,CHIMBOTE,JR. MANUEL VILLAVICENCIO N° 481 - CHIMBOTE SANTA ANCASH,-9.0733422,-78.5927239
15598,HOSPITAL I ALTO MAYO,ESSALUD,220101,SAN MARTIN,MOYOBAMBA,MOYOBAMBA,JR. 20 DE ABRIL NRO 347 MOYOBAMBA SAN MARTIN,-6.0386632,-76.9711884
15610,Clínica Internacional - Sede Lima,PRIVADO,150101,LIMA METROPOLITANA,LIMA,LIMA,JR. WASHINGTON 1471 LIMA LIMA,-12.0592585,-77.0389645
15684,CLINICA GONZALEZ S.A.,PRIVADO,150116,LIMA METROPOLITANA,LIMA,LINCE,AVENIDA IGNACIO MERINO 1884 LIMA LIMA,-12.08296,-77.032814
15718,CLINICA SAN MARCOS,PRIVADO,150105,LIMA METROPOLITANA,LIMA,BREÑA,JIRÓN JR HUARAZ 1425 JR HUARAZ 1425 BREA LIMA LIMA  LIMA LIMA,-12.0637848,-77.0480599
15730,CLINICA SAN JUAN DE DIOS,PRIVADO,40103,AREQUIPA,AREQUIPA,CAYMA,AV. EJERCITO 1020 AREQUIPA AREQUIPA,-16.3880782,-71.5499081
15835,CLINICA OFTALMOLOGICA DE LA SELVA,PRIVADO,220909,SAN MARTIN,SAN MARTIN,LA BANDA DE SHILCAYO,PASAJE LAS TUNAS N 264 - 270 SAN MARTIN SAN MARTIN,-6.4898214,-76.3519253
15927,CLINICA DE OJOS D´OPELUCE,PRIVADO,150116,LIMA METROPOLITANA,LIMA,LINCE,AV AREQUIPA 1885 LIMA LIMA,-12.0832743,-77.034449
15963,LA CLINICA DE ICA DR. JULIO TATAJE BARRIGA SRL,PRIVADO,110101,ICA,ICA,ICA,AVENIDA CONDE DE NIEVA N° 360 URB. LUREN DISTRITO ICA PROVINCIA ICA DEPARTAMENTO ICA  ICA ICA,-14.0734795,-75.7249172
16039,SAN FRANCISCO DE ASIS,PRIVADO,20101,ANCASH,HUARAZ,HUARAZ,AV. RAYMONDI N 799 - HUARAZ HUARAZ ANCASH,-9.5261384,-77.527919
16064,CLINICA PAZ HOLANDESA,PRIVADO,40112,AREQUIPA,AREQUIPA,PAUCARPATA,URB.VILLA CONTINENTAL CALLE 4 N 101 AREQUIPA AREQUIPA,-16.4302546,-71.510967
16113,CLINICA ZIEGLER CIRUGIA PLASTICA,PRIVADO,150131,LIMA METROPOLITANA,LIMA,SAN ISIDRO,AVENIDA AV. GUARDIA CIVIL N 990 DISTRITO SAN ISIDRO PROVINCIA LIMA DEPARTAMENTO LIMA  LIMA LIMA,-12.1015376,-77.0142485
16121,CENTRO MEDICO AVENDAÑO S.A.C.,PRIVADO,150122,LIMA METROPOLITANA,LIMA,MIRAFLORES,CALLE CALLE LEONIDAS AVENDAO N 116 DISTRITO MIRAFLORES PROVINCIA LIMA DEPARTAMENTO LIMA  LIMA LIMA,-12.1311497,-77.0245336
16148,CLINICA OLGUIN E.I.R.L (CLINICA OLGUIN),PRIVADO,200601,PIURA,SULLANA,SULLANA,CALLE SUCRE N 1300 SULLANA PIURA,-4.8972926,-80.6950344
16153,HOSPITAL II ILO,ESSALUD,180301,MOQUEGUA,ILO,ILO,JIRON MIRAMAR SN ILO MOQUEGUA,-17.636494,-71.334124
16157,HOSPITAL II MOQUEGUA,ESSALUD,180101,MOQUEGUA,MARISCAL NIETO,MOQUEGUA,URBANIZACION CAPILLUNE SN SAN FRANCISCO MARISCAL NIETO MOQUEGUA,-17.1946684,-70.9541532
16192,CLÍNICA CHICLAYO S.A,PRIVADO,140101,LAMBAYEQUE,CHICLAYO,CHICLAYO,CALLE CALLE LA FLORIDA N° 225 URB. STA. VICTORIA DISTRITO CHICLAYO PROVINCIA CHICLAYO DEPARTAMENTO LAMBAYEQUE  CHICLAYO LAMBAYEQUE,-6.7799144,-79.8422166
16291,HOSPITAL MEGASALUD UNIVERSAL,PRIVADO,150101,LIMA METROPOLITANA,LIMA,LIMA,AVENIDA EMANCIPACION 785-791-799 LIMA LIMA,-12.0448239,-77.0402712
16353,CLINICA MONTELUZ,PRIVADO,150125,LIMA METROPOLITANA,LIMA,PUENTE PIEDRA,AVENIDA AV. BUENOS AIRES N 2307 DISTRITO PUENTE PIEDRA PROVINCIA LIMA DEPARTAMENTO LIMA  LIMA LIMA,-11.846946,-77.0977252
16363,INSTITUTO PERUANO DE OFTALMOLOGIA,ESSALUD,200104,PIURA,PIURA,CASTILLA,AV. UNIVERSITARIA SN PIURA PIURA,-12.0684832,-77.0783849
16374,HOSP. IV AUGUSTO HERNANDEZ MENDOZA,ESSALUD,110101,ICA,ICA,ICA,AVENIDA AV. JOSÉ MATIAS MANZANILLA SN NÚMERO SN DISTRITO ICA PROVINCIA ICA DEPARTAMENTO ICA  ICA ICA,-14.0649395,-75.7351139
16481,HOSPITAL I JUANJUI - ESSALUD,ESSALUD,220601,SAN MARTIN,MARISCAL CACERES,JUANJUI,JR. LA LIBERTAD CDRA. 2 SN (JUANJUI) (CRUCE CON JR LA MERCED - BARRIO LA MERCED) MARISCAL CACERES SAN MARTIN,-7.1765382,-76.7283924
16536,CLÍNICA DE ATENCIÓN GENERAL (CLINICA BAHIA S.A.C.),PRIVADO,21809,ANCASH,SANTA,NUEVO CHIMBOTE,URB. SANTA ROSA  MZ-F LT-24 SANTA ANCASH,-9.1220077,-78.5230187
16541,HOGAR CLINICA SAN JUAN DE DIOS-CUSCO,PRIVADO,80101,CUSCO,CUSCO,CUSCO,AVENIDA AVENIDA MANZANARES N°264 URBANIZACION MANUEL PRADO AVENIDA MANZANARES N°264 URBANIZACION MANUEL PRADO CUSCO CUSCO CUSCO  CUSCO CUSCO,-13.5231135,-71.9533239
16551,CLINICA BELEN S.A.C. (CLINICA JUAN PABLO II),PRIVADO,21801,ANCASH,SANTA,CHIMBOTE,JR. VILLAVICENCIO N° 376 SANTA ANCASH,-9.0745285,-78.5929157
16721,HOSPITAL CENTRAL DE MAJES ING. ANGEL GABRIEL CHURA GALLEGOS,GOBIERNO REGIONAL,40520,AREQUIPA,CAYLLOMA,MAJES,ASENTAMIENTO B-1 LOTE 1 IRRIGACIÓN MAJES CAYLLOMA AREQUIPA,-16.3210564,-72.2221835
16744,CLINICA VALLESUR,PRIVADO,40101,AREQUIPA,AREQUIPA,AREQUIPA,AV. LA SALLE N°116 Y N° 108 CERCADO AREQUIPA AREQUIPA AREQUIPA,-16.4012027,-71.5253735
16758,HERMANA JOSEFINA SERRANO,PRIVADO,80101,CUSCO,CUSCO,CUSCO,CALLE SAN ANDRES 321 CUSCO CUSCO,-13.5201202,-71.9780502
16794,CLINICA DIVINO NIÑO JESUS - ORDEN DE MALTA,PRIVADO,150133,LIMA METROPOLITANA,LIMA,SAN JUAN DE MIRAFLORES,JR ISMAEL ESCOBAR 329 LIMA LIMA,-12.1484289,-76.9769438
16830,CLINICA CAMINO REAL,PRIVADO,130101,LA LIBERTAD,TRUJILLO,TRUJILLO,JIRÓN JR. BOLOGNESI N° 565 DISTRITO TRUJILLO PROVINCIA TRUJILLO DEPARTAMENTO LA LIBERTAD  TRUJILLO LA LIBERTAD,-8.1140746,-79.0287709
16918,INSTITUTO NACIONAL DE SALUD NIÑO SAN BORJA,MINSA,150130,LIMA METROPOLITANA,LIMA,SAN BORJA,AVENIDA AV LA ROSA TORO 1250 URB JACARANDA II DISTRITO SAN BORJA PROVINCIA LIMA DEPARTAMENTO LIMA  LIMA LIMA,-12.0853791,-76.9919372
16951,CLINICA MADRE ZORAIDA,PRIVADO,150118,LIMA METROPOLITANA,LIMA,LURIGANCHO,JIRÓN ESQUINA DE JR. CHUCUITO Y JR. TRUJILLO SUR SN NÚMERO SN DISTRITO LURIGANCHO PROVINCIA LIMA DEPARTAMENTO LIMA  LIMA LIMA,-11.9384568,-76.6992738
17024,HOSPITAL  MILITAR LUIS ARIAS SCHEREIBER,SANIDAD DEL EJERCITO DEL PERU,150113,LIMA METROPOLITANA,LIMA,JESUS MARIA,AV FAUSTINO SANCHEZ CARRION SN (EX. AV PERSHIN SN) LIMA LIMA,-12.0889569,-77.0595731
17075,CLINICA BELEN S.A.C. (CLINICA BELEN),PRIVADO,21801,ANCASH,SANTA,CHIMBOTE,AV. JOSE GALVEZ N° 1158 CAR. PANAMERICANA NORTE SANTA ANCASH,-9.0668991,-78.5878005
17077,HOSPITAL REGIONAL JOSE ALFREDO MENDOZA OLAVARRIA JAMO II-2,GOBIERNO REGIONAL,240101,TUMBES,TUMBES,TUMBES,AV. PROL. FERNANDO BELAUNDE NRO. SN A.H. CIUDADELA NOE III ETAPA TUMBES TUMBES TUMBES,-3.5615175,-80.426334
17081,CLINICA SAN ANDRES,PRIVADO,150601,LIMA REGION,HUARAL,HUARAL,CALLE CALLE DE LOS INCAS N° 288 LOTIZADORA SEOR DE LOS MILAGROS MZ F LOTE 1 Y 2 CALLE DE LOS INCAS N° 288 LOTIZADORA SEOR DE LOS MILAGROS MZ F LOTE 1 Y 2 HUARAL HUARAL LIMA  HUARAL LIMA,-11.4922494,-77.2128864
17173,CLINICA PORVENIR,PRIVADO,150113,LIMA METROPOLITANA,LIMA,JESUS MARIA,AVENIDA AV FRANCISCO MARIATEGUI 1418 URB FUNDO OYAGUE AV FRANCISCO MARIATEGUI 1418 URB FUNDO OYAGUE JESUS MARIA LIMA LIMA  LIMA LIMA,-12.0776663,-77.0508232
17385,CLINICA SAN BARTOLOME,PRIVADO,150117,LIMA METROPOLITANA,LIMA,LOS OLIVOS,AVENIDA AV. CARLOS ALBERTO IZAGUIRRE N° 1142 URB. COVIDA III ETAPA MZ A LT 16 DISTRITO LOS OLIVOS PROVINCIA LIMA DEPARTAMENTO LIMA  LIMA LIMA,-11.991493,-77.075591
17392,GONZALES PINEDO RODOLFO (CLINICA ANTONIO MIROQUESADA),PRIVADO,150101,LIMA METROPOLITANA,LIMA,LIMA,JR. ANTONIO MIROQUESADA NRO.332 - CERCADO LIMA LIMA,-12.049628,-77.030399
17393,HOSPITAL CUAJONE DE LA SOUTHERN PERU,PRIVADO,180106,MOQUEGUA,MARISCAL NIETO,TORATA,CAMPAMENTO MINERO CUAJONE SN MARISCAL NIETO MOQUEGUA,-17.0384034,-70.704952
17493,CLINICA GAXAY E.I.R.L.,PRIVADO,110201,ICA,CHINCHA,CHINCHA ALTA,AVENIDA AMERICA MZ B LT 03 DISTRITO CHINCHA ALTA PROVINCIA CHINCHA DEPARTAMENTO ICA  CHINCHA ICA,-13.4327237,-76.1337115
17588,MELO CLINICA DE REPRODUCCION Y GENETICA,PRIVADO,40101,AREQUIPA,AREQUIPA,AREQUIPA,CALLE CALLE MALAGA GRENET N 110 - UMACOLLO DISTRITO AREQUIPA PROVINCIA AREQUIPA DEPARTAMENTO AREQUIPA  AREQUIPA AREQUIPA,-16.400418,-71.5477884
17634,ONCOSALUD,PRIVADO,150130,LIMA METROPOLITANA,LIMA,SAN BORJA,AVENIDA AV. GUARDIA CIVIL N°227-229 URB. CORPAC DISTRITO SAN BORJA PROVINCIA LIMA DEPARTAMENTO LIMA  LIMA LIMA,-12.0954579,-77.0101673
17814,CENTRO DE ATENCION PRIMARIA III PEDRO REYES BARBOZA - BARRANCA,ESSALUD,150201,LIMA REGION,BARRANCA,BARRANCA,AV. EL BOSQUE SN - URB LAS PALMERAS BARRANCA LIMA,-10.7442956,-77.7659732
17824,CLINICA MARIA HUARHUA E.I.R.L (CLINICA MARIA HUARHUA),PRIVADO,150143,LIMA METROPOLITANA,LIMA,VILLA MARIA DEL TRIUNFO,"Av. Latinoamérica 200, Distrito de Lima 15812",-12.1477729,-76.9496131
17847,CLINICA DEL NORTE,PRIVADO,150117,LIMA METROPOLITANA,LIMA,LOS OLIVOS,AVENIDA UNIVERSITARIA MZ- B LT- 12 COOP. CAJABAMBA DISTRITO LOS OLIVOS PROVINCIA LIMA DEPARTAMENTO LIMA  LIMA LIMA,-11.9903703,-77.081286
17883,HOSPITAL DE REHABILITACION DEL CALLAO,GOBIERNO REGIONAL,70102,CALLAO,CALLAO,BELLAVISTA,JR. ANDRES VIGIL N° 535 CALLAO CALLAO,-12.0632054,-77.1332362
18011,INCOR,ESSALUD,150113,LIMA METROPOLITANA,LIMA,JESUS MARIA,JIRON CORONEL FÉLIX ZEGARRA N.S 397-417-455-465-491-495 LIMA LIMA,-12.0772252,-77.0399888
18230,HOSPITAL TOQUEPALA,PRIVADO,230302,TACNA,JORGE BASADRE,ILABAYA,TOQUEPALA  PLAZA SN JORGE BASADRE TACNA,-17.4204023,-70.5127345
18307,CLINICA MARIA SRL,PRIVADO,150117,LIMA METROPOLITANA,LIMA,LOS OLIVOS,JR AQUIA 4844 URB. NARANJAL LIMA LIMA,-11.9794925,-77.0804888
18310,SANNA - CLINICA BELEN,PRIVADO,200101,PIURA,PIURA,PIURA,CALLE SAN CRISTOBAL N 267 URB. EL CHIPE PIURA PIURA,-5.1851739,-80.6302389
18319,ALBERTO LEONARDO BARTON THOMPSON,PRIVADO,70101,CALLAO,CALLAO,CALLAO,AVENIDA ARGENTINA  3525 CALLAO CALLAO CALLAO  CALLAO CALLAO,-12.0491444,-77.1080108
18404,CLINICA SAN PABLO TRUJILLO,PRIVADO,130101,LA LIBERTAD,TRUJILLO,TRUJILLO,AVENIDA AV. HUSARES DE JUNIN 690 ESQ CON STA. TERESA DE JESUS - URB. LA MERCED DISTRITO TRUJILLO PROVINCIA TRUJILLO DEPARTAMENTO LA LIBERTAD  TRUJILLO LA LIBERTAD,-8.1221569,-79.0341902
18580,GUILLERMO KAELIN DE LA FUENTE,PRIVADO,150143,LIMA METROPOLITANA,LIMA,VILLA MARIA DEL TRIUNFO,AVENIDA PP.JJ. NUEVA ESPERANZA MZ 1B SUBLOTE 1 PABELLON 1 CRUCE AV. 26 DE NOVIEMBRE C AV DEFENSORES DE LIMA PP.JJ. NUEVA ESPERANZA MZ 1B SUBLOTE 1 PABELLON 1 CRUCE AV. 26 DE NOVIEMBRE C AV DEFENSORES DE LIMA VILLA MARIA DEL TRIUNFO LIMA LIMA  LIMA LIMA,-12.170633,-76.9299969
18581,CLINICA PETRAS,PRIVADO,150131,LIMA METROPOLITANA,LIMA,SAN ISIDRO,CALLE CALLE 6 N° 221 - URB. CORPAC DISTRITO SAN ISIDRO PROVINCIA LIMA DEPARTAMENTO LIMA  LIMA LIMA,-12.0912383,-77.0093353
18584,CLINICA MARIA DEL SOCORRO,PRIVADO,150103,LIMA METROPOLITANA,LIMA,ATE,CALLE MZ J LOTE 3-A CALLE APURIMAC 116 URB. TILDA MZ J LOTE 3-A CALLE APURIMAC 116 URB. TILDA ATE LIMA LIMA  LIMA LIMA,-12.0320174,-76.9355714
18659,HOSPITAL MILITAR DIVISIONARIO III DE AREQUIPA,SANIDAD DEL EJERCITO DEL PERU,40109,AREQUIPA,AREQUIPA,MARIANO MELGAR,ZOLEZZI AREQUIPA AREQUIPA,-16.4016808,-71.5137798
18667,CLINICA ARROYO,PRIVADO,150131,LIMA METROPOLITANA,LIMA,SAN ISIDRO,AVENIDA AV. PABLO CARRIQUIRY 798 CORPAC SAN ISIDRO DISTRITO SAN ISIDRO PROVINCIA LIMA DEPARTAMENTO LIMA  LIMA LIMA,-12.0997879,-77.0186137
18670,CLINICA G'STAR,PRIVADO,70102,CALLAO,CALLAO,BELLAVISTA,CALLE CALLE AMANCAES 240 URB. JARDINES DE VIRU DISTRITO BELLAVISTA PROVINCIA CALLAO DEPARTAMENTO CALLAO  CALLAO CALLAO,-12.0612979,-77.098683
18704,FAMISALUD,PRIVADO,110201,ICA,CHINCHA,CHINCHA ALTA,CALLE CALLE 28 DE JULIO N° 397 DISTRITO CHINCHA ALTA PROVINCIA CHINCHA DEPARTAMENTO ICA  CHINCHA ICA,-13.4154242,-76.1326476
18769,CLINICA DE CORTA ESTANCIA  ROCA E.I.R.L.,PRIVADO,100101,HUANUCO,HUANUCO,HUANUCO,JIRÓN PEDRO BARROSO N°466 DISTRITO HUANUCO PROVINCIA HUANUCO DEPARTAMENTO HUANUCO  HUANUCO HUANUCO,-9.9235786,-76.2357197
18935,CEFERGIN,PRIVADO,40126,AREQUIPA,AREQUIPA,YANAHUARA,OTROS URBANIZACIÓN INDEPENDENCIA AMERICANA D - 8 DISTRITO YANAHUARA PROVINCIA AREQUIPA DEPARTAMENTO AREQUIPA  AREQUIPA AREQUIPA,-16.4017911,-71.5514014
18985,CLINICA SANTA MARTHA DEL SUR,PRIVADO,150133,LIMA METROPOLITANA,LIMA,SAN JUAN DE MIRAFLORES,AV. BELISARIO SUAREZ 998 LIMA LIMA,-12.1630853,-76.9652512
19049,AUNA CLÍNICA DELGADO,PRIVADO,150122,LIMA METROPOLITANA,LIMA,MIRAFLORES,AVENIDA AV ANGAMOS OESTE N°450-490 DISTRITO MIRAFLORES PROVINCIA LIMA DEPARTAMENTO LIMA  LIMA LIMA,-12.1132145,-77.0329581
19176,CLINICA BOLIVAR S.A.C,PRIVADO,100101,HUANUCO,HUANUCO,HUANUCO,JR. BOLIVAR N° 490 HUANUCO HUANUCO,-9.930067,-76.236699
19315,CLINICA SANTA ANA,PRIVADO,60101,CAJAMARCA,CAJAMARCA,CAJAMARCA,JR. AYACUCHO N° 936 - BARRIO LA COLMENA CAJAMARCA CAJAMARCA,-7.1575426,-78.5109591
19481,CLINICA J. PRADO SANTA MARIA E.I.R.L.,PRIVADO,40109,AREQUIPA,AREQUIPA,MARIANO MELGAR,AV. MARISCAL CASTILLA 723 AREQUIPA AREQUIPA,-16.4034996,-71.5152222
19671,CLINICA RENACER,PRIVADO,150122,LIMA METROPOLITANA,LIMA,MIRAFLORES,CALLE CALLE CORONEL INCLAN N° 986 DISTRITO MIRAFLORES PROVINCIA LIMA DEPARTAMENTO LIMA  LIMA LIMA,-12.1098123,-77.0313475
19748,CLINICA HIGUERETA,PRIVADO,150122,LIMA METROPOLITANA,LIMA,MIRAFLORES,AVENIDA AV. BENAVIDES  2951 MIRAFLORES AV. BENAVIDES  2951 MIRAFLORES MIRAFLORES LIMA LIMA  LIMA LIMA,-12.1282283,-77.0045469
19839,CLINICA SANTA LEONOR,PRIVADO,150108,LIMA METROPOLITANA,LIMA,CHORRILLOS,AVENIDA AV. DEFENSORS DEL MORRO N 2697 - URB. SANTA LEONOR DISTRITO CHORRILLOS PROVINCIA LIMA DEPARTAMENTO LIMA  LIMA LIMA,-12.1837665,-77.0083693
20274,ESSALUD - HOSPITAL I YURIMAGUAS,ESSALUD,160201,LORETO,ALTO AMAZONAS,YURIMAGUAS,HUMBOLT N° 100 ALTO AMAZONAS LORETO,-5.8962928,-76.1161817
20346,CLINICA SANTA BEATRIZ,PRIVADO,150113,LIMA METROPOLITANA,LIMA,JESUS MARIA,JIRÓN JR. RAMON DAGNINO N 227 JR. RAMON DAGNINO N 227 JESUS MARIA LIMA LIMA  LIMA LIMA,-12.0716856,-77.0381986
20925,HOSPITAL DE ALTA COMPLEJIDAD DE LA LIBERTAD VIRGEN DE LA PUERTA,ESSALUD,130105,LA LIBERTAD,TRUJILLO,LA ESPERANZA,AV. N° 05 Y N° 02 URB PARQUE INDUSTRIAL TRUJILLO LA LIBERTAD,-8.0510423,-79.0585887
20979,CLINICA DE LOS VASQUEZ S.A.C,PRIVADO,110201,ICA,CHINCHA,CHINCHA ALTA,CALLE CALLE LIMA N°703 DISTRITO CHINCHA ALTA PROVINCIA CHINCHA DEPARTAMENTO ICA  CHINCHA ICA,-13.4239223,-76.1349345
21003,CENTRO MEDICO RIOJA - ESSALUD,ESSALUD,220801,SAN MARTIN,RIOJA,RIOJA,CRUCERO JR. CHACHAPOYAS CDRA11 CON JR. LUIS LINARES CDRA10 - BARRIO CASCAYUNGA RIOJA SAN MARTIN,-6.0670575,-77.1717963
21009,CLINICA SAN LUIS ASISTENCIAL DOCENTE S.R.L.,PRIVADO,130101,LA LIBERTAD,TRUJILLO,TRUJILLO,AVENIDA DEL EJERCITO N° 1175 URBANIZACION EL MOLINO TRUJILLO LA LIBERTAD,-8.0975277,-79.0180882
21096,CLINICA ESPECIALIZADA EN CIRUGÍA PLÁSTICA SAN AGUSTIN,PRIVADO,150121,LIMA METROPOLITANA,LIMA,PUEBLO LIBRE,AVENIDA BRASIL 2630 INTERIOR A Y LA AV BRASIL 2610 INTERIOR 101 DISTRITO PUEBLO LIBRE PROVINCIA LIMA DEPARTAMENTO LIMA  LIMA LIMA,-12.0249227,-76.9886599
21412,CLÍNICA MADRE DE CRISTO,PRIVADO,130105,LA LIBERTAD,TRUJILLO,LA ESPERANZA,AV JOSE GABRIEL CONDORCANQUI 1397 TRUJILLO LA LIBERTAD,-8.0796888,-79.0460971
21508,SMQ QUIRUMEDIC SAC,PRIVADO,130101,LA LIBERTAD,TRUJILLO,TRUJILLO,CALLE WILFREDO TORRES ORTEGA N° 1034 - URBANIZACIÓN MIRAFLORES - TRUJILLO TRUJILLO LA LIBERTAD,-8.098211,-79.0209725
21966,CLINICA ALIVIARI,PRIVADO,40126,AREQUIPA,AREQUIPA,YANAHUARA,CALLE CALLE LEÓN VELARDE N° 406 DISTRITO YANAHUARA PROVINCIA AREQUIPA DEPARTAMENTO AREQUIPA  AREQUIPA AREQUIPA,-16.3841071,-71.5405084
23022,CLINICA AVANSALUD,PRIVADO,150120,LIMA METROPOLITANA,LIMA,MAGDALENA DEL MAR,AVENIDA DEL EJERCITO NÚMERO 1020 URBANIZACIÓN SALAVERRY DISTRITO MAGDALENA DEL MAR PROVINCIA LIMA DEPARTAMENTO LIMA  LIMA LIMA,-12.1007586,-77.0619759
23151,CLINICA CORI,PRIVADO,150117,LIMA METROPOLITANA,LIMA,LOS OLIVOS,AVENIDA CARLOS ALBERTO IZAGUIRRE 978 L 13 14 15 LAS PALMERAS A una cuadra de la Municipalidad de Los Olivos LOS OLIVOS LIMA LIMA  LIMA LIMA,-11.9910913,-77.073246
23159,HOSPITAL DE EMERGENCIAS VILLA EL SALVADOR,MINSA,150142,LIMA METROPOLITANA,LIMA,VILLA EL SALVADOR,AVENIDA PASTOR SEVILLA NÚMERO 000 DISTRITO VILLA EL SALVADOR PROVINCIA LIMA DEPARTAMENTO LIMA  LIMA LIMA,-12.2157537,-76.9468372
23918,CIRUGIA LAPAROSCOPICA E.I.R.LTDA (CLINICA CIRLAP),PRIVADO,150116,LIMA METROPOLITANA,LIMA,LINCE,AVENIDA AREQUIPA  NÚMERO 2685 PISO 3 INTERIOR 301 DISTRITO LINCE PROVINCIA LIMA DEPARTAMENTO LIMA  LIMA LIMA,-12.0782505,-77.0355648
24041,CLÍNICA ESPECIALIZADA EMANUEL,PRIVADO,160113,LORETO,MAYNAS,SAN JUAN BAUTISTA,CLÍNICA ESPECIALIZADA EMANUEL MAYNAS LORETO,-3.7742214,-73.289414
24173,OXIGEN MEDICAL NETWORK,PRIVADO,80106,CUSCO,CUSCO,SANTIAGO,CALLE BELLAVISTA NÚMERO 1 MANZANA C LOTE 11 URBANIZACIÓN RESIDENCIAL HUANCARO DISTRITO SANTIAGO PROVINCIA CUSCO DEPARTAMENTO CUSCO  CUSCO CUSCO,-13.534035,-71.974099
24178,CLINIC NOVASALUD,PRIVADO,150142,LIMA METROPOLITANA,LIMA,VILLA EL SALVADOR,PASAJE SECTOR 2 GRUPO RESIDENCIAL 10 MANZANA I LOTE 2 DISTRITO VILLA EL SALVADOR PROVINCIA LIMA DEPARTAMENTO LIMA  LIMA LIMA,-12.2110311,-76.9333096
24208,PRAXIS MEDICAL S.A.C.,PRIVADO,40101,AREQUIPA,AREQUIPA,AREQUIPA,PRAXIS MEDICAL S.A.C. AREQUIPA AREQUIPA,-16.3887084,-71.5409973
24425,CLÍNICA MEDICA SALAZAR,PRIVADO,120101,JUNIN,HUANCAYO,HUANCAYO,CLÍNICA MEDICA SALAZAR HUANCAYO JUNIN,-12.0599683,-75.2049072
24584,VIRGEN GUADALUPE CUSCO,PRIVADO,80105,CUSCO,CUSCO,SAN SEBASTIAN,VIRGEN GUADALUPE CUSCO CUSCO CUSCO,-13.5288816,-71.9411018
24727,CLÍNICA SANTO TORIBIO,PRIVADO,150101,LIMA METROPOLITANA,LIMA,LIMA,CLÍNICA SANTO TORIBIO LIMA LIMA,-12.0475819,-77.0397481
25160,CLIN. DANIEL A. CARRION,PRIVADO,110201,ICA,CHINCHA,CHINCHA ALTA,CLIN. DANIEL A. CARRION CHINCHA ICA,-13.423832,-76.1346453
25208,GRUPO CARITA FELIZ S.A.,PRIVADO,200101,PIURA,PIURA,PIURA,GRUPO CARITA FELIZ S.A. PIURA PIURA,-5.1959525,-80.6322146
25210,TUPAC AMARU,GOBIERNO REGIONAL,80105,CUSCO,CUSCO,SAN SEBASTIAN,TUPAC AMARU CUSCO CUSCO,-13.5311854,-71.9189183
25383,CLINICA MEDICO QUIRURGICO HUANCAYO,PRIVADO,120114,JUNIN,HUANCAYO,EL TAMBO,CLINICA MEDICO QUIRURGICO HUANCAYO HUANCAYO JUNIN,-12.0731459,-75.2208357
25544,HOSPITAL I CLINICA UNIVERSITARIA,ESSALUD,210101,PUNO,PUNO,PUNO,HOSPITAL I CLINICA UNIVERSITARIA PUNO PUNO,-15.8616104,-70.0012977
25573,Creo Clínica Renal y Oncológica,PRIVADO,150135,LIMA METROPOLITANA,LIMA,SAN MARTIN DE PORRES,Creo Clínica Renal y Oncológica LIMA LIMA,-12.019801,-77.0552264
25598,CLINICA MATER PURISSIMA,PRIVADO,150110,LIMA METROPOLITANA,LIMA,COMAS,CLINICA MATER PURISSIMA LIMA LIMA,-11.9350236,-77.0470729
25749,MEDAVAN,PRIVADO,150120,LIMA METROPOLITANA,LIMA,MAGDALENA DEL MAR,MEDAVAN LIMA LIMA,-12.0929707,-77.0568275
25930,CLINICA SANENS,PRIVADO,150141,LIMA METROPOLITANA,LIMA,SURQUILLO,CLINICA SANENS LIMA LIMA,-12.11953,-77.0241038
25970,CLINICA REBAGLIATI,PRIVADO,120114,JUNIN,HUANCAYO,EL TAMBO,CLINICA REBAGLIATI HUANCAYO JUNIN,-12.0668532,-75.2220558
25971,CLINICA BILBAO,PRIVADO,120101,JUNIN,HUANCAYO,HUANCAYO,CLINICA BILBAO HUANCAYO JUNIN,-12.0703605,-75.2150134
25973,CLINICA ZARATE,PRIVADO,120101,JUNIN,HUANCAYO,HUANCAYO,CLINICA ZARATE HUANCAYO JUNIN,-12.0603631,-75.2054111
26070,CLINICA CORAZON DE JESUS,PRIVADO,150501,LIMA REGION,CAÑETE,SAN VICENTE DE CAÑETE,CLINICA CORAZON DE JESUS CAETE LIMA,-13.0754852,-76.3794369
26080,SR DE TORRECHAYOC,PRIVADO,80901,CUSCO,LA CONVENCION,SANTA ANA,SR DE TORRECHAYOC LA CONVENCION CUSCO,-12.868355,-72.6919814
26473,OBRA DE SAN CAMILO,PRIVADO,150101,LIMA METROPOLITANA,LIMA,LIMA,OBRA DE SAN CAMILO LIMA LIMA,-12.046735,-77.0222457
26706,CLINICA UNION SAC.,PRIVADO,140101,LAMBAYEQUE,CHICLAYO,CHICLAYO,CLINICA UNION SAC. CHICLAYO LAMBAYEQUE,-6.7735145,-79.8423378
26707,CLÍNICA OFTALMOLÓGICA VIDAVAS SAC,PRIVADO,140101,LAMBAYEQUE,CHICLAYO,CHICLAYO,CLÍNICA OFTALMOLÓGICA VIDAVAS SAC CHICLAYO LAMBAYEQUE,-6.7840888,-79.8458635
26793,CLINICA BELLAFORMA,PRIVADO,150113,LIMA METROPOLITANA,LIMA,JESUS MARIA,CLINICA BELLAFORMA LIMA LIMA,-12.0711759,-77.050207
26935,CLÍNICA FÁTIMA,PRIVADO,130111,LA LIBERTAD,TRUJILLO,VICTOR LARCO HERRERA,CLÍNICA FÁTIMA TRUJILLO LA LIBERTAD,-8.1291008,-79.0384466
26936,CLINICA AVIVA SEDE MENDIOLA,PRIVADO,150117,LIMA METROPOLITANA,LIMA,LOS OLIVOS,CLINICA AVIVA SEDE MENDIOLA LIMA LIMA,-11.9547045,-77.0698832
27173,FAMISALUD SAC,PRIVADO,110501,ICA,PISCO,PISCO,FAMISALUD SAC PISCO ICA,-13.7088666,-76.2014518
27214,CLINICA SAN PABLO AREQUIPA,PRIVADO,40104,AREQUIPA,AREQUIPA,CERRO COLORADO,CLINICA SAN PABLO AREQUIPA AREQUIPA AREQUIPA,-16.3866714,-71.556989
27312,clinica especializada amazonica sac,PRIVADO,250101,UCAYALI,CORONEL PORTILLO,CALLERIA,clinica especializada amazonica sac CORONEL PORTILLO UCAYALI,-8.3789829,-74.5369014
27320,CLINICA AUNA GUARDIA CIVIL,PRIVADO,150131,LIMA METROPOLITANA,LIMA,SAN ISIDRO,CLINICA AUNA GUARDIA CIVIL LIMA LIMA,-12.0922465,-77.0090463
27358,CLÍNICA CRISTO REDENTOR,PRIVADO,130101,LA LIBERTAD,TRUJILLO,TRUJILLO,CLÍNICA CRISTO REDENTOR TRUJILLO LA LIBERTAD,-8.1042312,-79.0089937
27462,CLINICA LA LUZ,PRIVADO,230101,TACNA,TACNA,TACNA,CLINICA LA LUZ TACNA TACNA,-18.0226885,-70.2590629
27488,HOSPITAL DE ESPECIALIDADES MEDICAS SAN IGNACIO DE LOYOLA S.C.R.L.,PRIVADO,200104,PIURA,PIURA,CASTILLA,HOSPITAL DE ESPECIALIDADES MEDICAS SAN IGNACIO DE LOYOLA S.C.R.L. PIURA PIURA,-5.1980773,-80.6199343
27565,Hospital I Marino Molina Scippa - EsSalud,ESSALUD,150110,LIMA METROPOLITANA,LIMA,COMAS,Hospital I Marino Molina Scippa - EsSalud LIMA LIMA,-11.9436138,-77.0576395
27693,CENTRO MEDICO ESPECIALIZADO PRIMAVERA,PRIVADO,100102,HUANUCO,HUANUCO,AMARILIS,CENTRO MEDICO ESPECIALIZADO PRIMAVERA HUANUCO HUANUCO,-9.9078509,-76.2274109
27694,CHENET CLINICA ESPECIALIZADA,PRIVADO,120114,JUNIN,HUANCAYO,EL TAMBO,CHENET CLINICA ESPECIALIZADA HUANCAYO JUNIN,-12.0602329,-75.215195
27733,HOSPITAL II TARAPOTO,ESSALUD,220901,SAN MARTIN,SAN MARTIN,TARAPOTO,HOSPITAL II TARAPOTO SAN MARTIN SAN MARTIN,-6.4733001,-76.3708212
27857,INSTITUTO REGIONAL DE ENFERMEDADES NEOPLÁSICAS DEL CENTRO - IREN CENTRO,GOBIERNO REGIONAL,120201,JUNIN,CONCEPCION,CONCEPCION,INSTITUTO REGIONAL DE ENFERMEDADES NEOPLÁSICAS DEL CENTRO - IREN CENTRO CONCEPCION JUNIN,-11.9050665,-75.3255202
28024,"Centro de Atención y Aislamiento COVID-19 ""Villa Panamericana""",ESSALUD,150142,LIMA METROPOLITANA,LIMA,VILLA EL SALVADOR,Centro de Atención y Aislamiento COVID-19 Villa Panamericana LIMA LIMA,-12.2037784,-76.9571046
28025,HOSPITAL DE EMERGENCIA ATE VITARTE,MINSA,150103,LIMA METROPOLITANA,LIMA,ATE,HOSPITAL DE EMERGENCIA ATE VITARTE LIMA LIMA,-12.0253814,-76.9178538
28134,CLINICA SANTA LUZMILA,PRIVADO,150110,LIMA METROPOLITANA,LIMA,COMAS,CLINICA SANTA LUZMILA LIMA LIMA,-11.951404,-77.059539
28244,CLINICA SAGRADA FAMILIA DEL SUR,PRIVADO,150133,LIMA METROPOLITANA,LIMA,SAN JUAN DE MIRAFLORES,CLINICA SAGRADA FAMILIA DEL SUR LIMA LIMA,-12.1664075,-76.9609476
28254,CLINICA SINAI,PRIVADO,220801,SAN MARTIN,RIOJA,RIOJA,CLINICA SINAI RIOJA SAN MARTIN,-6.0667968,-77.1702263
