CODIGO,NOMBRE,INSTITUCIÓN,UBIGEO,REGION,PROVINCIA,DISTRITO,latitude,longitude,DIRECCIÓN
1,"HOSPITAL IQUITOS ""CESAR GARAYAR GARCIA""",GOBIERNO REGIONAL,160101,LORETO,MAYNAS,IQUITOS,-3.7626032,-73.2542365,"Coronel Portugal 1710, Iquitos 16006, Perú"
3,"HOSPITAL REGIONAL DE LORETO ""FELIPE SANTIAGO ARRIOLA IGLESIAS""",GOBIERNO REGIONAL,160108,LORETO,MAYNAS,PUNCHANA,-3.7265074,-73.2538894,"Avenida 28 de Julio S/N, Punchana, Calle Amazonas 972, Iquitos"
66,HOSPITAL II-1 SANTA CLOTILDE,GOBIERNO REGIONAL,160107,LORETO,MAYNAS,NAPO,-2.4896087,-73.6772025,"16121, Perú"
162,HOSPITAL II-I  CONTAMANA,GOBIERNO REGIONAL,160601,LORETO,UCAYALI,CONTAMANA,-7.3499642,-75.0073022,"Contamana 16480, Perú"
210,HOSPITAL SANTA GEMA DE  YURIMAGUAS,GOBIERNO REGIONAL,160201,LORETO,ALTO AMAZONAS,YURIMAGUAS,-5.8937502,-76.1064441,"HOSPITAL SANTA GEMA, Yurimaguas 16501, Perú"
308,HOSPITAL REGIONAL DOCENTE DE MEDICINA TROPICAL DR. JULIO CESAR DEMARINI CARO,GOBIERNO REGIONAL,120301,JUNIN,CHANCHAMAYO,CHANCHAMAYO,-11.0729616,-75.3378401,"Av Daniel Alcides Carrión, La Merced 12856, Perú"
340,HOSPITAL DE APOYO PICHANAKI,GOBIERNO REGIONAL,120303,JUNIN,CHANCHAMAYO,PICHANAQUI,-10.9262966,-74.8728347,"Jr. Primero de Mayo, Av Marginal 717, Pichanaki, Perú"
365,HOSPITAL DOMINGO OLAVEGOYA,GOBIERNO REGIONAL,120401,JUNIN,JAUJA,JAUJA,-11.7769551,-75.4961451,"Jr. San Martin 1153, Jauja 12601, Perú"
432,DE APOYO MANUEL HIGA ARAKAKI,GOBIERNO REGIONAL,120601,JUNIN,SATIPO,SATIPO,-11.2487984,-74.6357655,"Satipo 12261, Perú"
442,SAN MARTIN DE PANGOA,GOBIERNO REGIONAL,120606,JUNIN,SATIPO,PANGOA,-11.8998089,-74.3118212,"Pangoa, 12320, Perú"
519,DE APOYO JUNIN,GOBIERNO REGIONAL,120501,JUNIN,JUNIN,JUNIN,-11.1581347,-75.9981233,"Junín 12731, Perú"
520,DE APOYO FELIX MAYORCA SOTO,GOBIERNO REGIONAL,120701,JUNIN,TARMA,TARMA,-11.4251092,-75.6926549,"298-, Av. Pacheco 362, Tarma, Perú"
646,PEDRO SANCHEZ MEZA,GOBIERNO REGIONAL,120901,JUNIN,CHUPACA,CHUPACA,-12.0561522,-75.2858208,"Chupaca, Perú"
753,HOSPITAL REGIONAL DOCENTE CLINICO QUIRURGICO DANIEL ALCIDES CARRION,GOBIERNO REGIONAL,120101,JUNIN,HUANCAYO,HUANCAYO,-12.0731459,-75.2208357,"Av. Daniel Alcides Carrion 1551, Huancayo 12006, Perú"
754,HOSPITAL REGIONAL HERMILIO VALDIZAN,GOBIERNO REGIONAL,100101,HUANUCO,HUANUCO,HUANUCO,-9.927915,-76.2361437,"Jirón Hermilio Valdizan, Huánuco 10001, Perú"
756,CARLOS SHOWING FERRARI,GOBIERNO REGIONAL,100102,HUANUCO,HUANUCO,AMARILIS,-9.9431731,-76.2419877,"Micaela Bastidas 207, Amarilis 10003, Perú"
932,HOSPITAL DE TINGO MARIA (HOSPITAL DE CONTINGENCIA),GOBIERNO REGIONAL,100605,HUANUCO,LEONCIO PRADO,LUYANDO,-9.2712444,-75.9877884,"10140, Perú"
979,DR.DANIEL ALCIDES CARRION GARCIA.,GOBIERNO REGIONAL,190113,PASCO,PASCO,YANACANCHA,-10.663981,-76.2533128,"N° de cuenta 4213550001854479, Av. Los Próceres 703, Cerro De Pasco 19001, Perú"
980,ERNESTO GERMAN GUZMÁN GONZALES,GOBIERNO REGIONAL,190301,PASCO,OXAPAMPA,OXAPAMPA,-10.5785008,-75.4105121,"Jirón Bolivar 4ta Cuadra, Jr Eduardo Loechle s/n, Chontabamba 19210, Perú"
981,"HOSP. ""ROMAN EGOAVIL PANDO"" VILLA RICA",GOBIERNO REGIONAL,190307,PASCO,OXAPAMPA,VILLA RICA,-10.7373231,-75.2736149,"Villa Rica, Perú"
1231,HOSPITAL REGIONAL HONORIO DELGADO ESPINOZA,GOBIERNO REGIONAL,40101,AREQUIPA,AREQUIPA,AREQUIPA,-16.415557,-71.533022,"Alcides Carrión, Arequipa 04002, Perú"
1232,HOSPITAL GOYENECHE,GOBIERNO REGIONAL,40101,AREQUIPA,AREQUIPA,AREQUIPA,-16.4024407,-71.5278817,"Av. Goyeneche, Arequipa 04001, Perú"
1344,HOSPITAL DE CAMANA,GOBIERNO REGIONAL,40201,AREQUIPA,CAMANA,CAMANA,-16.6183893,-72.7081872,"Panamericana Sur 550, Camaná 04450, Perú"
1382,HOSPITAL APLAO,GOBIERNO REGIONAL,40401,AREQUIPA,CASTILLA,APLAO,-16.0764909,-72.4908005,"Av. 21 de Marzo 111, Aplao, Perú"
1472,HOSPITAL DE APOYO RECUAY,GOBIERNO REGIONAL,21701,ANCASH,RECUAY,RECUAY,-9.7280685,-77.4533348,"Recuay 02405, Perú"
1516,HOSPITAL DE APOYO CARHUAZ,GOBIERNO REGIONAL,20601,ANCASH,CARHUAZ,CARHUAZ,-9.2776287,-77.649141,"Union, Carhuaz 02125, Perú"
1543,"HOSPITAL ""VICTOR RAMOS GUARDIA"" - HUARAZ",GOBIERNO REGIONAL,20101,ANCASH,HUARAZ,HUARAZ,-9.5345435,-77.529338,"Av. Mariscal Toribio Luzuriaga 1248, Huaraz 02001, Perú"
1587,HOSPITAL DE APOYO CARAZ,GOBIERNO REGIONAL,21201,ANCASH,HUAYLAS,CARAZ,-9.0443529,-77.8064364,"28 de Julio, Caraz 02167, Perú"
1633,HOSPITAL DE APOYO YUNGAY,GOBIERNO REGIONAL,22001,ANCASH,YUNGAY,YUNGAY,-9.138529,-77.7455444,"Yungay 02160, Perú"
1652,HOSPITAL LA CALETA,GOBIERNO REGIONAL,21801,ANCASH,SANTA,CHIMBOTE,-9.0748774,-78.602163,"Las Casuarinas 201, Chimbote 02803, Perú"
1703,ELEAZAR GUZMAN BARRON,GOBIERNO REGIONAL,21809,ANCASH,SANTA,NUEVO CHIMBOTE,-9.119811,-78.5216348,"Av Brasil, Chimbote, Perú"
1719,HOSPITAL DE APOYO CASMA,GOBIERNO REGIONAL,20801,ANCASH,CASMA,CASMA,-9.4737461,-78.3048609,"Casma 02661, Perú"
1741,HOSPITAL DE APOYO HUARMEY,GOBIERNO REGIONAL,21101,ANCASH,HUARMEY,HUARMEY,-10.0664169,-78.1506823,"Huarmey 02651, Perú"
1765,"HOSPITAL DE APOYO DE POMABAMBA "" ANTONIO CALDAS DOMINGUEZ""",GOBIERNO REGIONAL,21601,ANCASH,POMABAMBA,POMABAMBA,-8.8135716,-77.4634013,"Pomabamba 02260, Perú"
1795,HOSPITAL DE APOYO SIHUAS,GOBIERNO REGIONAL,21901,ANCASH,SIHUAS,SIHUAS,-8.5526723,-77.6319839,"Sihuas 02222, Perú"
1813,HOSPITAL DE APOYO HUARI,GOBIERNO REGIONAL,21001,ANCASH,HUARI,HUARI,-9.3418562,-77.1679299,"Av Circunvalación, Huari 02303, Perú"
1866,CLAS CORRALES,GOBIERNO REGIONAL,240102,TUMBES,TUMBES,CORRALES,-3.6007696,-80.4823359,"Unnamed Road, Corrales 24501, Perú"
1896,CENTRO DE SALUD ZARUMILLA,GOBIERNO REGIONAL,240301,TUMBES,ZARUMILLA,ZARUMILLA,-3.4955544,-80.2764146,"Zarumilla 24151, Perú"
1900,ZORRITOS,GOBIERNO REGIONAL,240201,TUMBES,CONTRALMIRANTE VILLAR,ZORRITOS,-3.6817005,-80.6798521,"Zorritos, Perú"
1910,"HOSPITAL DE APOYO II - 2, SULLANA",GOBIERNO REGIONAL,200601,PIURA,SULLANA,SULLANA,-4.8959435,-80.6949308,"Av Sta Rosa 331, Sullana 20103, Perú"
2021,HOSPITAL DE APOYO II - 1 NUESTRA SEÑORA DE LAS MERCEDES - PAITA,GOBIERNO REGIONAL,200501,PIURA,PAITA,PAITA,-5.0906919,-81.0904127,"Paita 20701, Perú"
2084,HOSPITAL DE LA AMISTAD PERU - COREA SANTA ROSA II-2,GOBIERNO REGIONAL,200115,PIURA,PIURA,VEINTISEIS DE OCTUBRE,-5.1840436,-80.6655264,"Av. Grau Esq Av. Chulucanas s/n, Prol Miguel Grau, Piura, Perú"
2143,E.S I-4 SECHURA,GOBIERNO REGIONAL,200801,PIURA,SECHURA,SECHURA,-5.5622396,-80.8187744,"Sechura, Perú"
2161,E.S  II-1  HOSPITAL  CHULUCANAS,GOBIERNO REGIONAL,200401,PIURA,MORROPON,CHULUCANAS,-5.1034125,-80.1708546,"Chulucanas 20301, Perú"
2171,E.S. FRÍAS,GOBIERNO REGIONAL,200202,PIURA,AYABACA,FRIAS,-4.9306933,-79.9465508,"Frías, Perú"
2232,C.S EL TUNAL,GOBIERNO REGIONAL,200305,PIURA,HUANCABAMBA,LALAQUIZ,-5.3755675,-79.6080967,"Canchaque, Perú"
2250,ESTABLECIMIENTO DE SALUD HUANCABAMBA (JESUS GUERRERO CRUZ),GOBIERNO REGIONAL,200301,PIURA,HUANCABAMBA,HUANCABAMBA,-5.2476833,-79.4548862,"20440, Perú"
2289,HOSPITAL DE APOYO DEPARTAMENTAL CUSCO,GOBIERNO REGIONAL,80101,CUSCO,CUSCO,CUSCO,-13.5238262,-71.954768,"Cusco 08003, Perú"
2300,SAN JERONIMO,GOBIERNO REGIONAL,80104,CUSCO,CUSCO,SAN JERONIMO,-13.548957,-71.880124,"Circunvalacion Nte, Cusco 08006"
2305,ANTONIO LORENA DEL CUSCO,GOBIERNO REGIONAL,80106,CUSCO,CUSCO,SANTIAGO,-13.5272584,-71.9455009,"Av de la Cultura 3035, Cusco 08003, Perú"
2317,ACOMAYO,GOBIERNO REGIONAL,80201,CUSCO,ACOMAYO,ACOMAYO,-13.9194933,-71.6833925,"Acomayo, Perú"
2378,SICUANI,GOBIERNO REGIONAL,80601,CUSCO,CANCHIS,SICUANI,-14.2713299,-71.2220832,"Sicuani, Perú"
2398,SANTO TOMAS,GOBIERNO REGIONAL,80701,CUSCO,CHUMBIVILCAS,SANTO TOMAS,-14.4485861,-72.0794063,"Santo Tomás, Perú"
2421,QUILLABAMBA,GOBIERNO REGIONAL,80901,CUSCO,LA CONVENCION,SANTA ANA,-12.868355,-72.6919814,"Quillabamba, Perú"
2469,SAN JUAN DE KIMBIRI-VRAEM,GOBIERNO REGIONAL,80907,CUSCO,LA CONVENCION,KIMBIRI,-12.617393,-73.792863,"Kimbiri 08800, Perú"
2499,PARURO,GOBIERNO REGIONAL,81001,CUSCO,PARURO,PARURO,-13.7607869,-71.846825,"Provincia de Paruro, Perú"
2536,OCONGATE,GOBIERNO REGIONAL,81210,CUSCO,QUISPICANCHI,OCONGATE,-13.6294962,-71.385252,"Ocongate 08171, Perú"
2538,QUIQUIJANA,GOBIERNO REGIONAL,81212,CUSCO,QUISPICANCHI,QUIQUIJANA,-13.8262541,-71.5401821,"Quiquijana, Perú"
2625,TAMBOBAMBA,GOBIERNO REGIONAL,30501,APURIMAC,COTABAMBAS,TAMBOBAMBA,-13.945728,-72.1756733,"Tambobamba 03241, Perú"
2698,SANTA ROSA,GOBIERNO REGIONAL,170101,MADRE DE DIOS,TAMBOPATA,TAMBOPATA,-12.5690387330829,-69.1979249663888,"Jiron Atahualpa 520, Puerto Maldonado 17001"
2793,SAN MARTIN DE PORRES DE IBERIA,GOBIERNO REGIONAL,170302,MADRE DE DIOS,TAHUAMANU,IBERIA,-11.4042828,-69.4878891,"Iberia, Perú"
2818,HOSPITAL ILO,GOBIERNO REGIONAL,180301,MOQUEGUA,ILO,ILO,-17.6534749,-71.3372775,"Ilo 18601, Perú"
2864,HOSPITAL HIPOLITO UNANUE DE TACNA,GOBIERNO REGIONAL,230101,TACNA,TACNA,TACNA,-18.0149093,-70.2555282,"Daniel Alcides Carrion 160, Tacna 23001, Perú"
2883,LA ESPERANZA,GOBIERNO REGIONAL,230102,TACNA,TACNA,ALTO DE LA ALIANZA,-17.9993145,-70.2455831,"Alto De La Alianza, Tacna 23001, Perú"
2941,CARLOS CORNEJO ROSELLO,GOBIERNO REGIONAL,210201,PUNO,AZANGARO,AZANGARO,-14.904166,-70.1996866,"Simón Bolivar 268, Azángaro 21157, Perú"
2974,HOSPITAL SAN MARTÍN DE PORRES,GOBIERNO REGIONAL,210301,PUNO,CARABAYA,MACUSANI,-14.0720801,-70.429455,"100, Macusani 21251, Perú"
2990,JULI,GOBIERNO REGIONAL,210401,PUNO,CHUCUITO,JULI,-16.2142869,-69.4575979,"Juli, Perú"
3032,ILAVE,GOBIERNO REGIONAL,210501,PUNO,EL COLLAO,ILAVE,-16.0825395,-69.6384724,"Ilave, Perú"
3068,HOSPITAL LUCIO ALDAZABAL PAUCA,GOBIERNO REGIONAL,210601,PUNO,HUANCANE,HUANCANE,-15.1990754,-69.7652972,"Huancané 21316, Perú"
3128,ANTONIO BARRIONUEVO (LAMPA),GOBIERNO REGIONAL,210701,PUNO,LAMPA,LAMPA,-15.3646051,-70.3670917,"Antonio Barrionuevo, Lampa 21801, Perú"
3156,SAN JUAN DE DIOS (AYAVIRI),GOBIERNO REGIONAL,210801,PUNO,MELGAR,AYAVIRI,-14.8745287,-70.5951995,"Ayaviri 21866, Perú"
3251,HOSPITAL REGIONAL MANUEL NUÑEZ BUTRON,GOBIERNO REGIONAL,210101,PUNO,PUNO,PUNO,-15.8424965,-70.0219364,"Av. El Sol 1022, Puno 21002, Perú"
3299,CARLOS MONJE MEDRANO,GOBIERNO REGIONAL,211101,PUNO,SAN ROMAN,JULIACA,-15.4817126,-70.1201534,"San Pablo, Juliaca 21103, Perú"
3335,HOSPITAL SANDIA,GOBIERNO REGIONAL,211201,PUNO,SANDIA,SANDIA,-14.3204275,-69.4652921,"Sandia 21366, Perú"
3349,YUNGUYO,GOBIERNO REGIONAL,211301,PUNO,YUNGUYO,YUNGUYO,-16.2494365,-69.0880819,"Yunguyo, Perú"
3358,REGIONAL DE ICA,GOBIERNO REGIONAL,110101,ICA,ICA,ICA,-14.074204,-75.743184,"Ica 107, Perú"
3359,SANTA MARIA DEL SOCORRO,GOBIERNO REGIONAL,110101,ICA,ICA,ICA,-14.0567409,-75.7299883,"Calle Castrovirreyna 759, Ica 11002, Perú"
3414,HOSPITAL SAN JOSE DE CHINCHA,GOBIERNO REGIONAL,110201,ICA,CHINCHA,CHINCHA ALTA,-13.4159499,-76.1265593,"Calle La Florida 128, 11701, Perú"
3443,RICARDO CRUZADO RIVAROLA DE NASCA,GOBIERNO REGIONAL,110301,ICA,NAZCA,NAZCA,-14.826858,-74.9404228,"Ignacio Morsesky 329, Nasca 11401, Perú"
3472,SAN JUAN DE DIOS,GOBIERNO REGIONAL,110501,ICA,PISCO,PISCO,-13.7147154,-76.1849735,"Pisco 11601, Perú"
3494,HOSPITAL DE APOYO CANGALLO,GOBIERNO REGIONAL,50201,AYACUCHO,CANGALLO,CANGALLO,-13.6291985,-74.143899,"Cangallo 05401, Perú"
3523,HOSPITAL DE APOYO DE CORACORA,GOBIERNO REGIONAL,50701,AYACUCHO,PARINACOCHAS,CORACORA,-15.017081,-73.7787818,"Coracora 05611, Perú"
3543,"HOSPITAL REGIONAL DE AYACUCHO ""MIGUEL ANGEL MARISCAL LLERENA""",GOBIERNO REGIONAL,50101,AYACUCHO,HUAMANGA,AYACUCHO,-13.1512865,-74.2233534,"Ayacucho 05001, Perú"
3575,HOSPITAL  JESUS NAZARENO,GOBIERNO REGIONAL,50115,AYACUCHO,HUAMANGA,JESUS NAZARENO,-13.155128,-74.218414,"Centro de Salud Nazarenas, Ayacucho 05001, Perú"
3655,"HOSPITAL DE APOYO DE HUANTA ""DANIEL ALCIDES CARRIÓN""",GOBIERNO REGIONAL,50401,AYACUCHO,HUANTA,HUANTA,-12.9358728,-74.251496,"Av. Mariscal Ramon Castilla Nº 712 - Plaza de los Héroes - Huanta, Jr. Miguel Untiveros 712, Huanta, Perú"
3727,"HOSPITAL DE APOYO DE PUQUIO ""FELIPE HUAMÁN POMA DE AYALA""",GOBIERNO REGIONAL,50601,AYACUCHO,LUCANAS,PUQUIO,-14.6863532,-74.1195572,"Puquío 05500, Perú"
3754,HOSPITAL DE APOYO SAN FRANCISCO,GOBIERNO REGIONAL,50503,AYACUCHO,LA MAR,AYNA,-12.6239862,-73.7898636,"San Francisco 05211, Perú"
3770,APOYO SIVIA,GOBIERNO REGIONAL,50407,AYACUCHO,HUANTA,SIVIA,-12.5083493,-73.8625844,"Sivia 05220, Perú"
3792,HOSPITAL DE APOYO  SAN MIGUEL,GOBIERNO REGIONAL,50501,AYACUCHO,LA MAR,SAN MIGUEL,-13.013206,-73.9770825,"San Miguel 05251, Perú"
3853,HOSPITAL DEPARTAMENTAL DE HUANCAVELICA,GOBIERNO REGIONAL,90101,HUANCAVELICA,HUANCAVELICA,HUANCAVELICA,-12.7873783,-74.9816982,"Yananaco, Mariscal Andres A. Caceres, Huancavelica, Perú"
3917,HOSPITAL PROVINCIAL DE ACOBAMBA,GOBIERNO REGIONAL,90201,HUANCAVELICA,ACOBAMBA,ACOBAMBA,-12.8448556,-74.5715556,"Manco Cápac, Acobamba 09381, Perú"
3943,HOSPITAL DE LIRCAY,GOBIERNO REGIONAL,90301,HUANCAVELICA,ANGARAES,LIRCAY,-12.9970793,-74.7238179,"Lircay 09405, Perú"
4074,HOSPITAL DE PAMPAS,GOBIERNO REGIONAL,90701,HUANCAVELICA,TAYACAJA,PAMPAS,-12.402274,-74.866829,"Jr. Bolivar SN, Pampas 09156, Perú"
4131,HOSPITAL SUBREGIONAL DE ANDAHUAYLAS,GOBIERNO REGIONAL,30201,APURIMAC,ANDAHUAYLAS,ANDAHUAYLAS,-13.6579063,-73.381736,"Jirón Hugo Pesce 2, Andahuaylas 03701, Perú"
4140,HOSPITAL CHINCHEROS,GOBIERNO REGIONAL,30601,APURIMAC,CHINCHEROS,CHINCHEROS,-13.5181767,-73.7178004,"3S, 03850, Perú"
4210,GRAL. JAEN,GOBIERNO REGIONAL,60801,CAJAMARCA,JAEN,JAEN,-5.7053546,-78.8046368,"Av Pakamuros 1210, Jaén 06801, Perú"
4223,SAN JAVIER BELLAVISTA,GOBIERNO REGIONAL,60802,CAJAMARCA,JAEN,BELLAVISTA,-5.6633586,-78.6771355,"5°39'54.4""S 78°40'42., 5N, Perú"
4317,HOSPITAL REGIONAL DOCENTE LAS MERCEDES,GOBIERNO REGIONAL,140101,LAMBAYEQUE,CHICLAYO,CHICLAYO,-6.772535,-79.8424493,"Av. Luis Gonzáles 635, Chiclayo 14001, Perú"
4370,HOSPITAL BELEN - LAMBAYEQUE,GOBIERNO REGIONAL,140301,LAMBAYEQUE,LAMBAYEQUE,LAMBAYEQUE,-6.7021435,-79.9022374,"Au. Panamericana Nte., Lambayeque 14013, Perú"
4440,HOSPITAL REFERENCIAL FERREÑAFE,GOBIERNO REGIONAL,140201,LAMBAYEQUE,FERREÑAFE,FERREÑAFE,-6.642727,-79.7886908,"Ferreñafe 14311, Perú"
4466,DE APOYO CELENDIN,GOBIERNO REGIONAL,60301,CAJAMARCA,CELENDIN,CELENDIN,-6.8683566,-78.1422544,"Celendín 06225, Perú"
4511,DE APOYO CAJABAMBA,GOBIERNO REGIONAL,60201,CAJAMARCA,CAJABAMBA,CAJABAMBA,-7.621004,-78.0454105,"La Torre 276, Cajabamba 06351, Perú"
4655,SIMON BOLIVAR,GOBIERNO REGIONAL,60101,CAJAMARCA,CAJAMARCA,CAJAMARCA,-7.1677684,-78.5122445,"Simón Bolívar, Cajamarca 06002, Perú"
4659,HOSPITAL DE APOYO CHOTA - JOSE SOTO CADENILLAS,GOBIERNO REGIONAL,60401,CAJAMARCA,CHOTA,CHOTA,-6.5619369,-78.653984,"Exequiel Montoya 757, Chota 06121, Perú"
4782,BAMBAMARCA - TITO VILLAR CABEZAS,GOBIERNO REGIONAL,60701,CAJAMARCA,HUALGAYOC,BAMBAMARCA,-6.6713022,-78.5287612,"Av. Ricardo Palma, Bambamarca 06116, Perú"
4838,HOSPITAL REGIONAL VIRGEN DE FATIMA,GOBIERNO REGIONAL,10101,AMAZONAS,CHACHAPOYAS,CHACHAPOYAS,-6.2312296,-77.8663838,"Triunfo, Chachapoyas 01001, Perú"
4950,MARIA AUXILIADORA,GOBIERNO REGIONAL,10601,AMAZONAS,RODRIGUEZ DE MENDOZA,SAN NICOLAS,-6.3953903,-77.4791263,"Jr. Alonso de Alvarado 910, Tarapoto 01335, Perú"
4981,SANTA MARIA DE CUTERVO,GOBIERNO REGIONAL,60601,CAJAMARCA,CUTERVO,CUTERVO,-6.3802574,-78.8156998,"Cutervo 06701, Perú"
5044,HOSPITAL DE APOYO GUSTAVO LANATTA LUJAN,GOBIERNO REGIONAL,10201,AMAZONAS,BAGUA,BAGUA,-5.6389407,-78.5302525,"Bagua 01721, Perú"
5125,HOSPITAL  SANTIAGO APOSTOL DE UTCUBAMBA,GOBIERNO REGIONAL,10701,AMAZONAS,UTCUBAMBA,BAGUA GRANDE,-5.7543122,-78.4400882,"Bagua Grande 01621, Perú"
5145,SANTA MARIA DE NIEVA,GOBIERNO REGIONAL,10401,AMAZONAS,CONDORCANQUI,NIEVA,-4.60049,-77.865679,Santa María de Nieva 01830
5195,HOSPITAL BELEN DE TRUJILLO,GOBIERNO REGIONAL,130101,LA LIBERTAD,TRUJILLO,TRUJILLO,-8.1058249,-79.0366076,"Av Mansiche 795, Trujillo 13011, Perú"
5196,REGIONAL DOCENTE DE TRUJILLO,GOBIERNO REGIONAL,130101,LA LIBERTAD,TRUJILLO,TRUJILLO,-8.1058249,-79.0366076,"Av Mansiche 795, Trujillo 13011, Perú"
5197,IRO,GOBIERNO REGIONAL,130101,LA LIBERTAD,TRUJILLO,TRUJILLO,-8.1131823,-79.0486157,"P' Lote 7-A, Covicorti Mz Y' Lt 11, Trujillo, Perú"
5204,HOSPITAL DE ESPECIALIDADES BASICAS LA NORIA,GOBIERNO REGIONAL,130101,LA LIBERTAD,TRUJILLO,TRUJILLO,-8.1037731,-79.0103311,"Av Blas Pascal 124, Trujillo 13007, Perú"
5209,HOSPITAL DISTRITAL DE EL PORVENIR SANTA ISABEL,GOBIERNO REGIONAL,130102,LA LIBERTAD,TRUJILLO,EL PORVENIR,-8.0829649,-78.9979156,"Gabriel Aguilar 1573, El Porvenir 13004, Perú"
5217,HOSPITAL DISTRITAL EL ESFUERZO DE FLORENCIA DE MORA,GOBIERNO REGIONAL,130103,LA LIBERTAD,TRUJILLO,FLORENCIA DE MORA,-8.0877992,-79.0256102,"Calle 18 de Mayo, Florencia de Mora 13002, Perú"
5226,HOSPITAL DISTRITAL JERUSALEN,GOBIERNO REGIONAL,130105,LA LIBERTAD,TRUJILLO,LA ESPERANZA,-8.0690033,-79.0543877,"Mz 20 Lt 12 Calle Santa María, Jerusalen, La Esperanza 13013, Perú"
5231,HOSPITAL DISTRITAL LAREDO,GOBIERNO REGIONAL,130106,LA LIBERTAD,TRUJILLO,LAREDO,-8.0859659,-78.9570756,"Antenor Orrego, Laredo 13101, Perú"
5243,HOSPITAL DISTRITAL VISTA ALEGRE,GOBIERNO REGIONAL,130111,LA LIBERTAD,TRUJILLO,VICTOR LARCO HERRERA,-8.1384167,-79.0484856,"Calle Bernardo Alcedo 193, Distrito de Víctor Larco Herrera 13009, Perú"
5251,HOSPITAL PROVINCIAL DE VIRU,GOBIERNO REGIONAL,131201,LA LIBERTAD,VIRU,VIRU,-8.4152088,-78.7501539,"Virú 13621, Perú"
5263,"HOSPITAL PROVINCIAL ASCOPE ""ROSA SANCHEZ DE SANTILLAN""",GOBIERNO REGIONAL,130201,LA LIBERTAD,ASCOPE,ASCOPE,-7.7143566,-79.1012675,"Ascope 13770, Perú"
5277,HOSPITAL PROVINICIAL DE CASCAS,GOBIERNO REGIONAL,131101,LA LIBERTAD,GRAN CHIMU,CASCAS,-7.4813907,-78.8174106,"PE 1NF 362, Cascas 13781, Perú"
5292,HOSPITAL DE APOYO TOMAS LAFORA,GOBIERNO REGIONAL,130702,LA LIBERTAD,PACASMAYO,GUADALUPE,-7.2416742,-79.4745424,"Guadalupe 13841, Perú"
5296,HOSPITAL DISTRITAL DE PACASMAYO,GOBIERNO REGIONAL,130704,LA LIBERTAD,PACASMAYO,PACASMAYO,-7.3987062,-79.5693438,"Pacasmayo 13811, Perú"
5299,HOSPITAL DE APOYO CHEPEN,GOBIERNO REGIONAL,130401,LA LIBERTAD,CHEPEN,CHEPEN,-7.2221534,-79.4354616,"28 De Julio, Chepén 13871, Perú"
5306,HOSPITAL PROVINCIAL DE JULCAN,GOBIERNO REGIONAL,130501,LA LIBERTAD,JULCAN,JULCAN,-8.0428018,-78.4872055,"CESAR VALLEJO Nº 100 - Julcán, LI-120, Julcán, Perú"
5314,HOSPITAL DE APOYO OTUZCO ELPIDIO BEROVIDES PEREZ,GOBIERNO REGIONAL,130601,LA LIBERTAD,OTUZCO,OTUZCO,-7.9052901,-78.5651102,"Calle Progreso 331, Otuzco 13201, Perú"
5332,HOSPITAL DE APOYO CESAR VALLEJO MENDOZA,GOBIERNO REGIONAL,131001,LA LIBERTAD,SANTIAGO DE CHUCO,SANTIAGO DE CHUCO,-8.1459201,-78.1785263,"Mariscal Cáceres 1145, Santiago de Chuco 13146, Perú"
5349,HOSPITAL DE APOYO LEONCIO PRADO,GOBIERNO REGIONAL,130901,LA LIBERTAD,SANCHEZ CARRION,HUAMACHUCO,-7.8171051,-78.0439728,"Av 10 de Julio 209, Huamachuco 13301, Perú"
5366,HOSPITAL PROVINCIAL DE BOLIVAR,GOBIERNO REGIONAL,130301,LA LIBERTAD,BOLIVAR,BOLIVAR,-7.1540803,-77.7021603,"Bolívar, Perú"
5375,HOSPITAL PROVINCIAL DE TAYABAMBA,GOBIERNO REGIONAL,130801,LA LIBERTAD,PATAZ,TAYABAMBA,-8.272225,-77.298954,Tayabamba District 13526
5395,AGUAYTIA,GOBIERNO REGIONAL,250301,UCAYALI,PADRE ABAD,PADRE ABAD,-8.8207899,-75.6208088,"Padre Abad, Perú"
5576,HOSPITAL REGIONAL DE PUCALLPA,GOBIERNO REGIONAL,250101,UCAYALI,CORONEL PORTILLO,CALLERIA,-8.3748623,-74.5323571,"Jirón Luis Scavino 317, Pucallpa 25001, Perú"
5577,HOSPITAL AMAZONICO - YARINACOCHA,GOBIERNO REGIONAL,250105,UCAYALI,CORONEL PORTILLO,YARINACOCHA,-8.356061,-74.573307,"Jirón Aguaytía, Pucallpa 25004, Perú"
5617,HOSPITAL SAN JUAN DE LURIGANCHO,MINSA,150132,LIMA METROPOLITANA,LIMA,SAN JUAN DE LURIGANCHO,-11.9662383,-77.0035198,"Av. Canto Grande, San Juan de Lurigancho 15423, Perú"
5850,HOSPITAL SAN JUAN DE MATUCANA,GOBIERNO REGIONAL,150701,LIMA REGION,HUAROCHIRI,MATUCANA,-11.8429476,-76.3817861,"Carr. Central 3111, Matucana 15556, Perú"
5883,HOSPITAL DE HUAYCAN,MINSA,150103,LIMA METROPOLITANA,LIMA,ATE,-12.015669,-76.8202878,"Av. José Carlos Mariátegui, Ate Vitarte 15479, Perú"
5945,HOSPITAL VITARTE,MINSA,150103,LIMA METROPOLITANA,LIMA,ATE,-12.0263229,-76.9199496,"Carr. Central 506, Ate 15491, Perú"
5946,HOSPITAL NACIONAL HIPOLITO UNANUE,MINSA,150111,LIMA METROPOLITANA,LIMA,EL AGUSTINO,-12.0410495,-76.9920019,"Av. Cesar Vallejo 1390, El Agustino 15007, Perú"
5947,HOSPITAL DE MEDIANA COMPLEJIDAD JOSE AGURTO TELLO,MINSA,150118,LIMA METROPOLITANA,LIMA,LURIGANCHO,-11.934365,-76.6934592,"Hospital Jose Agurto Tello, Arequipa 214, Chosica 15468, Perú"
5948,HOSPITAL HERMILIO VALDIZAN,MINSA,150137,LIMA METROPOLITANA,LIMA,SANTA ANITA,-12.0466395,-76.9457393,"Carr. Central 1315, Santa Anita 15011, Perú"
5986,HOSPITAL REZOLA,GOBIERNO REGIONAL,150501,LIMA REGION,CAÑETE,SAN VICENTE DE CAÑETE,-13.0762811,-76.3855232,"Plaza San Martín 124, San Vicente de Cañete 15701, Perú"
5987,HOSPITAL MARIA AUXILIADORA,MINSA,150133,LIMA METROPOLITANA,LIMA,SAN JUAN DE MIRAFLORES,-12.16107,-76.9583852,"Av. Miguel Iglesias 968, San Juan de Miraflores 15801, Perú"
6206,NACIONAL  DOS DE MAYO,MINSA,150101,LIMA METROPOLITANA,LIMA,LIMA,-12.0567551,-77.016015,"Parque ""Historia de la Medicina Peruana"", S/N, Av. Miguel Grau 13, Cercado de Lima 15003, Perú"
6207,HOSPITAL NACIONAL ARZOBISPO LOAYZA,MINSA,150101,LIMA METROPOLITANA,LIMA,LIMA,-12.0500942,-77.0432916,"Avenida Alfonso Ugarte 848, Cercado de Lima 15082, Perú"
6208,INSTITUTO NACIONAL MATERNO PERINATAL,MINSA,150101,LIMA METROPOLITANA,LIMA,LIMA,-12.0527686,-77.0221638,"Jirón Miro Quesada 941, Cercado de Lima 15001, Perú"
6209,INSTITUTO NACIONAL DE CIENCIAS NEUROLOGICAS,MINSA,150101,LIMA METROPOLITANA,LIMA,LIMA,-12.0461602,-77.0159002,"Jr. Ancash 1271, Cercado de Lima 15003, Perú"
6210,INSTITUTO NACIONAL DE ENFERMEDADES NEOPLASICAS,MINSA,150141,LIMA METROPOLITANA,LIMA,SURQUILLO,-12.1124415,-76.9982768,"Av. Angamos 2520, Surquillo 15038, Perú"
6211,HOSPITAL DE APOYO SANTA ROSA,MINSA,150121,LIMA METROPOLITANA,LIMA,PUEBLO LIBRE,-12.0720006,-77.0609284,"Av. Simón Bolivar 8, Pueblo Libre 15084, Perú"
6212,HOSPITAL DE EMERGENCIAS PEDIATRICAS,MINSA,150115,LIMA METROPOLITANA,LIMA,LA VICTORIA,-12.0584282,-77.0215752,"Avenida Miguel Grau 854 La Victoria, Cercado de Lima 15033, Perú"
6213,HOSPITAL DE EMERGENCIAS JOSE CASIMIRO ULLOA,MINSA,150122,LIMA METROPOLITANA,LIMA,MIRAFLORES,-12.1281087,-77.0177365,"Av. República de Panamá 6399, Miraflores 15048, Perú"
6214,HOSPITAL VICTOR LARCO HERRERA,MINSA,150120,LIMA METROPOLITANA,LIMA,MAGDALENA DEL MAR,-12.0981957,-77.0656462,"Av. del Ejército 600, Magdalena del Mar 15076, Perú"
6215,HOSPITAL NACIONAL DOCENTE MADRE NIÑO SAN BARTOLOME,MINSA,150101,LIMA METROPOLITANA,LIMA,LIMA,-12.0497573,-77.0419326,"Avenida Alfonso Ugarte 825, Cercado de Lima 15001, Perú"
6216,INSTITUTO NACIONAL DE SALUD DEL NIÑO,MINSA,150105,LIMA METROPOLITANA,LIMA,BREÑA,-12.0645452,-77.0456126,"Av Brasil 600, Breña 15083, Perú"
6217,INO DR. FRANCISCO CONTRERAS C.,MINSA,150101,LIMA METROPOLITANA,LIMA,LIMA,-12.0514395,-77.0551828,"Av. Tingo Maria 398, Cercado de Lima 15082, Perú"
6218,NAC. DANIEL A. CARRION,GOBIERNO REGIONAL,70102,CALLAO,CALLAO,BELLAVISTA,-12.0342443,-77.0969721,"Daniel A. Carrión, Callao 07041, Perú"
6219,HOSPITAL SAN JOSE,GOBIERNO REGIONAL,70103,CALLAO,CALLAO,CARMEN DE LA LEGUA-REYNOSO,-12.0428159,-77.0985997,"Jr las Magnolias 475, Carmen de La Legua - Reynoso 15103, Perú"
6352,HOSPITAL II-E LAMAS,GOBIERNO REGIONAL,220501,SAN MARTIN,LAMAS,LAMAS,-6.4243174,-76.5163653,"Vía de Evitamiento 1, Lamas 22151, Perú"
6359,BANDA SHILCAYO,GOBIERNO REGIONAL,220909,SAN MARTIN,SAN MARTIN,LA BANDA DE SHILCAYO,-6.4927163,-76.3463624,"La Banda de Shilcayo, Tarapoto, Perú"
6502,HOSPITAL BELLAVISTA,GOBIERNO REGIONAL,220201,SAN MARTIN,BELLAVISTA,BELLAVISTA,-7.0589221,-76.5933967,"Bellavista 22740, Perú"
6580,"HOSPITAL II-1 ""DR. JOSE PEÑA PORTUGUEZ "" - TOCACHE",GOBIERNO REGIONAL,221001,SAN MARTIN,TOCACHE,TOCACHE,-8.1892608,-76.5188791,"Tocache, Perú"
6615,REGIONAL DOCENTE MATERNO INFANTIL EL CARMEN,GOBIERNO REGIONAL,120101,JUNIN,HUANCAYO,HUANCAYO,-12.0702661,-75.2141907,"Jirón Puno, Huancayo 12001, Perú"
6732,HOSPITAL DE  RIOJA,GOBIERNO REGIONAL,220801,SAN MARTIN,RIOJA,RIOJA,-6.0684054,-77.1702671,"Jirón Venecia, Rioja 22826, Perú"
6733,HOSPITAL  MOYOBAMBA,GOBIERNO REGIONAL,220101,SAN MARTIN,MOYOBAMBA,MOYOBAMBA,-6.0415716,-76.9707919,"Av Grau, Moyobamba 22001, Perú"
6918,HOSPITAL TARAPOTO,GOBIERNO REGIONAL,220901,SAN MARTIN,SAN MARTIN,TARAPOTO,-6.4735739,-76.3713254,"Hospital II-2 Tarapoto, Jirón Ángel Delgado Morey 503, Tarapoto 22202, Perú"
6919,HOSPITAL II-E JUANJUI - MC LUIS IZQUIERDO VÁSQUEZ,GOBIERNO REGIONAL,220601,SAN MARTIN,MARISCAL CACERES,JUANJUI,-7.1731495,-76.7278803,"Juanjuí, Perú"
7126,HOSPITAL DE VENTANILLA,GOBIERNO REGIONAL,70106,CALLAO,CALLAO,VENTANILLA,-11.8724765,-77.1257725,"Av Pedro Beltran, Ventanilla 07036, Perú"
7135,ESPINAR,GOBIERNO REGIONAL,80801,CUSCO,ESPINAR,ESPINAR,-14.7895845,-71.412125,"Espinar, Perú"
7152,HOSPITAL DISTRITAL ALTO MOCHE-WALTER CRUZ VILCA,GOBIERNO REGIONAL,130107,LA LIBERTAD,TRUJILLO,MOCHE,-8.1852546,-78.9891957,"Mz 37 Lt 1, Calle San Martín Moche, Trujillo 13000, Perú"
7277,REGIONAL DE ENFERMEDADES NEOPLASICAS - NORTE - DR. LUIS PINILLOS GANOZA,GOBIERNO REGIONAL,130101,LA LIBERTAD,TRUJILLO,TRUJILLO,-8.134261,-79.0196529,"Trujillo 13008, Perú"
7322,HOSPITAL PRIVADO REFERENCIAL DOCENTE TUMÁN,PRIVADO,140120,LAMBAYEQUE,CHICLAYO,TUMAN,-6.7469921,-79.6988921,"Tumán 14601, Perú"
7397,INSTITUTO REGIONAL DE ENFERMEDADES NEOPLASICAS,GOBIERNO REGIONAL,40101,AREQUIPA,AREQUIPA,AREQUIPA,-16.4143011,-71.530239,"INREN, Arequipa 04002, Perú"
7632,HOSPITAL CARLOS LANFRANCO LA HOZ,MINSA,150125,LIMA METROPOLITANA,LIMA,PUENTE PIEDRA,-11.8628121,-77.0793757,"Av. Sáenz Peña s/n, Puente Piedra 15118, Perú"
7633,HOSPITAL NACIONAL CAYETANO HEREDIA,MINSA,150135,LIMA METROPOLITANA,LIMA,SAN MARTIN DE PORRES,-12.022498,-77.0553495,"1 CV Zac, Av. Honorio Delgado 262, San Martín de Porres 15102, Perú"
7634,HOSPITAL NACIONAL SERGIO E. BERNALES,MINSA,150110,LIMA METROPOLITANA,LIMA,COMAS,-11.911833,-77.0389539,"Av. Túpac Amaru 5321, Comas 15313, Perú"
7635,HOSPITAL DE BARRANCA,GOBIERNO REGIONAL,150201,LIMA REGION,BARRANCA,BARRANCA,-10.7538726,-77.7636255,"Nicolás de Piérola 210 - 224, Barranca 15169, Perú"
7636,HOSPITAL DE SUPE LAURA ESTHER RODRIGUEZ DULANTO,GOBIERNO REGIONAL,150204,LIMA REGION,BARRANCA,SUPE,-10.7973601,-77.7178446,"Hospital de Supe, Supe 15162, Perú"
7637,HOSPITAL SAN JUAN BAUTISTA HUARAL,GOBIERNO REGIONAL,150601,LIMA REGION,HUARAL,HUARAL,-11.5031049,-77.2132114,"Huaral 15202, Perú"
7638,"HOSPITAL DE CHANCAY Y SBS ""Dr. HIDALGO ATOCHE LÓPEZ""",GOBIERNO REGIONAL,150605,LIMA REGION,HUARAL,CHANCAY,-11.5606689,-77.2709562,"MARISCAL SUCRE S/N, Chancay 15131, Perú"
7639,HOSPITAL GENERAL DE HUACHO,GOBIERNO REGIONAL,150801,LIMA REGION,HUAURA,HUACHO,-11.1149268,-77.6074284,"hospital regional de, Huacho, Perú"
7686,HOSPITAL REGIONAL DOCENTE CAJAMARCA,GOBIERNO REGIONAL,60101,CAJAMARCA,CAJAMARCA,CAJAMARCA,-7.1833546,-78.4878261,"Av Larry Jhonson, Cajamarca 06003, Perú"
7719,HOSPITAL REGIONAL GUILLERMO DIAZ DE LA VEGA,GOBIERNO REGIONAL,30101,APURIMAC,ABANCAY,ABANCAY,-13.6396561,-72.8817175,"Abancay 03001, Perú"
7732,HOSPITAL REGIONAL MOQUEGUA,GOBIERNO REGIONAL,180101,MOQUEGUA,MARISCAL NIETO,MOQUEGUA,-17.185703,-70.9275586,"Hospital Regional, Moquegua 18001, Perú"
7733,"INSTITUTO NACIONAL DE SALUD MENTAL ""HONORIO DELGADO - HIDEYO NOGUCHI""",MINSA,150135,LIMA METROPOLITANA,LIMA,SAN MARTIN DE PORRES,-12.0205996,-77.0562402,"Av. Eloy Espinoza 709, San Martín de Porres 15102, Perú"
7734,"INSTITUTO NACIONAL DE REHABILITACION ""DRA. ADRIANA REBAZA FLORES"" AMISTAD PERU - JAPON",MINSA,150108,LIMA METROPOLITANA,LIMA,CHORRILLOS,-12.1918762,-77.0032227,"Av. Defensores del Morro 264, Chorrillos 15057, Perú"
7874,CLINICA FEIJOO EIRL,PRIVADO,240101,TUMBES,TUMBES,TUMBES,-3.5718433,-80.456755,"Mariscal Castilla 305, Tumbes 24001, Perú"
8024,CLINICA CAYETANO HEREDIA,PRIVADO,120114,JUNIN,HUANCAYO,EL TAMBO,-12.0631409,-75.219291,"Av. Huancavelica 745, Huancayo 12004, Perú"
8108,HOSPITAL  DIOSPI SUYANA,PRIVADO,30104,APURIMAC,ABANCAY,CURAHUASI,-13.5430598,-72.7057993,"Curahuasi 03100, Perú"
8146,POLICLINICO HERMANA MARIA DONROSE SUTMÖLLER,ESSALUD,70106,CALLAO,CALLAO,VENTANILLA,-11.8865243,-77.1243942,"José Gonzáles Ganoza, Ventanilla 07036, Perú"
8151,CLÍNICA METROPOLITANA,PRIVADO,140101,LAMBAYEQUE,CHICLAYO,CHICLAYO,-6.7731645,-79.8432901,"Manuel María Izaga 154, Chiclayo 14001, Perú"
8154,CLINICA EL NAZARENO,PRIVADO,50101,AYACUCHO,HUAMANGA,AYACUCHO,-13.1552562,-74.2231839,"Jirón Quinua 432, Ayacucho 05001, Perú"
8258,REJUVENECIMIENTO Y ESTETICA CABANI SRL,PRIVADO,150130,LIMA METROPOLITANA,LIMA,SAN BORJA,-12.0959441,-77.0107252,"Av. Guardia Civil 627, San Borja 15036, Perú"
8265,HOSPITAL NACIONAL ALBERTO SABOGAL SOLOGUREN DE LA RED ASISTENCIAL SABOGAL,ESSALUD,70102,CALLAO,CALLAO,BELLAVISTA,-12.0641779,-77.1224358,"Jirón Colina 1081, Bellavista 07011, Perú"
8266,HOSPITAL NAVAL,SANIDAD DE LA MARINA DE GUERRA DEL PERU,70102,CALLAO,CALLAO,BELLAVISTA,-12.0598877,-77.0906703,"Avenida S/N, Av. República de Venezuela, Bellavista, Perú"
8269,SERVICIOS MEDICOS LIONEL FLORES E HIJOS SAC - CLINICA SAN MARTIN,PRIVADO,220901,SAN MARTIN,SAN MARTIN,TARAPOTO,-6.4865084,-76.3615468,"Jirón San Martín 274, Tarapoto 22202, Perú"
8271,CLINICA SAN JUAN BAUTISTA,PRIVADO,150132,LIMA METROPOLITANA,LIMA,SAN JUAN DE LURIGANCHO,-12.0040406,-77.0066878,"Av. Proceres de la Independencia 1764, San Juan de Lurigancho 15431, Perú"
8281,CLUB DE LA SALUD,PRIVADO,150101,LIMA METROPOLITANA,LIMA,LIMA,-12.0280608,-77.0483696,"Manuel Pineda 170 Manuel Pineda 168 San Martin de Porres Municipalidad Metropolitana de Lima LIMA, 31, Perú"
8317,HOSPITAL AURELIO DIAZ UFANO Y PERAL,ESSALUD,150132,LIMA METROPOLITANA,LIMA,SAN JUAN DE LURIGANCHO,-11.9684779,-76.9955667,"Rio Majes S/N, San Juan de Lurigancho 15423, Perú"
8318,ESSALUD - HOSPITAL I JORGE VOTO BERNALES CORPANCHO,ESSALUD,150137,LIMA METROPOLITANA,LIMA,SANTA ANITA,-12.0471633,-76.9475763,"Carr. Central, Santa Anita 15011, Perú"
8325,CLINICA CENTENARIO PERUANO JAPONESA,PRIVADO,150121,LIMA METROPOLITANA,LIMA,PUEBLO LIBRE,-12.0731243,-77.059128,"Av Paso de Los Andes 675, Pueblo Libre 15084, Perú"
8351,CLINICAS SAN BERNARDO S.A.,PRIVADO,150121,LIMA METROPOLITANA,LIMA,PUEBLO LIBRE,-12.0850393,-77.0628422,"Jirón San Josė, Pueblo Libre 15084, Perú"
8353,ESSALUD - HOSPITAL II VITARTE,ESSALUD,150103,LIMA METROPOLITANA,LIMA,ATE,-12.0269983,-76.9237255,"Sta Maria, Ate 15498, Perú"
8370,POLICLINICO CHOSICA - ESSALUD,ESSALUD,150118,LIMA METROPOLITANA,LIMA,LURIGANCHO,-11.9391191,-76.6995624,"Jr. Trujillo Sur 800, Lurigancho-Chosica 15468, Perú"
8388,TG LASER OFTALMICA S.A.,PRIVADO,150131,LIMA METROPOLITANA,LIMA,SAN ISIDRO,-12.0910822,-77.0385895,"Av. dos de Mayo 666, Lima 15073, Perú"
8398,CLINICA EL GOLF,PRIVADO,150131,LIMA METROPOLITANA,LIMA,SAN ISIDRO,-12.0989153,-77.0513889,"Av. Aurelio Miró Quesada 1030, San Isidro 15073, Perú"
8489,ESSALUD - HOSPITAL III SUÁREZ ANGAMOS,ESSALUD,150122,LIMA METROPOLITANA,LIMA,MIRAFLORES,-12.1135193,-77.0280738,"Av. Angamos 261, Miraflores 15046, Perú"
8502,HOSPITAL III EMERGENCIAS GRAU,ESSALUD,150101,LIMA METROPOLITANA,LIMA,LIMA,-12.0590478,-77.0311871,"Av. Miguel Grau Cdra 3, Cercado de Lima 15001, Perú"
8514,CENTRO DE SALUD CON INTERNAMIENTO PACASMAYO,ESSALUD,130704,LA LIBERTAD,PACASMAYO,PACASMAYO,-7.4015163,-79.5680087,"Silva Santisteban 183, Pacasmayo 13811, Perú"
8516,CLINICA SANTO DOMINGO,PRIVADO,120101,JUNIN,HUANCAYO,HUANCAYO,-12.0607706,-75.2045018,"Francisco Solano, Huancayo 12001, Perú"
8519,CLINICA UNIVERSITARIA,PRIVADO,150110,LIMA METROPOLITANA,LIMA,COMAS,-11.951404,-77.059539,"Jose M Pagador 137, Lima 15311, Perú"
8564,HOSPITAL I OCTAVIO MONGRUT MUÑOZ,ESSALUD,150136,LIMA METROPOLITANA,LIMA,SAN MIGUEL,-12.0656438,-77.0943581,"Av Parque de las Leyendas 255, Cercado de Lima 15088, Perú"
8577,HOSPITAL NACIONAL ALMANZOR AGUINAGA ASENJO,ESSALUD,140101,LAMBAYEQUE,CHICLAYO,CHICLAYO,-6.773264,-79.8307247,"Av. Jorge Chavez, Chiclayo 14001, Perú"
8652,HOSPITAL NACIONAL RAMIRO PRIALE PRIALE,ESSALUD,120114,JUNIN,HUANCAYO,EL TAMBO,-12.052923,-75.228693,"Independencia 266, Huancayo 12006, Perú"
8653,HOSPITAL II ALBERTO HURTADO ABADIA - LA OROYA,ESSALUD,120808,JUNIN,YAULI,SANTA ROSA DE SACCO,-11.5432031,-75.929502,"12576, Perú"
8654,HOSPITAL I TARMA,ESSALUD,120701,JUNIN,TARMA,TARMA,-11.4025582,-75.6849146,"Av Manuel A. Odria, Tarma, Perú"
8656,HOSPITAL  SELVA CENTRAL Y ENFERMEDADES TROPICALES LA MERCED,ESSALUD,120301,JUNIN,CHANCHAMAYO,CHANCHAMAYO,-11.0586961,-75.3377561,"La Merced 12856, Perú"
8658,HOSPITAL I RIO NEGRO - SATIPO,ESSALUD,120607,JUNIN,SATIPO,RIO NEGRO,-11.2073552,-74.6583721,"Rio Negro 12876, Perú"
8671,HOSPITAL I MARINO MOLINA SCIPPA,ESSALUD,150110,LIMA METROPOLITANA,LIMA,COMAS,-11.9436138,-77.0576395,"Av Guillermo de la Fuente 515-545, Comas 15312, Perú"
8685,HOSPITAL I ALBRECHT,ESSALUD,130101,LA LIBERTAD,TRUJILLO,TRUJILLO,-8.1111014,-79.0349608,"Alcides Carrión, Trujillo 13011, Perú"
8720,HOSPITAL NACIONAL EDGARDO REBAGLIATI MARTINS,ESSALUD,150113,LIMA METROPOLITANA,LIMA,JESUS MARIA,-12.0780012,-77.0402132,"Av Edgardo Rebagliati 490, Jesús María 15072, Perú"
8730,BM CLINICA,PRIVADO,140101,LAMBAYEQUE,CHICLAYO,CHICLAYO,-6.7804543,-79.8427333,"Av. Sta. Victoria 416, Chiclayo 14008, Perú"
8741,ULDARICO ROCCA FERNANDEZ,ESSALUD,150142,LIMA METROPOLITANA,LIMA,VILLA EL SALVADOR,-12.2111556,-76.9320765,"Av. César Vallejo 825, Lima 15834, Perú"
8746,CLINICA GOOD HOPE,PRIVADO,150122,LIMA METROPOLITANA,LIMA,MIRAFLORES,-12.1254255,-77.0343473,"Malecón Balta 956, Miraflores 15039, Perú"
8750,CLINICA DEL PACIFICO S.A,PRIVADO,140101,LAMBAYEQUE,CHICLAYO,CHICLAYO,-6.7747523,-79.8458138,"Av José Leonardo Ortiz 420, Chiclayo 14009, Perú"
8786,CLINICA SAN JUAN DE DIOS,PRIVADO,150134,LIMA METROPOLITANA,LIMA,SAN LUIS,-12.0655032,-76.9896222,"Av Nicolás Arriola 3250, San Luis 15019, Perú"
8858,CLINICA ORTEGA,PRIVADO,120101,JUNIN,HUANCAYO,HUANCAYO,-12.070783,-75.216397,"Av. Daniel Alcides Carrion 1124, Huancayo 12001, Perú"
8901,"ESSALUD HOSPITAL 1 ""AGUSTIN ARBULU NEYRA"" FERREÑAFE",ESSALUD,140206,LAMBAYEQUE,FERREÑAFE,PUEBLO NUEVO,-6.6393958,-79.7932957,"Av Tacna 595, Ferreñafe 14311, Perú"
8956,CLINICA DEL INCA,PRIVADO,150122,LIMA METROPOLITANA,LIMA,MIRAFLORES,-12.1302732,-77.0193227,"Av 28 de Julio 1327, Miraflores 15047, Perú"
9037,HOSPITAL II CHOCOPE,ESSALUD,130203,LA LIBERTAD,ASCOPE,CHOCOPE,-7.7926751,-79.2216764,"Au. Panamericana Nte., Chocope 13711, Perú"
9038,CENTRO DE SALUD CON INTERNAMIENTO MOCHE,ESSALUD,130107,LA LIBERTAD,TRUJILLO,MOCHE,-8.1711046,-79.0089079,"Moche, Perú"
9040,HOSPITAL I - LA ESPERANZA,ESSALUD,130105,LA LIBERTAD,TRUJILLO,LA ESPERANZA,-8.0750561,-79.0539742,"Pasaje Bardales, Trujillo 13012, Perú"
9041,CENTRO DE SALUD CON INTERNAMIENTO EL PORVENIR,ESSALUD,130102,LA LIBERTAD,TRUJILLO,EL PORVENIR,-8.0863394,-79.0085737,"Manuel Ubalde 679, El Porvenir 13006, Perú"
9042,VICTOR LAZARTE ECHEGARAY,ESSALUD,130101,LA LIBERTAD,TRUJILLO,TRUJILLO,-8.0996179,-79.0120577,"Prol Union 1375, Trujillo 13006, Perú"
9047,HOSPITAL III CHIMBOTE,ESSALUD,21801,ANCASH,SANTA,CHIMBOTE,-9.0611812,-78.5884403,"Av. Circunvalación Del Norte 119, Urb, Laderas del Nte., Chimbote, Perú"
9053,HOSPITAL II HUARAZ,ESSALUD,20105,ANCASH,HUARAZ,INDEPENDENCIA,-9.4933311,-77.5381306,"Av. Independencia No. 2166, Huaraz 02002, Perú"
9066,HOSPITAL HIGOS URCO,ESSALUD,10101,AMAZONAS,CHACHAPOYAS,CHACHAPOYAS,-6.2300319,-77.8730795,"Jiron Amazonas, Chachapoyas 01001, Perú"
9067,HOSPITAL EL BUEN SAMARITANO,ESSALUD,10701,AMAZONAS,UTCUBAMBA,BAGUA GRANDE,-5.7515038,-78.446255,"Angamos 990, Bagua Grande 01621, Perú"
9068,HOSPITAL I HEROES DEL CENEPA,ESSALUD,10201,AMAZONAS,BAGUA,BAGUA,-5.6328985,-78.5336969,"Bagua 01721, Perú"
9089,ONCOGYN CLINICA INTEGRAL,PRIVADO,150113,LIMA METROPOLITANA,LIMA,JESUS MARIA,-11.9915773,-77.0723097,"Av. Carlos Izaguirre 917, Los Olivos 15301, Perú"
9090,"CLINICA "" LIMATAMBO""",PRIVADO,150132,LIMA METROPOLITANA,LIMA,SAN JUAN DE LURIGANCHO,-12.1005972,-77.0194198,"Av. República de Panamá 3606, San Isidro 15047, Perú"
9104,CLINICA SAN MIGUEL ARCANGEL S.A.C.,PRIVADO,150132,LIMA METROPOLITANA,LIMA,SAN JUAN DE LURIGANCHO,-11.9704042,-77.0016228,"Jr. Las Gardenias 754 - 760 Urb, SJL, Jazmines, Cercado de Lima 15087, Perú"
9116,CLINICA SAN FELIPE S.A.,PRIVADO,150113,LIMA METROPOLITANA,LIMA,JESUS MARIA,-12.0859785,-77.0544583,"Av. Gregorio Escobedo 650, Jesús María 15072, Perú"
9123,CLINICA ANGLOAMERICANA,PRIVADO,150131,LIMA METROPOLITANA,LIMA,SAN ISIDRO,-12.109555,-77.039261,"Calle Alfredo Salazar 350, San Isidro 15073, Perú"
9132,HOSPITAL II HUANCAVELICA,ESSALUD,90118,HUANCAVELICA,HUANCAVELICA,ASCENSION,-12.7832573,-74.9890025,"Huancavelica 09001, Perú"
9141,CENTRO DE SALUD CON INTERNAMIENTO CASA GRANDE,ESSALUD,130208,LA LIBERTAD,ASCOPE,CASA GRANDE,-7.744042,-79.1947009,"Casa Grande 13761, Perú"
9145,CLINICA MONTE SINAI,PRIVADO,150116,LIMA METROPOLITANA,LIMA,LINCE,-12.0831036,-77.0405138,"Jr. León Velarde 572, Cercado de Lima 15073, Perú"
9153,CLINICA MONTEFIORI,PRIVADO,150114,LIMA METROPOLITANA,LIMA,LA MOLINA,-12.0654591,-76.9659877,"Av. Separadora Industrial 1820 Urb, La Molina 15023, Perú"
9180,HOSPITAL I TINGO MARIA,ESSALUD,100601,HUANUCO,LEONCIO PRADO,RUPA-RUPA,-9.2971053,-75.9995756,"Leoncio Prado, Perú"
9188,HOSPITAL II RAMON CASTILLA,ESSALUD,150101,LIMA METROPOLITANA,LIMA,LIMA,-12.0446089,-77.0439943,"Jr. Guillermo Dansey 390, Cercado de Lima 15082, Perú"
9215,HOSPITAL III BASE  (PUNO) - RED ASISTENCIAL PUNO,ESSALUD,210101,PUNO,PUNO,PUNO,-15.8741257,-70.0003341,"Puno 21002, Perú"
9234,CLINICA LOS FRESNOS,PRIVADO,60101,CAJAMARCA,CAJAMARCA,CAJAMARCA,-7.1480636,-78.5149248,"Los Nogales, Cajamarca 06001, Perú"
9250,CLINICA BELLAVISTA,PRIVADO,70102,CALLAO,CALLAO,BELLAVISTA,-12.0577717,-77.0966759,"Jirón las Gaviotas 207, Bellavista 07006, Perú"
9251,HOSPITAL NACIONAL GUILLERMO ALMENARA IRIGOYEN,ESSALUD,150115,LIMA METROPOLITANA,LIMA,LA VICTORIA,-12.0596143,-77.0223918,"Jirón García Naranjo 840, La Victoria 13, Perú"
9278,FLORENCIA DE MORA,ESSALUD,130103,LA LIBERTAD,TRUJILLO,FLORENCIA DE MORA,-8.0809149,-79.0221257,"Florencia de Mora, Perú"
9319,HOSPITAL I VICTOR ALFREDO LAZO PERALTA,ESSALUD,170101,MADRE DE DIOS,TAMBOPATA,TAMBOPATA,-12.581603,-69.197729,"Interoceanica Sur 351, Puerto Maldonado 17001"
9409,CLINICA RICARDO PALMA,PRIVADO,150131,LIMA METROPOLITANA,LIMA,SAN ISIDRO,-12.0907032,-77.0182866,"Av. Javier Prado Este 1066, San Isidro 15036, Perú"
9431,CLÍNICA SANTA CATALINA,PRIVADO,150115,LIMA METROPOLITANA,LIMA,LA VICTORIA,-12.0826516,-77.0232718,"José Bazzochi 339, Cercado de Lima 15034, Perú"
9437,CLINICA LIMATAMBO,PRIVADO,150131,LIMA METROPOLITANA,LIMA,SAN ISIDRO,-12.1005972,-77.0194198,"Av. República de Panamá 3606, San Isidro 15047, Perú"
9483,OCULASER SAC,PRIVADO,150101,LIMA METROPOLITANA,LIMA,LIMA,-12.0765203,-77.0366464,"Av. Arenales 1181, Cercado de Lima 15046, Perú"
9505,OFTALMOSALUD,PRIVADO,150131,LIMA METROPOLITANA,LIMA,SAN ISIDRO,-11.9913852,-77.0772068,"Av. Carlos Izaguirre 1250, Los Olivos 15301, Perú"
9591,CLINICA LIMATAMBO CAJAMARCA S.A.C.,PRIVADO,60101,CAJAMARCA,CAJAMARCA,CAJAMARCA,-7.151547,-78.523579,"Jirón Puno 265, Cajamarca 06001, Perú"
9599,CLINICA SAN FRANCISCO DE ASIS S.A. (CLINICA SAN FRANCISCO DE ASIS),PRIVADO,60101,CAJAMARCA,CAJAMARCA,CAJAMARCA,-7.1579599,-78.5098186,"Miguel Grau 846, Cajamarca 06002, Perú"
9600,HOSPITAL II PUCALLPA- ESSALUD,ESSALUD,250101,UCAYALI,CORONEL PORTILLO,CALLERIA,-8.3905682,-74.5463562,"Pucallpa 25001, Perú"
9606,VIRGEN DEL ROSARIO SA,PRIVADO,110101,ICA,ICA,ICA,-14.0617987,-75.7293587,"Calle Callao 263, Ica 11002, Perú"
9627,SAN MARTIN,PRIVADO,110101,ICA,ICA,ICA,-14.0380735,-75.7361298,"Tepro Alto San Martin, Ica, Perú"
9641,CLINICA MUNDO SALUD SAC,PRIVADO,150117,LIMA METROPOLITANA,LIMA,LOS OLIVOS,-11.9912713,-77.0770184,"Av. Carlos Izaguirre 1234, Los Olivos 15301, Perú"
9648,CLINICA TATAJE,PRIVADO,110101,ICA,ICA,ICA,-14.0733781,-75.7245646,"Av Conde de Nieva 355, Ica 11001, Perú"
9660,SEÑOR DE LUREN DE ICA,PRIVADO,110101,ICA,ICA,ICA,-14.0408489,-75.7515835,"Senor De Luren, Ica 11004, Perú"
9682,CLÍNICA INTERNACIONAL,PRIVADO,150130,LIMA METROPOLITANA,LIMA,SAN BORJA,-12.0584844,-77.038382,"Av. Inca Garcilaso de la Vega 1420, Cercado de Lima 15001, Perú"
9683,CLINICA PROSALUD,PRIVADO,210101,PUNO,PUNO,PUNO,-15.841336,-70.025513,"Puno 21001, Perú"
9685,CLINICA PUNO,PRIVADO,210101,PUNO,PUNO,PUNO,-15.8414351,-70.022346,"Ramon Castilla 180, Puno 21002, Perú"
9747,HOSPITAL II PASCO,ESSALUD,190109,PASCO,PASCO,SIMON BOLIVAR,-10.6861364,-76.2651975,"Cerro De Pasco 19001, Perú"
9748,HOSPITAL I OXAPAMPA,ESSALUD,190301,PASCO,OXAPAMPA,OXAPAMPA,-10.5764218,-75.4031286,"Jr. Enrique Bottger, Oxapampa 19230, Perú"
9749,HOSPITAL II - E HUARIACA,ESSALUD,190103,PASCO,PASCO,HUARIACA,-10.4487344,-76.182387,"Unnamed Road, Huariaca 19120, Perú"
9850,CLÍNICA VESALIO,PRIVADO,150130,LIMA METROPOLITANA,LIMA,SAN BORJA,-12.1062962,-77.0074253,"Calle Jr.Joseph Thompson 140, San Borja 15036, Perú"
9886,CLINICA SAN BORJA,PRIVADO,150130,LIMA METROPOLITANA,LIMA,SAN BORJA,-12.0920538,-77.0083154,"Av. Guardia Civil 337, San Borja 15036, Perú"
9899,HOSPITAL BASE III JULIACA - ESSALUD - RED ASISTENCIAL JULIACA,ESSALUD,211101,PUNO,SAN ROMAN,JULIACA,-15.4935373,-70.1638135,"Juliaca 21101, Perú"
9900,HOSPITAL I LAMPA - ESSALUD - RED ASISTENCIAL JULIACA,ESSALUD,210701,PUNO,LAMPA,LAMPA,-15.3638308,-70.3686017,"Jr Alfonso Ugarte, Lampa 21801, Perú"
9917,CLINICA CARRION,PRIVADO,70106,CALLAO,CALLAO,VENTANILLA,-11.8733535,-77.1257461,"Av. Pedro Beltrán Nro.175 Urb, Ventanilla, Perú"
9954,HOSPITAL I CHEPEN ESSALUD,ESSALUD,130401,LA LIBERTAD,CHEPEN,CHEPEN,-7.2221534,-79.4354616,"28 De Julio, Chepén 13871, Perú"
9982,CLINICA REPROMEDIC,PRIVADO,150113,LIMA METROPOLITANA,LIMA,JESUS MARIA,-12.0713284,-77.0391301,"LIMA, Av Maximo Abril 585, Jesús María, Perú"
9988,CLINICA SAN PABLO,PRIVADO,150140,LIMA METROPOLITANA,LIMA,SANTIAGO DE SURCO,-12.1001866,-76.9714626,"El Polo 789, Santiago de Surco 15023, Perú"
9989,CLINICA PADRE LUIS TEZZA,PRIVADO,150140,LIMA METROPOLITANA,LIMA,SANTIAGO DE SURCO,-12.1032942,-76.9718807,"El Polo 570, Santiago de Surco 15023, Perú"
10014,DR. VICTOR PAREDES,PRIVADO,80101,CUSCO,CUSCO,CUSCO,-13.5229472,-71.9784066,"Lechugal 198, Cusco 08002, Perú"
10023,CORNEJO,PRIVADO,80108,CUSCO,CUSCO,WANCHAQ,-13.5285854,-71.9398491,"Av. Cusco Nº 211, Cusco 08004, Perú"
10041,ADOLFO GUEVARA VELASCO,ESSALUD,80108,CUSCO,CUSCO,WANCHAQ,-13.5254125,-71.9597694,"direccion exacta, Cusco, Perú"
10060,CAS URUBAMBA -ESSALUD,ESSALUD,81301,CUSCO,URUBAMBA,URUBAMBA,-13.3071742,-72.1100229,"s/n, Calle Union, Huarocondo, Perú"
10061,ESPINAR - ESSALUD,ESSALUD,80801,CUSCO,ESPINAR,ESPINAR,-14.792369,-71.4128571,"Espinar 08301, Perú"
10062,QUILLABAMBA - ESSALUD,ESSALUD,80901,CUSCO,LA CONVENCION,SANTA ANA,-12.8576901,-72.6972909,"Quillabamba 08741, Perú"
10063,ESSALUD SICUANI,ESSALUD,80601,CUSCO,CANCHIS,SICUANI,-14.2786,-71.2252879,"Av SOL, Sicuani 08254, Perú"
10098,HOSPITAL MILITAR GERIATRICO,SANIDAD DEL EJERCITO DEL PERU,150108,LIMA METROPOLITANA,LIMA,CHORRILLOS,-12.1622141,-77.0197492,"Av. Escuela Militar 610, Chorrillos 15064, Perú"
10135,HOSPITAL I CARLOS ALCANTARA BUTTERFIELD,ESSALUD,150114,LIMA METROPOLITANA,LIMA,LA MOLINA,-12.062131,-76.9455439,"Av. Los Constructores 1201, La Molina 15012, Perú"
10136,HOSPITAL II CLINICA JAEN,ESSALUD,60801,CAJAMARCA,JAEN,JAEN,-5.7054452,-78.8046721,"Av Pakamuros S/N, Jaén 06801, Perú"
10182,CLINICA JESUS DEL NORTE,PRIVADO,150112,LIMA METROPOLITANA,LIMA,INDEPENDENCIA,-11.9897967,-77.0587731,"Av. Carlos Izaguirre 159, Independencia 15311, Perú"
10185,HOSPITAL III DANIEL ALCIDES CARRIÓN,ESSALUD,230103,TACNA,TACNA,CALANA,-17.9795332,-70.203839,"Tacna 23000, Perú"
10244,HOSPITAL II JORGE REATEGUI DELGADO,ESSALUD,200101,PIURA,PIURA,PIURA,-5.1935081,-80.6362377,"Av. Grau 1185, Piura 20001, Perú"
10250,CLINICA OFTALMOLOGICA DEL CENTRO DEL PERU,PRIVADO,120114,JUNIN,HUANCAYO,EL TAMBO,-12.0558141,-75.2164285,"Rosemberg 427, Huancayo 12004, Perú"
10251,CLUB DE LA SALUD,PRIVADO,150108,LIMA METROPOLITANA,LIMA,CHORRILLOS,-12.0280608,-77.0483696,"Manuel Pineda 170 Manuel Pineda 168 San Martin de Porres Municipalidad Metropolitana de Lima LIMA, 31, Perú"
10267,HOSPITAL I ESSALUD-SULLANA,ESSALUD,200601,PIURA,SULLANA,SULLANA,-4.8936443,-80.6881937,"Miguel Grau 960-994, Sullana 20101, Perú"
10272,HOSPITAL II CAJAMARCA,ESSALUD,60101,CAJAMARCA,CAJAMARCA,CAJAMARCA,-7.1596125,-78.5088441,"Avenida Mario Urteaga, Cajamarca 06002, Perú"
10299,CENTRO DE ATENCION PRIMARIA II SAN IGNACIO,ESSALUD,60901,CAJAMARCA,SAN IGNACIO,SAN IGNACIO,-5.1504205,-78.9959012,"Unnamed Road, San Ignacio, Perú"
10333,CENTRO DE ATENCION PRIMARIA III HUARAL,ESSALUD,150601,LIMA REGION,HUARAL,HUARAL,-11.4957343,-77.200005,"Huaral 15201, Perú"
10434,ESSALUD - CLINICA GERIATRICA SAN ISIDRO LABRADOR,ESSALUD,150137,LIMA METROPOLITANA,LIMA,SANTA ANITA,-12.0475664,-76.9474703,"Av. Nicolás Ayllón 3900, Ate 15012, Perú"
10467,CLINICA FLEMING,PRIVADO,150130,LIMA METROPOLITANA,LIMA,SAN BORJA,-12.1017164,-77.0068144,"Jr. Alexander Fleming 103, San Borja 15036, Perú"
10475,CENTRO MEDICO ESPECIALIZADO CLINICA DE LA MUJER Y EL NIÑO EIRL (CLINICA DE LA MUJER Y EL NIÑO),PRIVADO,21809,ANCASH,SANTA,NUEVO CHIMBOTE,-9.1202923,-78.5081204,"Av la 16 H-41, Chimbote 02712, Perú"
10515,CLINICA SANTA LUCIA S.A.C.,PRIVADO,150130,LIMA METROPOLITANA,LIMA,SAN BORJA,-12.0914623,-77.0083129,"Av. Guardia Civil 301, San Borja 15036, Perú"
10533,"HOSPITAL II LIMA NORTE CALLAO ""LUIS NEGREIROS VEGA"" ESSALUD",ESSALUD,70101,CALLAO,CALLAO,CALLAO,-12.0156194,-77.0980445,"Av. Tomas Valle 3535, Callao 07036, Perú"
10536,HOSPITAL II CAÑETE,ESSALUD,150501,LIMA REGION,CAÑETE,SAN VICENTE DE CAÑETE,-13.0754862,-76.3800967,"Av. Mariscal Benavides 495, San Vicente de Cañete 15701, Perú"
10559,CLINICA DANIEL A. CARRION S.A.C.,PRIVADO,110201,ICA,CHINCHA,CHINCHA ALTA,-13.423832,-76.1346453,"Av Idelfonso 226, 11702, Perú"
10570,CENTRO MEDICO CASAPALCA,ESSALUD,150705,LIMA REGION,HUAROCHIRI,CHICLA,-11.6486161,-76.2350748,"Carr. Central 15, Casapalca 15565, Perú"
10571,HOSPITAL II HUANUCO,ESSALUD,100102,HUANUCO,HUANUCO,AMARILIS,-9.9372551,-76.2394027,"18A, Huánuco 10002, Perú"
10581,SANNA/SANCHEZ FERRER S.A.,PRIVADO,130111,LA LIBERTAD,TRUJILLO,VICTOR LARCO HERRERA,-8.130031,-79.0394796,"Av, Los Laureles 436, Trujillo 13009, Perú"
10603,CLÍNICA MÉDICA CAYETANO HEREDIA,PRIVADO,150135,LIMA METROPOLITANA,LIMA,SAN MARTIN DE PORRES,-12.0235377,-77.0560922,"Av. Honorio Delgado 370, San Martín de Porres 15102, Perú"
10669,CLÍNICA PERUANA DE LA VISION,PRIVADO,150113,LIMA METROPOLITANA,LIMA,JESUS MARIA,-12.076428,-77.0425661,"Jr. Mayta Cápac 1398 Jesús María LIMA, 11, Perú"
10723,HOSPITAL PRIVADO DEL PERU,PRIVADO,200105,PIURA,PIURA,CATACAOS,-5.2454611,-80.6529809,"Piura 20000, Perú"
10743,CLINICA STELLA MARIS,PRIVADO,150121,LIMA METROPOLITANA,LIMA,PUEBLO LIBRE,-12.0712163,-77.0587365,"Av Paso de Los Andes 923, Pueblo Libre 15084, Perú"
10751,HOSPITAL CENTRAL DE LA FUERZA AEREA DEL PERU,SANIDAD DE LA FUERZA AEREA DEL PERU,150122,LIMA METROPOLITANA,LIMA,MIRAFLORES,-12.1038003,-77.0299359,"Av. Andrés Aramburú Cuadra 2, Miraflores 15046, Perú"
10777,CLINICA VIRGEN DEL PILAR SCRL,PRIVADO,200601,PIURA,SULLANA,SULLANA,-4.8912254,-80.6887035,"Calle Bolivar 285, Sullana 20101, Perú"
10815,CLINICA AMERICANA DE JULIACA,PRIVADO,211101,PUNO,SAN ROMAN,JULIACA,-15.4976973,-70.1324463,"Jr. Loreto 315. Urb. La, Rinconada, Juliaca, Perú"
10827,HOGAR DE LA MADRE CLINICA-HOSPITAL,OTRO,150122,LIMA METROPOLITANA,LIMA,MIRAFLORES,-12.1043659,-77.0296195,"Gervasio Santillana 260, Miraflores 15046, Perú"
10883,CLINICA SAN PEDRO,PRIVADO,150801,LIMA REGION,HUAURA,HUACHO,-11.1116482,-77.6098438,"Echenique 641, Huacho 15135, Perú"
10987,INSTITUTO MEDICO ESPECIALIZADO UROGINEC EIRL (UROGINEC E.I.R.L.),PRIVADO,21801,ANCASH,SANTA,CHIMBOTE,-9.0758966,-78.596911,"Jirón Saenz Peña 173, Chimbote 02803, Perú"
11009,HOSPITAL I SAMUEL PASTOR DE CAMANA ESSALUD,ESSALUD,40208,AREQUIPA,CAMANA,SAMUEL PASTOR,-16.6100458,-72.6974287,"Camaná 04445, Perú"
11020,HOSPITAL II LUIS HEYSEN INCHAUSTEGUI,ESSALUD,140112,LAMBAYEQUE,CHICLAYO,PIMENTEL,-6.7876673,-79.8799082,"Chiclayo 14012, Perú"
11087,CLINICA LA LUZ S.A.C.,PRIVADO,150101,LIMA METROPOLITANA,LIMA,LIMA,-12.0762696,-77.035929,"Av. Arequipa 1148, Cercado de Lima 15046, Perú"
11110,CLINICA CAMPBELL,PRIVADO,150140,LIMA METROPOLITANA,LIMA,SANTIAGO DE SURCO,-12.1276586,-76.987113,"Av. Alfredo Benavides 4813, Santiago de Surco 15039, Perú"
11113,CLINICA MONTERRICO,PRIVADO,150140,LIMA METROPOLITANA,LIMA,SANTIAGO DE SURCO,-12.102996,-76.9738542,"Avenida Manuel Olguín 1047, Santiago de Surco 15023, Perú"
11129,MAX SALUD AVISAL S.A.,PRIVADO,140101,LAMBAYEQUE,CHICLAYO,CHICLAYO,-6.7759186,-79.8372995,"Av. Francisco Bolognesi 774, Chiclayo 14001, Perú"
11163,PERUANO SUIZA,PRIVADO,80101,CUSCO,CUSCO,CUSCO,-13.5262499,-71.9454962,"Av. Perú k3, Urb. Quispicanchis, Cusco, Perú"
11213,SEGURO SOCIAL DE SALUD - ESSALUD,ESSALUD,30101,APURIMAC,ABANCAY,ABANCAY,-13.6345486,-72.8890253,"Av Paseo de los Artesanos 610, Abancay 03001, Perú"
11214,HOSPITAL I SANTA MARGARITA,ESSALUD,30201,APURIMAC,ANDAHUAYLAS,ANDAHUAYLAS,-13.6574636,-73.4124383,"Andahuaylas 03701, Perú"
11241,CLINICA SAN VICENTE S.A.,PRIVADO,150135,LIMA METROPOLITANA,LIMA,SAN MARTIN DE PORRES,-12.0311648,-77.0815794,"Av. Perú 3220, San Martín de Porres 15106, Perú"
11337,HOSPITAL II GUSTAVO LANATTA LUJAN - ESSALUD,ESSALUD,150801,LIMA REGION,HUAURA,HUACHO,-11.1135243,-77.6088697,"Francisco Vidal 770, Huacho 15136, Perú"
11338,PARDO,PRIVADO,80108,CUSCO,CUSCO,WANCHAQ,-13.5254006,-71.9736521,"Regional 998, Cusco 08002, Perú"
11339,SAN JOSE,PRIVADO,80108,CUSCO,CUSCO,WANCHAQ,-13.5257238,-71.9841799,"San Jose, Cusco 08001, Perú"
11346,IPOR CLINICA ESPECIALIZADA ONCOLOGIA & CIRUGIA,PRIVADO,150130,LIMA METROPOLITANA,LIMA,SAN BORJA,-12.1056534,-77.0074385,"Jr.Eduardo Ordoñez 215, San Borja 15036, Perú"
11396,ADMINISTRADORA CLINICA TRESA,PRIVADO,200701,PIURA,TALARA,PARIÑAS,-4.4661409,-81.0312989,"Pariñas, Perú"
11401,CLINICA SAN JUDAS TADEO,PRIVADO,150136,LIMA METROPOLITANA,LIMA,SAN MIGUEL,-12.0798541,-77.0799336,"Manuel Raygada 170, San Miguel 15086, Perú"
11409,HOSPITAL III IQUITOS,ESSALUD,160108,LORETO,MAYNAS,PUNCHANA,-3.7312485,-73.2471307,"Calle Trujillo 611, Iquitos 16003"
11448,HOSPITAL REGIONAL DEL SUR,SANIDAD DE LA FUERZA AEREA DEL PERU,40104,AREQUIPA,AREQUIPA,CERRO COLORADO,-16.4143011,-71.530239,"INREN, Arequipa 04002, Perú"
11470,HOSPITAL REGIONAL LAMBAYEQUE,GOBIERNO REGIONAL,140101,LAMBAYEQUE,CHICLAYO,CHICLAYO,-6.7620558,-79.8629334,"Hospital Regional, Chiclayo, Perú"
11547,CLINICA CONTINENTAL,PRIVADO,150130,LIMA METROPOLITANA,LIMA,SAN BORJA,-12.1013728,-77.0036508,"Av San Borja Sur 526, San Borja 15036, Perú"
11556,CENTRO DE ATENCION PRIMARIA II CABALLOCOCHA,ESSALUD,160401,LORETO,MARISCAL RAMON CASTILLA,RAMON CASTILLA,-3.910878,-70.512454,Caballococha 16241
11592,CLINICA HUANUCO E-I-R-LTDA.,PRIVADO,100101,HUANUCO,HUANUCO,HUANUCO,-9.9292225,-76.2352252,"Jirón Constitución 980, Huánuco 10001, Perú"
11702,"CENTRO DE SALUD ""VICTOR SOLES GARCIA""",ESSALUD,131201,LA LIBERTAD,VIRU,VIRU,-8.4231047,-78.7521816,"San Luis 13621, Perú"
11750,CLINICA LOS ANDES SAC,PRIVADO,150122,LIMA METROPOLITANA,LIMA,MIRAFLORES,-12.1048217,-77.0321021,"Asuncion 177, Miraflores 15074, Perú"
11763,HOSPITAL I MIGUEL CRUZADO VERA - PAITA,ESSALUD,200501,PIURA,PAITA,PAITA,-5.088025,-81.1004129,"Miguel Grau 2648, Paita 20701, Perú"
11775,HOSPITAL II DE HUAMANGA,ESSALUD,50110,AYACUCHO,HUAMANGA,SAN JUAN BAUTISTA,-13.1752959,-74.2011016,"Jr. Pacífico, Ayacucho 05002, Perú"
11794,HOSPITAL REGIONAL PNP AREQUIPA,SANIDAD DE LA POLICIA NACIONAL DEL PERU,40103,AREQUIPA,AREQUIPA,CAYMA,-16.4028694,-71.5349738,"487, Calle Piérola 407, Arequipa, Perú"
11803,CLINICA VIRGEN DEL ROSARIO SRL,PRIVADO,150120,LIMA METROPOLITANA,LIMA,MAGDALENA DEL MAR,-12.0878416,-77.0723583,"Jirón Castilla 976, Magdalena del Mar 15086, Perú"
11849,CLINICA MIRAFLORES SAC,PRIVADO,150122,LIMA METROPOLITANA,LIMA,MIRAFLORES,-12.1272302,-77.0133334,"Calle José Antonio Encinas 141, Miraflores 15801, Perú"
11950,CLINICA CHORRILLOS,PRIVADO,150108,LIMA METROPOLITANA,LIMA,CHORRILLOS,-12.1746022,-77.0185352,"Av. Defensores del Morro 1201, Lima 15064, Perú"
11978,CLINICA MONTE SINAI JULIACA E.I.R.L.,PRIVADO,211101,PUNO,SAN ROMAN,JULIACA,-15.4977693,-70.1329663,"Loreto 343, Juliaca 21104, Perú"
11995,CLINICA ALMONTE SAC,PRIVADO,40101,AREQUIPA,AREQUIPA,AREQUIPA,-16.3896937,-71.5291338,"CL, Manuel Ugarteche 311, Alto Selva Alegre 04001, Perú"
12106,CLINICA MEDICA PRIMAVERA,PRIVADO,150117,LIMA METROPOLITANA,LIMA,LOS OLIVOS,-12.0086397,-77.0757266,"Calle Los Jazmines MZ B LT 19 Urb. Primavera, Jazmines, Los Olivos 15302, Perú"
12118,CLÍNICA MONTE HOREB S.A.,PRIVADO,250101,UCAYALI,CORONEL PORTILLO,CALLERIA,-8.3793805,-74.5311316,"Jr Inmaculada, Pucallpa 529, Perú"
12161,MACSALUD,PRIVADO,80108,CUSCO,CUSCO,WANCHAQ,-13.5248125,-71.9553125,"F2GV+3V, 3S 1410, Cusco 08200, Perú"
12170,SERVICIOS MEDICOS CLINICA SANTA ANITA SRL,PRIVADO,160101,LORETO,MAYNAS,IQUITOS,-3.7568063,-73.2536742,"Francisco Bolognesi 1205-1243, Iquitos 16001, Perú"
12206,DETECTA CLINICA,PRIVADO,150141,LIMA METROPOLITANA,LIMA,SURQUILLO,-12.111682,-76.995668,"Av. Angamos 2688, Surquillo 15038, Perú"
12219,CLINICA MONTESUR,PRIVADO,150140,LIMA METROPOLITANA,LIMA,SANTIAGO DE SURCO,-12.1033943,-76.9727977,"Av, El Polo 505, Santiago de Surco 15023, Perú"
12220,CLINICA REAL LOS LAURELES SAC,PRIVADO,150108,LIMA METROPOLITANA,LIMA,CHORRILLOS,-12.1748714,-77.020313,"Armando Cambana 279, Chorrillos 15064, Perú"
12243,HOSPITAL II TALARA,ESSALUD,200701,PIURA,TALARA,PARIÑAS,-4.579101,-81.258329,"Prolongacion Av. B, Talara 20811"
12261,CLINICA INMACULADA,PRIVADO,200601,PIURA,SULLANA,SULLANA,-4.9010358,-80.6957502,"Jose de Lama 1011, Sullana 20102, Perú"
12262,CLÍNICA SANTA ROSA,PRIVADO,200601,PIURA,SULLANA,SULLANA,-4.900598,-80.697807,"Av. Panamericana N° 332 - Urb. Santa Rosa, Sullana, Perú"
12267,CLINICA SERVICIOS MEDICOS INTEGRALES SAN MARCOS,PRIVADO,150132,LIMA METROPOLITANA,LIMA,SAN JUAN DE LURIGANCHO,-12.0558371,-77.082258,"Av Jorge Basadre, Cercado de Lima 15081, Perú"
12272,CARLOS ALBERTO CORTEZ JIMENEZ,ESSALUD,240101,TUMBES,TUMBES,TUMBES,-3.5553061,-80.4429765,"Au. Panamericana Nte. 2722, Tumbes 24002, Perú"
12292,CLINICA  BELLMED,PRIVADO,130101,LA LIBERTAD,TRUJILLO,TRUJILLO,-8.0971674,-79.0304601,"Av Túpac Amaru 849, Trujillo 13007, Perú"
12301,CLINICA SAN ANTONIO,PRIVADO,130101,LA LIBERTAD,TRUJILLO,TRUJILLO,-8.1203251,-79.0353474,"Av. Larco 630, Trujillo 13008, Perú"
12457,CLINICA PROVIDA,PRIVADO,140101,LAMBAYEQUE,CHICLAYO,CHICLAYO,-6.7761971,-79.8409581,"Calle Juan Cuglievan 160, Chiclayo 14008, Perú"
12572,CLINICA PAULISTA DEL PERU S.A.C (CLINICA PAULISTA DEL PERU),PRIVADO,150140,LIMA METROPOLITANA,LIMA,SANTIAGO DE SURCO,-12.1237169,-76.9992829,"Av. Aviación 4786, Santiago de Surco 15038, Perú"
12633,CLINICA JAVIER PRADO,PRIVADO,150131,LIMA METROPOLITANA,LIMA,SAN ISIDRO,-12.0911891,-77.0284586,"Av. Javier Prado Este 499, San Isidro 15046, Perú"
12671,CLINICA SAN PABLO SEDE HUARAZ,PRIVADO,20105,ANCASH,HUARAZ,INDEPENDENCIA,-9.5179544,-77.5308795,"Jr, Huaylas Nº 172, Huaraz, Perú"
12692,OFTALMOLOGIA AVANZADA,PRIVADO,40126,AREQUIPA,AREQUIPA,YANAHUARA,-16.3845505,-71.5385677,"León Velarde 116, Arequipa 04017, Perú"
12761,CLINICA SAN LORENZO S.R.L.,PRIVADO,60101,CAJAMARCA,CAJAMARCA,CAJAMARCA,-7.1665387,-78.5055374,"Cajamarca 06003, Perú"
12765,SAN VICENTE,PRIVADO,110101,ICA,ICA,ICA,-14.0678942,-75.7399553,"1S, Ica 11004, Perú"
12854,CLINICA ADVENTISTA ANA STAHL,PRIVADO,160101,LORETO,MAYNAS,IQUITOS,-3.7385916,-73.2411683,"Av. La Marina 285, Iquitos 16003, Perú"
12907,SISTEMAS DE ADMINISTRACION HOSPITALARIA S.A.C. (SANNA - CLINICA DEL SUR),PRIVADO,40126,AREQUIPA,AREQUIPA,YANAHUARA,-16.390126,-71.5390071,"Av, Francisco Bolognesi 134, Yanahuara 04017, Perú"
12947,CLINICA SANTA MARIA,PRIVADO,150141,LIMA METROPOLITANA,LIMA,SURQUILLO,-12.1033834,-77.026192,"Calle Las Aguilas 360, Surquillo 15047, Perú"
12975,CL ESPECIALIDADES MEDICAS,PRIVADO,150130,LIMA METROPOLITANA,LIMA,SAN BORJA,-12.1060355,-77.0015663,"Jr.Eduardo Ordoñez 468, San Borja 15036, Perú"
12995,SAN JUAN PABLO II,OTRO,80106,CUSCO,CUSCO,SANTIAGO,-13.5402595,-71.9033788,"Juan Pablo II, Cusco 08006, Perú"
13042,CLÍNICA LOS COCOS,PRIVADO,200101,PIURA,PIURA,PIURA,-5.1928029,-80.6301743,"Av Sullana Nte 292, Piura 20001, Perú"
13044,MEGASALUD NARANJAL S.A.C. (CLINICA NARANJAL),PRIVADO,150117,LIMA METROPOLITANA,LIMA,LOS OLIVOS,-11.9758011,-77.0852195,"Av. Naranjal 1600, Los Olivos 15304, Perú"
13064,CLINICA CEDRON,PRIVADO,150140,LIMA METROPOLITANA,LIMA,SANTIAGO DE SURCO,-12.1046619,-76.9729184,"Av, El Polo 438 Lima, Santiago de Surco 15023, Perú"
13164,CLINICA SANTA MARIA DE CHIMBOTE S.A.C.,PRIVADO,21801,ANCASH,SANTA,CHIMBOTE,-9.0708339,-78.5909266,"Jr. Elías Aguirre #761, Chimbote 02803, Perú"
13165,CENTRO DE REPOSO SAN JUAN DE DIOS,PRIVADO,200104,PIURA,PIURA,CASTILLA,-5.1967579,-80.6205297,"Cayetano Heredia 210, Piura 20002, Perú"
13290,HOSPITAL NACIONAL III-1 CARLOS ALBERTO SEGUÍN ESCOBEDO,ESSALUD,40101,AREQUIPA,AREQUIPA,AREQUIPA,-16.394878,-71.5292788,"Esquina de Peral y Filtro S/N, Arequipa, Perú"
13291,HOSPITAL III YANAHUARA,ESSALUD,40126,AREQUIPA,AREQUIPA,YANAHUARA,-16.397038,-71.5444476,"Av. Garaycochea, Arequipa 04013, Perú"
13295,HOSPITAL II MANUEL DE TORRES MUÑOZ -  MOLLENDO,ESSALUD,40701,AREQUIPA,ISLAY,MOLLENDO,-17.0195675,-72.0151576,"Juan B. Arenas 100, Mollendo 04416, Perú"
13296,HOSPITAL I EDMUNDO ESCOMEL,ESSALUD,40112,AREQUIPA,AREQUIPA,PAUCARPATA,-16.4170798,-71.5087324,"Paucarpata 04007, Perú"
13373,CLINICA PERUANO AMERICANA S. A.,PRIVADO,130101,LA LIBERTAD,TRUJILLO,TRUJILLO,-8.1036718,-79.0368008,"Av Mansiche 810, Trujillo 13011, Perú"
13383,CLINICA SANTA ISABEL,PRIVADO,150130,LIMA METROPOLITANA,LIMA,SAN BORJA,-12.089417,-77.0071006,"Av. Guardia Civil 135, San Borja 41, Perú"
13386,LAS CONDES SAC,PRIVADO,110101,ICA,ICA,ICA,-14.0798968,-75.7232424,"Av Conde de Nieva 1043, Ica 11001, Perú"
13395,CLÍNICA MATERNO INFANTIL DEL NORTE S.A,PRIVADO,130101,LA LIBERTAD,TRUJILLO,TRUJILLO,-8.1023045,-79.0347243,"Av Manuel Vera Enriquez 777, Trujillo 13001, Perú"
13494,AUNA CLINICA MIRAFLORES,PRIVADO,200104,PIURA,PIURA,CASTILLA,-5.194352,-80.6225788,"Los Dalias, Piura 20002, Perú"
13591,HOSPITAL NACIONAL POLICIA NACIONAL DEL PERU GRAL PNP LUIS N. SAENZ.,SANIDAD DE LA POLICIA NACIONAL DEL PERU,150113,LIMA METROPOLITANA,LIMA,JESUS MARIA,-12.0847014,-77.0602522,"Av Brasil 26, Jesús María 15072, Perú"
13722,CLINICA AREQUIPA S.A.,PRIVADO,40101,AREQUIPA,AREQUIPA,AREQUIPA,-16.3921864,-71.5397942,"Francisco Bolognesi 104, Arequipa 04017, Perú"
13727,"INSTITUTO MEDICO ESPECIALIZADO EN DIABETES SOY DIABETICO EIRL (INSTITUTO MEDICO ESPECIALIZADO EN DIABETES ""SOY DIABETICO"")",PRIVADO,200101,PIURA,PIURA,PIURA,-5.1832262,-80.6261697,"Fortunato Chirichigno, Piura 20001, Perú"
13910,RENE TOCHE GROPPO,ESSALUD,110201,ICA,CHINCHA,CHINCHA ALTA,-13.4245949,-76.1329013,"Prol Calle Junin 625, 11702, Perú"
13911,MARIA REICHE NEUMAN,ESSALUD,110304,ICA,NAZCA,MARCONA,-15.361755,-75.166167,"Andres Avelino Caceres 21, San Juan de Marcona 11421, Perú"
13912,FELIX TORREALVA GUTIERREZ,ESSALUD,110101,ICA,ICA,ICA,-14.0716278,-75.7269125,"Av Cutervo 104, Ica 11001, Perú"
13952,HOSPITAL DE LA MUJER.,PRIVADO,150141,LIMA METROPOLITANA,LIMA,SURQUILLO,-12.1192721,-77.0198631,"Andres Avelino Cáceres Marical 559, Surquillo 15047, Perú"
14017,CLINICA PERUANA DE LOS ANDES,PRIVADO,30201,APURIMAC,ANDAHUAYLAS,ANDAHUAYLAS,-13.6580797,-73.3917923,"Av Ayacucho 298, Andahuaylas 03701, Perú"
14092,CLINICA SANTIVAÑEZ,PRIVADO,200101,PIURA,PIURA,PIURA,-5.196797,-80.6317606,"Calle los Tamarindos 143, Piura 20001, Perú"
14147,ANTONIO SKRABONJA ANTONCICH,ESSALUD,110501,ICA,PISCO,PISCO,-13.7169333,-76.2075379,"Las Americas, Pisco 11601, Perú"
14181,CLINICA SERVISALUD,PRIVADO,150113,LIMA METROPOLITANA,LIMA,JESUS MARIA,-12.0709289,-77.0395943,"Av Maximo Abril 552, Jesús María 15072, Perú"
14262,CENTRO MEDICO ESPECIALIZADO VERONESI SAC,PRIVADO,150801,LIMA REGION,HUAURA,HUACHO,-11.1077413,-77.5974461,"Túpac Amaru 516, Huacho 15136, Perú"
14361,INSTITUTO DEL CEREBRO Y LA COLUMNA VERTEBRAL,PRIVADO,150122,LIMA METROPOLITANA,LIMA,MIRAFLORES,-12.1282585,-77.0044094,"Av. Alfredo Benavides 2965, Miraflores 15048, Perú"
14501,CLINICA SAN GABRIEL S.A.C.,PRIVADO,150136,LIMA METROPOLITANA,LIMA,SAN MIGUEL,-12.0766003,-77.0957921,"Av. la Marina 2955, San Miguel 15087, Perú"
14509,CLINICA SAN MARTIN,PRIVADO,150132,LIMA METROPOLITANA,LIMA,SAN JUAN DE LURIGANCHO,-12.1152793,-76.9915775,"Brea Y Pariñas 109, Santiago de Surco 15038, Perú"
14718,HOSPITAL GERIATRICO PNP SAN JOSE,SANIDAD DE LA POLICIA NACIONAL DEL PERU,150136,LIMA METROPOLITANA,LIMA,SAN MIGUEL,-12.0867335,-77.0806425,"Jirón Mariscal Ramon Castilla 590, San Miguel 15086, Perú"
15077,LIGA CONTRA EL CÁNCER,PRIVADO,150121,LIMA METROPOLITANA,LIMA,PUEBLO LIBRE,-12.0848305,-77.0621073,"Av Brasil 2746, Pueblo Libre 15084, Perú"
15118,CLINICA MAISON DE SANTE DEL ESTE,PRIVADO,150140,LIMA METROPOLITANA,LIMA,SANTIAGO DE SURCO,-12.1304301,-76.9811604,"Av. Alfredo Benavides 5362, Santiago de Surco 15039, Perú"
15143,CLINICA ASTOCONDOR,PRIVADO,150130,LIMA METROPOLITANA,LIMA,SAN BORJA,-12.0963621,-76.9893471,"Av. Blvrd del Parque 610, San Borja, Lima 15037, Perú"
15179,CLINICA KIRSCHBAUM,PRIVADO,150130,LIMA METROPOLITANA,LIMA,SAN BORJA,-12.0863885,-76.9937007,"Av. Javier Prado Este 2973, San Borja 15021, Perú"
15182,OPTIMA VISION S.R.L. (OPTIMA VISION),PRIVADO,150122,LIMA METROPOLITANA,LIMA,MIRAFLORES,-12.1138918,-77.0377301,"Av. Angamos Oeste 884, Miraflores 15074, Perú"
15230,HOSPITAL III JOSE CAYETANO HEREDIA,ESSALUD,200104,PIURA,PIURA,CASTILLA,-5.1871517,-80.6226318,"el telefono actual, Avenida Independencia, Piura, Perú"
15266,CLINICA Y BOTICA SAN JUAN,PRIVADO,60801,CAJAMARCA,JAEN,JAEN,-5.7133176,-78.8111631,"Tupac Amaru 695, Jaén 06801, Perú"
15269,CLINICA SAN FERNANDO E.I.R.L,PRIVADO,60801,CAJAMARCA,JAEN,JAEN,-5.707621,-78.805396,"Calle Bolivar, Jaén 06801, Perú"
15349,MEDICAL PLASTIC,PRIVADO,150120,LIMA METROPOLITANA,LIMA,MAGDALENA DEL MAR,-12.0896272,-77.0654901,"Av. Brasil 3281, Magdalena del Mar 15076, Perú"
15375,CLINICA SAN PEDRO (CLINICA SAN PEDRO S.A.C.),PRIVADO,21801,ANCASH,SANTA,CHIMBOTE,-9.0735689,-78.5927869,"466, Manuel Villavicencio 479, Chimbote, Perú"
15598,HOSPITAL I ALTO MAYO,ESSALUD,220101,SAN MARTIN,MOYOBAMBA,MOYOBAMBA,-6.0109193,-76.9952672,"Alto Mayo, Moyobamba 22000, Perú"
15610,Clínica Internacional - Sede Lima,PRIVADO,150101,LIMA METROPOLITANA,LIMA,LIMA,-12.0584844,-77.038382,"Av. Inca Garcilaso de la Vega 1420, Cercado de Lima 15001, Perú"
15684,CLINICA GONZALEZ S.A.,PRIVADO,150116,LIMA METROPOLITANA,LIMA,LINCE,-12.083046,-77.0327096,"Av. Ignacio Merino 1884, Lince 15046, Perú"
15718,CLINICA SAN MARCOS,PRIVADO,150105,LIMA METROPOLITANA,LIMA,BREÑA,-12.0020025,-76.9995692,"Sta. Rosa de Lima 1719, San Juan de Lurigancho 15431, Perú"
15730,CLINICA SAN JUAN DE DIOS,PRIVADO,40103,AREQUIPA,AREQUIPA,CAYMA,-16.3882301,-71.5500865,"Av. Ejercito 1020, Cayma 04017, Perú"
15835,CLINICA OFTALMOLOGICA DE LA SELVA,PRIVADO,220909,SAN MARTIN,SAN MARTIN,LA BANDA DE SHILCAYO,-6.4898189,-76.3518348,"Pje. Las Tunas 270, Tarapoto 22202, Perú"
15927,CLINICA DE OJOS D´OPELUCE,PRIVADO,150116,LIMA METROPOLITANA,LIMA,LINCE,-12.0832995,-77.034389,"Av. Arequipa 1885, Lince 15046, Perú"
15963,LA CLINICA DE ICA DR. JULIO TATAJE BARRIGA SRL,PRIVADO,110101,ICA,ICA,ICA,-14.0734598,-75.7248839,"Av Conde de Nieva 360, Ica 11001, Perú"
16039,SAN FRANCISCO DE ASIS,PRIVADO,20101,ANCASH,HUARAZ,HUARAZ,-9.5261384,-77.527919,"Antonio Raymondi 799, Huaraz 02001, Perú"
16064,CLINICA PAZ HOLANDESA,PRIVADO,40112,AREQUIPA,AREQUIPA,PAUCARPATA,-16.4292327,-71.5110279,"Av Pizarro 230, Paucarpata 04009, Perú"
16113,CLINICA ZIEGLER CIRUGIA PLASTICA,PRIVADO,150131,LIMA METROPOLITANA,LIMA,SAN ISIDRO,-12.1015376,-77.0142485,"Av. Guardia Civil 990, San Isidro 15036, Perú"
16121,CENTRO MEDICO AVENDAÑO S.A.C.,PRIVADO,150122,LIMA METROPOLITANA,LIMA,MIRAFLORES,-12.1311137,-77.0245425,"Leonidas Avendano 116, Miraflores 15074, Perú"
16148,CLINICA OLGUIN E.I.R.L (CLINICA OLGUIN),PRIVADO,200601,PIURA,SULLANA,SULLANA,-4.8974391,-80.6953412,"Sucre, Sullana 20103, Perú"
16153,HOSPITAL II ILO,ESSALUD,180301,MOQUEGUA,ILO,ILO,-17.6423178,-71.3428317,"Alfonso Ugarte S/N, Ilo 18601, Perú"
16157,HOSPITAL II MOQUEGUA,ESSALUD,180101,MOQUEGUA,MARISCAL NIETO,MOQUEGUA,-17.1946684,-70.9541532,"Urb. Capillune S/N, Moquegua 18001, Perú"
16192,CLÍNICA CHICLAYO S.A,PRIVADO,140101,LAMBAYEQUE,CHICLAYO,CHICLAYO,-6.7799144,-79.8422166,"La Av. Sta. Victoria Consultorio N°02 GineSalud-Flebolsalud Dr. Henry Romero H, Florida 225, Chiclayo, Perú"
16291,HOSPITAL MEGASALUD UNIVERSAL,PRIVADO,150101,LIMA METROPOLITANA,LIMA,LIMA,-12.0452802,-77.0394821,"Avenida Emancipación 709, Cercado de Lima 15001, Perú"
16353,CLINICA MONTELUZ,PRIVADO,150125,LIMA METROPOLITANA,LIMA,PUENTE PIEDRA,-11.843333,-77.10187,"Av. Buenos Aires N° 2307, Óvalo de Zapallal - Puente Piedra, Puente Piedra, Perú"
16363,INSTITUTO PERUANO DE OFTALMOLOGIA,ESSALUD,200104,PIURA,PIURA,CASTILLA,-5.1882496,-80.6224247,"Avenida Independencia 216, Piura 20002, Perú"
16374,HOSP. IV AUGUSTO HERNANDEZ MENDOZA,ESSALUD,110101,ICA,ICA,ICA,-14.0655786,-75.7380884,"Av. José Matias Manzanilla 652, Ica 11002, Perú"
16481,HOSPITAL I JUANJUI - ESSALUD,ESSALUD,220601,SAN MARTIN,MARISCAL CACERES,JUANJUI,-7.1765382,-76.7283924,"Jr. La Libertad N° 2, La Merced, Juanjuí, Perú"
16536,CLÍNICA DE ATENCIÓN GENERAL (CLINICA BAHIA S.A.C.),PRIVADO,21809,ANCASH,SANTA,NUEVO CHIMBOTE,-9.1220077,-78.5230187,"Chimbote 02711, Perú"
16541,HOGAR CLINICA SAN JUAN DE DIOS-CUSCO,PRIVADO,80101,CUSCO,CUSCO,CUSCO,-13.5222417,-71.9534577,"Manzanares, Cusco 08003, Perú"
16551,CLINICA BELEN S.A.C. (CLINICA JUAN PABLO II),PRIVADO,21801,ANCASH,SANTA,CHIMBOTE,-9.0745285,-78.5929157,"Manuel Villavicencio 376, Chimbote 02803, Perú"
16721,HOSPITAL CENTRAL DE MAJES ING. ANGEL GABRIEL CHURA GALLEGOS,GOBIERNO REGIONAL,40520,AREQUIPA,CAYLLOMA,MAJES,-16.3210564,-72.2221835,"Majes 04110, Perú"
16744,CLINICA VALLESUR,PRIVADO,40101,AREQUIPA,AREQUIPA,AREQUIPA,-16.4012027,-71.5253735,"La Salle 116, Arequipa 04001, Perú"
16758,HERMANA JOSEFINA SERRANO,PRIVADO,80101,CUSCO,CUSCO,CUSCO,-13.5201156205175,-71.9780502013071,"San Andres 321, Cusco 08002, Perú"
16794,CLINICA DIVINO NIÑO JESUS - ORDEN DE MALTA,PRIVADO,150133,LIMA METROPOLITANA,LIMA,SAN JUAN DE MIRAFLORES,-12.1484599,-76.9769495,"Lima 15803, Perú"
16830,CLINICA CAMINO REAL,PRIVADO,130101,LA LIBERTAD,TRUJILLO,TRUJILLO,-8.1140746,-79.0287709,"Plaza de Armas, Jr. Bolognesi 565 Ref. A 01 Cuadra de, Trujillo 13001, Perú"
16918,INSTITUTO NACIONAL DE SALUD NIÑO SAN BORJA,MINSA,150130,LIMA METROPOLITANA,LIMA,SAN BORJA,-12.0853791,-76.9919372,"Av. Javier Prado Este 3101, Cercado de Lima 15037, Perú"
16951,CLINICA MADRE ZORAIDA,PRIVADO,150118,LIMA METROPOLITANA,LIMA,LURIGANCHO,-11.9384568,-76.6992738,"Jr. Trujillo Sur 765-913, Lurigancho-Chosica 15468, Perú"
17024,HOSPITAL  MILITAR LUIS ARIAS SCHEREIBER,SANIDAD DEL EJERCITO DEL PERU,150113,LIMA METROPOLITANA,LIMA,JESUS MARIA,-12.0862124,-77.0611729,"Av. Faustino Sánchez Carrión, Jesús María 15076, Perú"
17075,CLINICA BELEN S.A.C. (CLINICA BELEN),PRIVADO,21801,ANCASH,SANTA,CHIMBOTE,-9.0667485,-78.5878416,"Chimbote 02803, Perú"
17077,HOSPITAL REGIONAL JOSE ALFREDO MENDOZA OLAVARRIA JAMO II-2,GOBIERNO REGIONAL,240101,TUMBES,TUMBES,TUMBES,-3.57334674155568,-80.4194873316688,Tumbes 24002
17081,CLINICA SAN ANDRES,PRIVADO,150601,LIMA REGION,HUARAL,HUARAL,-11.4922494,-77.2128864,"María Auxiliadora, Huaral 15202, Perú"
17173,CLINICA PORVENIR,PRIVADO,150113,LIMA METROPOLITANA,LIMA,JESUS MARIA,-12.0776663,-77.0508232,"Av. Francisco Javier Mariátegui 1418, Jesús María 15072, Perú"
17385,CLINICA SAN BARTOLOME,PRIVADO,150117,LIMA METROPOLITANA,LIMA,LOS OLIVOS,-11.991493,-77.075591,"Av. Carlos Izaguirre 1142, Los Olivos 15301, Perú"
17392,GONZALES PINEDO RODOLFO (CLINICA ANTONIO MIROQUESADA),PRIVADO,150101,LIMA METROPOLITANA,LIMA,LIMA,-12.049628,-77.030399,"Jirón Sta. Rosa 332, Cercado de Lima 15001, Perú"
17393,HOSPITAL CUAJONE DE LA SOUTHERN PERU,PRIVADO,180106,MOQUEGUA,MARISCAL NIETO,TORATA,-17.0749134,-70.807164,"Villa Cuajone 18100, Perú"
17493,CLINICA GAXAY E.I.R.L.,PRIVADO,110201,ICA,CHINCHA,CHINCHA ALTA,-13.4248331,-76.1322525,"Av America 116A, 11702, Perú"
17588,MELO CLINICA DE REPRODUCCION Y GENETICA,PRIVADO,40101,AREQUIPA,AREQUIPA,AREQUIPA,-16.4021444,-71.5483251,"Malaga Grenet 110, Arequipa 04013, Perú"
17634,ONCOSALUD,PRIVADO,150130,LIMA METROPOLITANA,LIMA,SAN BORJA,-12.0954579,-77.0101673,"Av. Guardia Civil 571, San Borja 15036, Perú"
17814,CENTRO DE ATENCION PRIMARIA III PEDRO REYES BARBOZA - BARRANCA,ESSALUD,150201,LIMA REGION,BARRANCA,BARRANCA,-10.7425284,-77.7661265,"Barranca 15169, Perú"
17824,CLINICA MARIA HUARHUA E.I.R.L (CLINICA MARIA HUARHUA),PRIVADO,150143,LIMA METROPOLITANA,LIMA,VILLA MARIA DEL TRIUNFO,-12.1482216,-76.9495281,"Av. Latinoamérica 200, Distrito de Lima 15812, Perú"
17847,CLINICA DEL NORTE,PRIVADO,150117,LIMA METROPOLITANA,LIMA,LOS OLIVOS,-11.9895771,-77.0810687,"Av. Universitaria 3890, Los Olivos 15301, Perú"
17883,HOSPITAL DE REHABILITACION DEL CALLAO,GOBIERNO REGIONAL,70102,CALLAO,CALLAO,BELLAVISTA,-12.0632054,-77.1332362,"Vigil 591, Bellavista 07016, Perú"
18011,INCOR,ESSALUD,150113,LIMA METROPOLITANA,LIMA,JESUS MARIA,-12.0772252,-77.0399888,"Jirón Coronel Zegarra 417, Jesús María 15072, Perú"
18230,HOSPITAL TOQUEPALA,PRIVADO,230302,TACNA,JORGE BASADRE,ILABAYA,-17.4204023,-70.5127345,"Ilabaya 23800, Perú"
18307,CLINICA MARIA SRL,PRIVADO,150117,LIMA METROPOLITANA,LIMA,LOS OLIVOS,-11.9794925,-77.0804888,"Conray Grande 4844, Los Olivos 15304, Perú"
18310,SANNA - CLINICA BELEN,PRIVADO,200101,PIURA,PIURA,PIURA,-5.1857482,-80.6277981,"San Cristobal 267, Piura 20001, Perú"
18319,ALBERTO LEONARDO BARTON THOMPSON,PRIVADO,70101,CALLAO,CALLAO,CALLAO,-12.0609238,-77.1435073,"Av Saenz Peña 373, Callao 07021, Perú"
18404,CLINICA SAN PABLO TRUJILLO,PRIVADO,130101,LA LIBERTAD,TRUJILLO,TRUJILLO,-8.1219895,-79.0343487,"Av. Húsares de Junín 690 Urb. La Merced, Trujillo 13008, Perú"
18580,GUILLERMO KAELIN DE LA FUENTE,PRIVADO,150143,LIMA METROPOLITANA,LIMA,VILLA MARIA DEL TRIUNFO,-12.1774727,-76.940273,"Av 26 de Noviembre 137, Villa María del Triunfo 15817, Perú"
18581,CLINICA PETRAS,PRIVADO,150131,LIMA METROPOLITANA,LIMA,SAN ISIDRO,-12.0912383,-77.0093353,"San Isidro, Calle 6 221, Cercado de Lima, Perú"
18584,CLINICA MARIA DEL SOCORRO,PRIVADO,150103,LIMA METROPOLITANA,LIMA,ATE,-12.0321308,-76.9355657,"Jr. Apurimac #116, Ate, Perú"
18659,HOSPITAL MILITAR DIVISIONARIO III DE AREQUIPA,SANIDAD DEL EJERCITO DEL PERU,40109,AREQUIPA,AREQUIPA,MARIANO MELGAR,-16.402045,-71.5113897,"Calle Jiron Ica N°500, Mariano Melgar Cercado De, Arequipa 04006, Perú"
18667,CLINICA ARROYO,PRIVADO,150131,LIMA METROPOLITANA,LIMA,SAN ISIDRO,-12.099793,-77.018542,"Av Pablo Carriquiry 798, San Isidro 15036, Perú"
18670,CLINICA G'STAR,PRIVADO,70102,CALLAO,CALLAO,BELLAVISTA,-12.0612979,-77.098683,"Calle Los Amancaes 240, Bellavista 07011, Perú"
18704,FAMISALUD,PRIVADO,110201,ICA,CHINCHA,CHINCHA ALTA,-13.4154251,-76.1326441,"28 de Julio 397, 11701, Perú"
18769,CLINICA DE CORTA ESTANCIA  ROCA E.I.R.L.,PRIVADO,100101,HUANUCO,HUANUCO,HUANUCO,-9.9234886,-76.2356255,"Pedro Barroso 425-478, Huánuco 10001, Perú"
18935,CEFERGIN,PRIVADO,40126,AREQUIPA,AREQUIPA,YANAHUARA,-16.4019009,-71.5514966,"Urbanización Independencia Americana D 8 Yanahuara, UMACOLLO, Arequipa, Perú"
18985,CLINICA SANTA MARTHA DEL SUR,PRIVADO,150133,LIMA METROPOLITANA,LIMA,SAN JUAN DE MIRAFLORES,-12.1631328,-76.9654419,"Av. Belisario Suarez 998, San Juan de Miraflores 15824, Perú"
19049,AUNA CLÍNICA DELGADO,PRIVADO,150122,LIMA METROPOLITANA,LIMA,MIRAFLORES,-12.1132145,-77.0329581,"Ca. Gral. Borgoño, Miraflores 15074, Perú"
19176,CLINICA BOLIVAR S.A.C,PRIVADO,100101,HUANUCO,HUANUCO,HUANUCO,-9.930067,-76.236699,"JR. BOLIVAR #490 - HUANUCO, Huánuco, Perú"
19315,CLINICA SANTA ANA,PRIVADO,60101,CAJAMARCA,CAJAMARCA,CAJAMARCA,-7.1575894,-78.5108997,"Jirón Ayacucho 936, Cajamarca 06002, Perú"
19481,CLINICA J. PRADO SANTA MARIA E.I.R.L.,PRIVADO,40109,AREQUIPA,AREQUIPA,MARIANO MELGAR,-16.4035,-71.515222,"Av. Mariscal Castilla 723, Mariano Melgar 04006, Perú"
19671,CLINICA RENACER,PRIVADO,150122,LIMA METROPOLITANA,LIMA,MIRAFLORES,-12.1097771,-77.031341,"Calle Coronel Inclán 990, Miraflores 15074, Perú"
19748,CLINICA HIGUERETA,PRIVADO,150122,LIMA METROPOLITANA,LIMA,MIRAFLORES,-12.1282094,-77.00482,"Av. Alfredo Benavides 2949, Miraflores 15048, Perú"
19839,CLINICA SANTA LEONOR,PRIVADO,150108,LIMA METROPOLITANA,LIMA,CHORRILLOS,-12.1837665,-77.0083693,"Av. Defensores del Morro 131, Cercado de Lima 15064, Perú"
20274,ESSALUD - HOSPITAL I YURIMAGUAS,ESSALUD,160201,LORETO,ALTO AMAZONAS,YURIMAGUAS,-5.8907357,-76.1144862,"Yurimaguas 16501, Perú"
20346,CLINICA SANTA BEATRIZ,PRIVADO,150113,LIMA METROPOLITANA,LIMA,JESUS MARIA,-12.0717412,-77.0381483,"Jiron Ramón Dagnino 223, Jesús María 15072, Perú"
20925,HOSPITAL DE ALTA COMPLEJIDAD DE LA LIBERTAD VIRGEN DE LA PUERTA,ESSALUD,130105,LA LIBERTAD,TRUJILLO,LA ESPERANZA,-8.0545042,-79.0578595,"M.Bastidas 309, La Esperanza 13013, Perú"
20979,CLINICA DE LOS VASQUEZ S.A.C,PRIVADO,110201,ICA,CHINCHA,CHINCHA ALTA,-13.4257254,-76.1353584,"Prolongación Lima 703, Sunampe 11702, Perú"
21003,CENTRO MEDICO RIOJA - ESSALUD,ESSALUD,220801,SAN MARTIN,RIOJA,RIOJA,-6.0670575,-77.1717963,"Jirón Chachapoyas, Rioja 22826, Perú"
21009,CLINICA SAN LUIS ASISTENCIAL DOCENTE S.R.L.,PRIVADO,130101,LA LIBERTAD,TRUJILLO,TRUJILLO,-8.0975277,-79.0180882,"Av Ejercito 1175, Trujillo 13001, Perú"
21096,CLINICA ESPECIALIZADA EN CIRUGÍA PLÁSTICA SAN AGUSTIN,PRIVADO,150121,LIMA METROPOLITANA,LIMA,PUEBLO LIBRE,-12.101414,-77.003663,"Av. San Borja Sur 526 San Borja, LIMA 01, Perú"
21412,CLÍNICA MADRE DE CRISTO,PRIVADO,130105,LA LIBERTAD,TRUJILLO,LA ESPERANZA,-8.0798003,-79.0462134,"Av José Gabriel Condorcanqui N 1397, La Esperanza 13012, Perú"
21508,SMQ QUIRUMEDIC SAC,PRIVADO,130101,LA LIBERTAD,TRUJILLO,TRUJILLO,-8.098211,-79.0209725,"Wilfredo Torres 1034, Trujillo 13001, Perú"
21966,CLINICA ALIVIARI,PRIVADO,40126,AREQUIPA,AREQUIPA,YANAHUARA,-16.3841071,-71.5405084,"León Velarde 406, Arequipa 04017, Perú"
23022,CLINICA AVANSALUD,PRIVADO,150120,LIMA METROPOLITANA,LIMA,MAGDALENA DEL MAR,-12.1007586,-77.0619759,"Av. del Ejército 1020, Magdalena del Mar 15076, Perú"
23151,CLINICA CORI,PRIVADO,150117,LIMA METROPOLITANA,LIMA,LOS OLIVOS,-11.9910913,-77.073246,"Av. Carlos Izaguirre 978, Los Olivos 15301, Perú"
23159,HOSPITAL DE EMERGENCIAS VILLA EL SALVADOR,MINSA,150142,LIMA METROPOLITANA,LIMA,VILLA EL SALVADOR,-12.2330013,-76.9343936,"Av. 200 Millas, Villa EL Salvador 15837, Perú"
23918,CIRUGIA LAPAROSCOPICA E.I.R.LTDA (CLINICA CIRLAP),PRIVADO,150116,LIMA METROPOLITANA,LIMA,LINCE,-12.0782505,-77.0355648,"Av. Arequipa 1384, Cercado de Lima 15046, Perú"
24041,CLÍNICA ESPECIALIZADA EMANUEL,PRIVADO,160113,LORETO,MAYNAS,SAN JUAN BAUTISTA,-3.774226,-73.2898075,"Calle Las Azucenas 203, Iquitos 16007"
24173,OXIGEN MEDICAL NETWORK,PRIVADO,80106,CUSCO,CUSCO,SANTIAGO,-13.534035,-71.974099,"Calle Bellavista C-11 Residencial, Huancaro, Cusco 08000, Perú"
24178,CLINIC NOVASALUD,PRIVADO,150142,LIMA METROPOLITANA,LIMA,VILLA EL SALVADOR,-12.2110311,-76.9333096,"Av. César Vallejo 520, Villa EL Salvador 15834, Perú"
24208,PRAXIS MEDICAL S.A.C.,PRIVADO,40101,AREQUIPA,AREQUIPA,AREQUIPA,-16.4165462,-71.5336532,"Calle Clorinda Matto de Turner 132 Esquina Calle José Gómez 100 y 100A, Perú"
24425,CLÍNICA MEDICA SALAZAR,PRIVADO,120101,JUNIN,HUANCAYO,HUANCAYO,-12.0599683,-75.2049072,"Huancayo 12001, Perú"
24584,VIRGEN GUADALUPE CUSCO,PRIVADO,80105,CUSCO,CUSCO,SAN SEBASTIAN,-13.5288816,-71.9411018,"O-4, Cusco 08000, Perú"
24727,CLÍNICA SANTO TORIBIO,PRIVADO,150101,LIMA METROPOLITANA,LIMA,LIMA,-12.0475819,-77.0397481,"Jirón Chancay 762, Cercado de Lima 15001, Perú"
25160,CLIN. DANIEL A. CARRION,PRIVADO,110201,ICA,CHINCHA,CHINCHA ALTA,-13.423832,-76.1346453,"Av Idelfonso 226, 11702, Perú"
25208,GRUPO CARITA FELIZ S.A.,PRIVADO,200101,PIURA,PIURA,PIURA,-5.1959525,-80.6322146,"Frente al Parque Infantil, Jr, Huancavelica Nº 1039, Piura 20001, Perú"
25210,TUPAC AMARU,GOBIERNO REGIONAL,80105,CUSCO,CUSCO,SAN SEBASTIAN,-13.5333951,-71.9271756,"Av. Cusco Nº 496 San sebastian Cusco Perú, Perú"
25383,CLINICA MEDICO QUIRURGICO HUANCAYO,PRIVADO,120114,JUNIN,HUANCAYO,EL TAMBO,-12.0731459,-75.2208357,"Av. Daniel Alcides Carrion 1551, Huancayo 12006, Perú"
25544,HOSPITAL I CLINICA UNIVERSITARIA,ESSALUD,210101,PUNO,PUNO,PUNO,-15.8616104,-70.0012977,"Puno 21002, Perú"
25573,Creo Clínica Renal y Oncológica,PRIVADO,150135,LIMA METROPOLITANA,LIMA,SAN MARTIN DE PORRES,-12.019801,-77.0552264,"Av. Eloy Espinoza 700, San Martín de Porres 15102, Perú"
25598,CLINICA MATER PURISSIMA,PRIVADO,150110,LIMA METROPOLITANA,LIMA,COMAS,-11.9350236,-77.0470729,"Mariano Melgar, Comas 15327, Perú"
25749,MEDAVAN,PRIVADO,150120,LIMA METROPOLITANA,LIMA,MAGDALENA DEL MAR,-12.0929707,-77.0568275,"Flora Tristán 206, Cercado de Lima 15076, Perú"
25930,CLINICA SANENS,PRIVADO,150141,LIMA METROPOLITANA,LIMA,SURQUILLO,-12.11953,-77.0241038,"Av. Ricardo Palma 298, Surquillo 15074, Perú"
25970,CLINICA REBAGLIATI,PRIVADO,120114,JUNIN,HUANCAYO,EL TAMBO,-12.0668532,-75.2220558,"Jr, Pirita N° 191, Huancayo, Perú"
25971,CLINICA BILBAO,PRIVADO,120101,JUNIN,HUANCAYO,HUANCAYO,-12.0703605,-75.2150134,"Av. Daniel Alcides Carrion 1025, Huancayo 12001, Perú"
25973,CLINICA ZARATE,PRIVADO,120101,JUNIN,HUANCAYO,HUANCAYO,-12.0603631,-75.2054111,"Uruguay 533, Huancayo 12001, Perú"
26070,CLINICA CORAZON DE JESUS,PRIVADO,150501,LIMA REGION,CAÑETE,SAN VICENTE DE CAÑETE,-13.0754852,-76.3794369,"Av. Mariscal Benavides 565, San Vicente de Cañete 15701, Perú"
26080,SR DE TORRECHAYOC,PRIVADO,80901,CUSCO,LA CONVENCION,SANTA ANA,-12.868355,-72.6919814,"Quillabamba 08741, Perú"
26473,OBRA DE SAN CAMILO,PRIVADO,150101,LIMA METROPOLITANA,LIMA,LIMA,-12.046735,-77.0222457,"Jr. Ancash 809, Cercado de Lima 15001, Perú"
26706,CLINICA UNION SAC.,PRIVADO,140101,LAMBAYEQUE,CHICLAYO,CHICLAYO,-6.7735145,-79.8423378,"Calle Torres Paz 204 Chiclayo, Lambayeque 14009, Perú"
26707,CLÍNICA OFTALMOLÓGICA VIDAVAS SAC,PRIVADO,140101,LAMBAYEQUE,CHICLAYO,CHICLAYO,-6.7840888,-79.8458635,"Av. Miguel Grau 1259, Chiclayo 14001, Perú"
26793,CLINICA BELLAFORMA,PRIVADO,150113,LIMA METROPOLITANA,LIMA,JESUS MARIA,-11.9907706,-77.0709314,"Av. Carlos Izaguirre 824, Los Olivos 15301, Perú"
26935,CLÍNICA FÁTIMA,PRIVADO,130111,LA LIBERTAD,TRUJILLO,VICTOR LARCO HERRERA,-8.1291008,-79.0384466,"Av. Fátima 494, Distrito de Víctor Larco Herrera 13009, Perú"
26936,CLINICA AVIVA SEDE MENDIOLA,PRIVADO,150117,LIMA METROPOLITANA,LIMA,LOS OLIVOS,-11.9547045,-77.0698832,"Av. Alfredo Mendiola 6301, Los Olivos 15301, Perú"
27173,FAMISALUD SAC,PRIVADO,110501,ICA,PISCO,PISCO,-13.7088666,-76.2014518,"Calle 28 de Julio 220, Pisco 11601, Perú"
27214,CLINICA SAN PABLO AREQUIPA,PRIVADO,40104,AREQUIPA,AREQUIPA,CERRO COLORADO,-16.3866714,-71.556989,"Av. Metropolitana, esquina con Calle 7 Urb. Teresa de Jesús, Cerro Colorado, Perú"
27312,clinica especializada amazonica sac,PRIVADO,250101,UCAYALI,CORONEL PORTILLO,CALLERIA,-8.3789829,-74.5369014,"Saenz Peña 421, Pucallpa 25000, Perú"
27320,CLINICA AUNA GUARDIA CIVIL,PRIVADO,150131,LIMA METROPOLITANA,LIMA,SAN ISIDRO,-12.0922465,-77.0090463,"Av. Guardia Civil 368, Cercado de Lima 15036, Perú"
27358,CLÍNICA CRISTO REDENTOR,PRIVADO,130101,LA LIBERTAD,TRUJILLO,TRUJILLO,-8.1042312,-79.0089937,"Av Blas Pascal 268, Trujillo 13007, Perú"
27462,CLINICA LA LUZ,PRIVADO,230101,TACNA,TACNA,TACNA,-18.0226885,-70.2590629,"Avenida Manuel A. Odría 702, Tacna 23001, Perú"
27488,HOSPITAL DE ESPECIALIDADES MEDICAS SAN IGNACIO DE LOYOLA S.C.R.L.,PRIVADO,200104,PIURA,PIURA,CASTILLA,-5.1980773,-80.6199343,"20002, Perú"
27565,Hospital I Marino Molina Scippa - EsSalud,ESSALUD,150110,LIMA METROPOLITANA,LIMA,COMAS,-11.9436138,-77.0576395,"Av Guillermo de la Fuente 515-545, Comas 15312, Perú"
27693,CENTRO MEDICO ESPECIALIZADO PRIMAVERA,PRIVADO,100102,HUANUCO,HUANUCO,AMARILIS,-9.9078509,-76.2274109,"urbanizacion santa maria del huallaga manzana A lote 2 A, amarilis huanuco carretera huanuco tingo maria kilometro 3.5, Amarilis 10000, Perú"
27694,CHENET CLINICA ESPECIALIZADA,PRIVADO,120114,JUNIN,HUANCAYO,EL TAMBO,-12.0602329,-75.215195,"Jr. Parra del Riego 495, Huancayo 12004, Perú"
27733,HOSPITAL II TARAPOTO,ESSALUD,220901,SAN MARTIN,SAN MARTIN,TARAPOTO,-6.4733001,-76.3708212,"Jr. Augusto B. Leguia 470, Tarapoto 22202, Perú"
27857,INSTITUTO REGIONAL DE ENFERMEDADES NEOPLÁSICAS DEL CENTRO - IREN CENTRO,GOBIERNO REGIONAL,120201,JUNIN,CONCEPCION,CONCEPCION,-11.9050665,-75.3255202,"755, Concepción, Perú"
28024,"Centro de Atención y Aislamiento COVID-19 ""Villa Panamericana""",ESSALUD,150142,LIMA METROPOLITANA,LIMA,VILLA EL SALVADOR,-12.2037784,-76.9571046,"Av. Mariano Pastor Sevilla, Lima 15829, Perú"
28025,HOSPITAL DE EMERGENCIA ATE VITARTE,MINSA,150103,LIMA METROPOLITANA,LIMA,ATE,-12.0253814,-76.9178538,"Av. José Carlos Mariátegui 364, Lima 15491, Perú"
28134,CLINICA SANTA LUZMILA,PRIVADO,150110,LIMA METROPOLITANA,LIMA,COMAS,-11.9410308,-77.0610354,"Hermilio Valdizan 386, Comas 15311, Perú"
28244,CLINICA SAGRADA FAMILIA DEL SUR,PRIVADO,150133,LIMA METROPOLITANA,LIMA,SAN JUAN DE MIRAFLORES,-12.1664075,-76.9609476,"Av. Miguel Iglesias 625, San Juan de Miraflores 15824, Perú"
28254,CLINICA SINAI,PRIVADO,220801,SAN MARTIN,RIOJA,RIOJA,-6.0667968,-77.1702263,"Jirón Amargura 984, Rioja 22826, Perú"
