NOMBRE,REGION,PROVINCIA,CODIGO,INSTITUCION,DISTRITO,DIRECCIÓN,latitude,longitude
CLINICA MONTEFIORI,LIMA,LIMA,9153,PRIVADO,LA MOLINA,AV. SEPARADORA INDUSTRIAL N 1818-1820 (ANTES 380-390) MZ. A1. LT 17-24 URB. CACTUS LIMA LIMA,-12.0654591,-76.9659877
CLINICA MONTE SINAI JULIACA E.I.R.L.,PUNO,SAN ROMAN,11978,PRIVADO,JULIACA,JIRON LORETO 343 CERCADO JULIACA SAN ROMAN PUNO,-15.497625699999999,-70.13270109999999
CLINICA JAVIER PRADO,LIMA,LIMA,12633,PRIVADO,SAN ISIDRO,AV. JAVIER PRADO ESTE 499 URB. JARDIN LIMA- SAN ISIDRO LIMA LIMA,-12.091465,-77.0283571
Clínica Internacional - Sede Lima,LIMA,LIMA,15610,PRIVADO,LIMA,JR. WASHINGTON 1471 LIMA LIMA,-12.0592585,-77.03896449999998
CLINICA SAN JUAN DE DIOS,AREQUIPA,AREQUIPA,15730,PRIVADO,CAYMA,AV. EJERCITO 1020 AREQUIPA AREQUIPA,-16.3880782,-71.54990809999998
CLINICA DEL INCA,LIMA,LIMA,8956,PRIVADO,MIRAFLORES,AVENIDA 28 DE JULIO  1331 AVENIDA 28 DE JULIO  1331 MIRAFLORES LIMA LIMA  LIMA LIMA,-12.1302732,-77.0193227
SISTEMAS DE ADMINISTRACION HOSPITALARIA S.A.C. (SANNA - CLINICA DEL SUR),AREQUIPA,AREQUIPA,12907,PRIVADO,YANAHUARA,AVENIDA BOLOGNESI 134 - YANAHUARA AREQUIPA AREQUIPA,-16.380048300000002,-71.5449464
CLINICA CAYETANO HEREDIA,JUNIN,HUANCAYO,8024,PRIVADO,EL TAMBO,AVENIDA AV.HUANCAVELICA NRO.745 JUNIN-HUANCAYO-EL TAMBO DISTRITO EL TAMBO PROVINCIA HUANCAYO DEPARTAMENTO JUNIN  HUANCAYO JUNIN,-12.0632194,-75.2193272
CLINICA RICARDO PALMA,LIMA,LIMA,9409,PRIVADO,SAN ISIDRO,AV. JAVIER PRADO ESTE 1066 LIMA LIMA,-12.0905573,-77.01832950000001
CLINICA SAN BORJA,LIMA,LIMA,9886,PRIVADO,SAN BORJA,AVENIDA AV. GUARDIA CIVIL N° 337 AV. GUARDIA CIVIL N° 337 SAN BORJA LIMA LIMA  LIMA LIMA,-12.0920538,-77.00831540000001
CARLOS ALBERTO CORTEZ JIMENEZ,TUMBES,TUMBES,12272,ESSALUD,TUMBES,PROLONG. AV. TUMBES N 1625 TUMBES TUMBES,-3.5560202000000003,-80.44342320000001
CLINICA CAMINO REAL,LA LIBERTAD,TRUJILLO,16830,PRIVADO,TRUJILLO,JIRÓN JR. BOLOGNESI N° 565 DISTRITO TRUJILLO PROVINCIA TRUJILLO DEPARTAMENTO LA LIBERTAD  TRUJILLO LA LIBERTAD,-8.1140746,-79.0287709
CLINICA SANTA ISABEL,LIMA,LIMA,13383,PRIVADO,SAN BORJA,AVENIDA GUARDIA CIVIL 135 DISTRITO SAN BORJA PROVINCIA LIMA DEPARTAMENTO LIMA  LIMA LIMA,-12.089417,-77.00710059999999
HOSPITAL NAVAL,CALLAO,CALLAO,8266,FFAA Y PNP,BELLAVISTA,AV. VENEZUELA SN CALLAO CALLAO,-12.062421800000001,-77.0978016
CLINICA SAN JUAN BAUTISTA,LIMA,LIMA,8271,PRIVADO,SAN JUAN DE LURIGANCHO,AV. PROCERES DE LA INDEPENDENCIA 1764 MZ. G OOTES 10-11-20-21 - URB. LAS FLORES LIMA LIMA,-12.0040406,-77.00668780000001
CLINICA SANTA MARTHA DEL SUR,LIMA,LIMA,18985,PRIVADO,SAN JUAN DE MIRAFLORES,AV. BELISARIO SUAREZ 998 LIMA LIMA,-12.1630853,-76.96525120000003
HOSPITAL DE EMERGENCIAS VILLA EL SALVADOR,LIMA,LIMA,23159,MINSA,VILLA EL SALVADOR,AVENIDA PASTOR SEVILLA NÚMERO 000 DISTRITO VILLA EL SALVADOR PROVINCIA LIMA DEPARTAMENTO LIMA  LIMA LIMA,-12.2157537,-76.94683719999998
CLINICA VALLESUR,AREQUIPA,AREQUIPA,16744,PRIVADO,AREQUIPA,AV. LA SALLE N°116 Y N° 108 CERCADO AREQUIPA AREQUIPA AREQUIPA,-16.4012027,-71.5253735
CLÍNICA MONTE HOREB S.A.,UCAYALI,CORONEL PORTILLO,12118,PRIVADO,CALLERIA,JR.INMACULADA N 529 CORONEL PORTILLO UCAYALI,-8.379348299999998,-74.53101749999998
CLINICA MONTESUR,LIMA,LIMA,12219,PRIVADO,SANTIAGO DE SURCO,AVENIDA AV. EL POLO NRO. 505 URB. EL DERBY MONTERRICO DISTRITO SANTIAGO DE SURCO PROVINCIA LIMA DEPARTAMENTO LIMA  LIMA LIMA,-12.103394300000001,-76.9727977
REGIONAL DE ENFERMEDADES NEOPLASICAS - NORTE - DR. LUIS PINILLOS GANOZA,LA LIBERTAD,TRUJILLO,7277,GOB REGIONAL,TRUJILLO,CARRETERA CARRETERA PANAMERICANA NORTE KM 558 DISTRITO TRUJILLO PROVINCIA TRUJILLO DEPARTAMENTO LA LIBERTAD  TRUJILLO LA LIBERTAD,-8.134261,-79.01965290000001
SANNA - CLINICA BELEN,PIURA,PIURA,18310,PRIVADO,PIURA,CALLE SAN CRISTOBAL N 267 URB. EL CHIPE PIURA PIURA,-5.185173900000001,-80.63023890000001
CLINICA SAN PABLO,LIMA,LIMA,9988,PRIVADO,SANTIAGO DE SURCO,CALLE CALLE LA CONQUISTA 145-URB. EL DERBY DE MONTERRICO DISTRITO SANTIAGO DE SURCO PROVINCIA LIMA DEPARTAMENTO LIMA  LIMA LIMA,-12.100186599999999,-76.9714626
CLINICA SAN PABLO SEDE HUARAZ,ANCASH,HUARAZ,12671,PRIVADO,INDEPENDENCIA,JIRÓN JR. HUAYLAS N 172 DISTRITO INDEPENDENCIA PROVINCIA HUARAZ DEPARTAMENTO ANCASH  HUARAZ ANCASH,-9.517814300000001,-77.53081499999998
HOSPITAL DE ALTA COMPLEJIDAD DE LA LIBERTAD VIRGEN DE LA PUERTA,LA LIBERTAD,TRUJILLO,20925,ESSALUD,LA ESPERANZA,AV. N° 05 Y N° 02 URB PARQUE INDUSTRIAL TRUJILLO LA LIBERTAD,-8.051042299999999,-79.0585887
CLINICA SAN LORENZO S.R.L.,CAJAMARCA,CAJAMARCA,12761,PRIVADO,CAJAMARCA,AV. SAN MARTIN DE PORRES N° 546 CAJAMARCA CAJAMARCA,-7.1668027,-78.5052506
CLINICA AMERICANA DE JULIACA,PUNO,SAN ROMAN,10815,PRIVADO,JULIACA,JR. LORETO N 315 URB LA RINCONADA SAN ROMAN PUNO,-15.4976973,-70.1324463
CLÍNICA FÁTIMA,LA LIBERTAD,TRUJILLO,26935,PRIVADO,,CLÍNICA FÁTIMA TRUJILLO LA LIBERTAD,-8.1291008,-79.03844659999999
CLINICA SAN FRANCISCO DE ASIS S.A. (CLINICA SAN FRANCISCO DE ASIS),CAJAMARCA,CAJAMARCA,9599,PRIVADO,CAJAMARCA,JR. MIGUEL GRAU N 851 CAJAMARCA CAJAMARCA,-7.1579599,-78.5098186
CL ESPECIALIDADES MEDICAS,LIMA,LIMA,12975,PRIVADO,SAN BORJA,JR EDUARDO ORDOEZ 468 LIMA LIMA,-12.105580400000001,-77.00179969999998
CLINICA GOOD HOPE,LIMA,LIMA,8746,PRIVADO,MIRAFLORES,AVENIDA AV. MALECON BALTA N° 956 934 944 Y AV. GRAU N° 755 DISTRITO MIRAFLORES PROVINCIA LIMA DEPARTAMENTO LIMA  LIMA LIMA,-12.1256695,-77.03444569999998
HOSPITAL III IQUITOS,LORETO,MAYNAS,11409,ESSALUD,PUNCHANA,AVENIDA LA MARINA SN MAYNAS LORETO,-3.722424199999999,-73.2414624
CENTRO DE REPOSO SAN JUAN DE DIOS,PIURA,PIURA,13165,PRIVADO,CASTILLA,AVENIDA AVENIDA CAYETANO HEREDIA N° 210 DISTRITO CASTILLA PROVINCIA PIURA DEPARTAMENTO PIURA  PIURA PIURA,-5.1967099999999995,-80.6205954
CLINICA MARIA DEL SOCORRO,LIMA,LIMA,18584,PRIVADO,ATE,CALLE MZ J LOTE 3-A CALLE APURIMAC 116 URB. TILDA MZ J LOTE 3-A CALLE APURIMAC 116 URB. TILDA ATE LIMA LIMA  LIMA LIMA,-12.032017399999999,-76.93557140000001
ONCOSALUD,LIMA,LIMA,17634,PRIVADO,SAN BORJA,AVENIDA AV. GUARDIA CIVIL N°227-229 URB. CORPAC DISTRITO SAN BORJA PROVINCIA LIMA DEPARTAMENTO LIMA  LIMA LIMA,-12.0954579,-77.01016729999998
HOSPITAL SUBREGIONAL DE ANDAHUAYLAS,APURIMAC,ANDAHUAYLAS,4131,GOB REGIONAL,ANDAHUAYLAS,JIRÓN HUGO PESCE N° 180 JR. HUGO PESCE N° 180 ANDAHUAYLAS ANDAHUAYLAS APURIMAC  ANDAHUAYLAS APURIMAC,-13.657906299999999,-73.381736
CLINICA JESUS DEL NORTE,LIMA,LIMA,10182,PRIVADO,INDEPENDENCIA,AVENIDA AVENIDA CARLOS IZAGUIRRE 153 DISTRITO INDEPENDENCIA PROVINCIA LIMA DEPARTAMENTO LIMA  LIMA LIMA,-11.9894316,-77.05878779999998
SANNA/SANCHEZ FERRER S.A.,LA LIBERTAD,TRUJILLO,10581,PRIVADO,VICTOR LARCO HERRERA,CALLE LOS LAURELES N436 URB. CALIFORNIA - VICTOR LARCO HERRERA - TRUJILLO - LA LIBERTAD TRUJILLO LA LIBERTAD,-8.1309086,-79.04017329999998
CLINICA SAN PABLO TRUJILLO,LA LIBERTAD,TRUJILLO,18404,PRIVADO,TRUJILLO,AVENIDA AV. HUSARES DE JUNIN 690 ESQ CON STA. TERESA DE JESUS - URB. LA MERCED DISTRITO TRUJILLO PROVINCIA TRUJILLO DEPARTAMENTO LA LIBERTAD  TRUJILLO LA LIBERTAD,-8.1221569,-79.0341902
GRUPO CARITA FELIZ S.A.,PIURA,PIURA,25208,PRIVADO,,GRUPO CARITA FELIZ S.A. PIURA PIURA,-5.1959525,-80.6322146
CLINICA PUNO,PUNO,PUNO,9685,PRIVADO,PUNO,JR RAMON CASTILLA 178 URB SAN VICENTE DE PAUL PUNO PUNO,-15.841466199999997,-70.022757
INSTITUTO NACIONAL DE CIENCIAS NEUROLOGICAS,LIMA,LIMA,6209,MINSA,LIMA,JR. ANCASH 1271 - LIMA LIMA LIMA,-12.0461602,-77.01590019999998
INCOR,LIMA,LIMA,18011,ESSALUD,JESUS MARIA,JIRON CORONEL FÉLIX ZEGARRA N.S 397-417-455-465-491-495 LIMA LIMA,-12.077225199999999,-77.03998879999999
CLINICA PADRE LUIS TEZZA,LIMA,LIMA,9989,PRIVADO,SANTIAGO DE SURCO,JR. EL POLO 570 MONTERRICO-SANTIAGO DE SURCO LIMA LIMA,-12.103294199999999,-76.9718807
CLINICA SAN JUDAS TADEO,LIMA,LIMA,11401,PRIVADO,SAN MIGUEL,CALLE MANUEL RAYGADA N 170 (ANEXO EN CALLE LAUREANO MARTINEZ N 140) - URB EL CAMPILLO LIMA LIMA,-12.0798541,-77.07993359999998
CLINICA EL GOLF,LIMA,LIMA,8398,PRIVADO,SAN ISIDRO,AVENIDA AV AURELIO MIROQUESADA 1030 DISTRITO SAN ISIDRO PROVINCIA LIMA DEPARTAMENTO LIMA  LIMA LIMA,-12.098856300000001,-77.05144310000001
CLINICA LIMATAMBO CAJAMARCA S.A.C.,CAJAMARCA,CAJAMARCA,9591,PRIVADO,CAJAMARCA,JR PUNO 265 CAJAMARCA CAJAMARCA,-7.151365699999999,-78.5234273
CLINICA ANGLOAMERICANA,LIMA,LIMA,9123,PRIVADO,SAN ISIDRO,CALLE ALFREDO SALAZAR N 350 LIMA LIMA,-12.109555,-77.039261
CLINICA SAN FELIPE S.A.,LIMA,LIMA,9116,PRIVADO,JESUS MARIA,AV. GREGORIO ESCOBEDO N° 650 LIMA LIMA,-12.085969,-77.05409399999998
CLINICA MONTERRICO,LIMA,LIMA,11113,PRIVADO,SANTIAGO DE SURCO,AV. MANUEL OLGUIN 1045 - 1047 LIMA LIMA,-12.1030398,-76.97392559999999
CLINICA LIMATAMBO,LIMA,LIMA,9090,PRIVADO,SAN JUAN DE LURIGANCHO,AV. PROCERES DE LA INDEPENDENCIA 2701 - Y GANIMIDES 106 - 110 LIMA LIMA,-11.986855,-77.0077168
CLÍNICA METROPOLITANA,LAMBAYEQUE,CHICLAYO,8151,PRIVADO,CHICLAYO,CALLE MANUEL MARIA IZAGA 154 CHICLAYO LAMBAYEQUE,-6.7731515999999985,-79.84328990000002
CLINICA SAN PABLO AREQUIPA,AREQUIPA,AREQUIPA,27214,PRIVADO,,CLINICA SAN PABLO AREQUIPA AREQUIPA AREQUIPA,-16.3866714,-71.556989
ANTONIO SKRABONJA ANTONCICH,ICA,PISCO,14147,ESSALUD,PISCO,AVENIDA AV. LAS AMERICAS SN SN AV. LAS AMERICAS SN PISCO PISCO ICA  PISCO ICA,-13.7169333,-76.20753789999998
ALBERTO LEONARDO BARTON THOMPSON,CALLAO,CALLAO,18319,PRIVADO,CALLAO,AVENIDA ARGENTINA  3525 CALLAO CALLAO CALLAO  CALLAO CALLAO,-12.049144400000001,-77.1080108
GUILLERMO KAELIN DE LA FUENTE,LIMA,LIMA,18580,PRIVADO,VILLA MARIA DEL TRIUNFO,AVENIDA PP.JJ. NUEVA ESPERANZA MZ 1B SUBLOTE 1 PABELLON 1 CRUCE AV. 26 DE NOVIEMBRE C AV DEFENSORES DE LIMA PP.JJ. NUEVA ESPERANZA MZ 1B SUBLOTE 1 PABELLON 1 CRUCE AV. 26 DE NOVIEMBRE C AV DEFENSORES DE LIMA VILLA MARIA DEL TRIUNFO LIMA LIMA  LIMA LIMA,-12.170633,-76.92999689999998
CLINICA PETRAS,LIMA,LIMA,18581,PRIVADO,SAN ISIDRO,CALLE CALLE 6 N° 221 - URB. CORPAC DISTRITO SAN ISIDRO PROVINCIA LIMA DEPARTAMENTO LIMA  LIMA LIMA,-12.0912383,-77.0093353
CLÍNICA CRISTO REDENTOR,LA LIBERTAD,TRUJILLO,27358,PRIVADO,,CLÍNICA CRISTO REDENTOR TRUJILLO LA LIBERTAD,-8.104231200000001,-79.00899369999998
CLINICA MONTELUZ,LIMA,LIMA,16353,PRIVADO,PUENTE PIEDRA,AVENIDA AV. BUENOS AIRES N 2307 DISTRITO PUENTE PIEDRA PROVINCIA LIMA DEPARTAMENTO LIMA  LIMA LIMA,-11.846946,-77.0977252
CLINICA SAN GABRIEL S.A.C.,LIMA,LIMA,14501,PRIVADO,SAN MIGUEL,AVENIDA AV. LA MARINA 2945-2949-2955-2965 MARANGA- SAN MIGUEL DISTRITO SAN MIGUEL PROVINCIA LIMA DEPARTAMENTO LIMA  LIMA LIMA,-12.0766003,-77.0957921
ADMINISTRADORA CLINICA TRESA,PIURA,TALARA,11396,PRIVADO,PARIÑAS,AVENIDA AVENIDA A- 108 B DISTRITO PARIAS PROVINCIA TALARA DEPARTAMENTO PIURA  TALARA PIURA,-4.578555799999999,-81.27567069999998
CLINICA SANTA ANA,CAJAMARCA,CAJAMARCA,19315,PRIVADO,CAJAMARCA,JR. AYACUCHO N° 936 - BARRIO LA COLMENA CAJAMARCA CAJAMARCA,-7.157542599999999,-78.5109591
SMQ QUIRUMEDIC SAC,LA LIBERTAD,TRUJILLO,21508,PRIVADO,TRUJILLO,CALLE WILFREDO TORRES ORTEGA N° 1034 - URBANIZACIÓN MIRAFLORES - TRUJILLO TRUJILLO LA LIBERTAD,-8.098211000000001,-79.0209725
CLINICA STELLA MARIS,LIMA,LIMA,10743,PRIVADO,PUEBLO LIBRE,AV. PASO DE LOS ANDES N 923 LIMA LIMA,-12.071091699999998,-77.05917640000001
CLINICA SAN BARTOLOME,LIMA,LIMA,17385,PRIVADO,LOS OLIVOS,AVENIDA AV. CARLOS ALBERTO IZAGUIRRE N° 1142 URB. COVIDA III ETAPA MZ A LT 16 DISTRITO LOS OLIVOS PROVINCIA LIMA DEPARTAMENTO LIMA  LIMA LIMA,-11.991493,-77.075591
CLINICA SAN JUAN DE DIOS,LIMA,LIMA,8786,PRIVADO,SAN LUIS,AVENIDA NICOLÁS ARRIOLA 3250 AV. NICOLÁS ARRIOLA 3250 SAN LUIS LIMA LIMA  LIMA LIMA,-12.065508,-76.98961109999998
HOSPITAL III DANIEL ALCIDES CARRIÓN,TACNA,TACNA,10185,ESSALUD,CALANA,CARRETERA CALANA KM 6.5 - CALANA TACNA TACNA,-17.9825833,-70.2044585
HOSPITAL NACIONAL EDGARDO REBAGLIATI MARTINS,LIMA,LIMA,8720,ESSALUD,JESUS MARIA,JIRON EDGARDO REBAGLIATI N490 LIMA LIMA,-12.0780012,-77.0402132
INSTITUTO NACIONAL DE SALUD NIÑO SAN BORJA,LIMA,LIMA,16918,MINSA,SAN BORJA,AVENIDA AV LA ROSA TORO 1250 URB JACARANDA II DISTRITO SAN BORJA PROVINCIA LIMA DEPARTAMENTO LIMA  LIMA LIMA,-12.085379099999999,-76.9919372
CLÍNICA INTERNACIONAL,LIMA,LIMA,9682,PRIVADO,SAN BORJA,AVENIDA GUARDIA CIVIL N 385 AV. GUARDIA CIVIL N 385 SAN BORJA LIMA LIMA  LIMA LIMA,-12.091744199999999,-77.0082406
AUNA CLÍNICA DELGADO,LIMA,LIMA,19049,PRIVADO,MIRAFLORES,AVENIDA AV ANGAMOS OESTE N°450-490 DISTRITO MIRAFLORES PROVINCIA LIMA DEPARTAMENTO LIMA  LIMA LIMA,-12.1132145,-77.03295809999999
CLÍNICA MÉDICA CAYETANO HEREDIA,LIMA,LIMA,10603,PRIVADO,SAN MARTIN DE PORRES,AVENIDA HONORIO DELGADO 370 INGENIERIA SMP AV. HONORIO DELGADO 370 INGENIERIA SMP SAN MARTIN DE PORRES LIMA LIMA  LIMA LIMA,-12.023537699999999,-77.05609220000001
INSTITUTO DEL CEREBRO Y LA COLUMNA VERTEBRAL,LIMA,LIMA,14361,PRIVADO,MIRAFLORES,AV. ALFREDO BENAVIDES 2965 LIMA LIMA,-12.1282032,-77.0043881
CLINICA LOS FRESNOS,CAJAMARCA,CAJAMARCA,9234,PRIVADO,CAJAMARCA,JR LOS NOGALES 179 - URBANIZACION EL INGENIO CAJAMARCA CAJAMARCA,-7.1481536,-78.51494319999998
CLINICA VIRGEN DEL PILAR SCRL,PIURA,SULLANA,10777,PRIVADO,SULLANA,CALLE BOLIVAR 285 SULLANA PIURA,-4.8912254000000015,-80.6887035
CLÍNICA SANTO TORIBIO,LIMA,LIMA,24727,PRIVADO,,CLÍNICA SANTO TORIBIO LIMA LIMA,-12.0475819,-77.0397481
HOSPITAL REGIONAL DOCENTE LAS MERCEDES,LAMBAYEQUE,CHICLAYO,4317,GOB REGIONAL,CHICLAYO,AV. LUIS GONZALES N 635 CHICLAYO LAMBAYEQUE,-6.7725342999999985,-79.8424766
CLÍNICA ESPECIALIZADA EMANUEL,LORETO,MAYNAS,24041,PRIVADO,,CLÍNICA ESPECIALIZADA EMANUEL MAYNAS LORETO,-3.7742213999999987,-73.28941400000001
MACSALUD,CUSCO,CUSCO,12161,PRIVADO,WANCHAQ,AV. DE LA CULTURA 1410 CUSCO CUSCO,-13.524784,-71.95533999999998
ESSALUD - CLINICA GERIATRICA SAN ISIDRO LABRADOR,LIMA,LIMA,10434,ESSALUD,SANTA ANITA,AVENIDA AV. CARRETERA CENTRAL 1345 KM. 3.5 DISTRITO JESUS MARIA PROVINCIA LIMA DEPARTAMENTO LIMA  LIMA LIMA,-12.047566400000001,-76.94747029999999
"INSTITUTO MEDICO ESPECIALIZADO EN DIABETES SOY DIABETICO EIRL (INSTITUTO MEDICO ESPECIALIZADO EN DIABETES ""SOY DIABETICO"")",PIURA,PIURA,13727,PRIVADO,PIURA,AVENIDA FORTUNATO CHIRICHIGNO MANZANA L LOTE 5 URB. EL CHIPE PIURA PIURA,-5.1832262,-80.62616969999998
HOSPITAL I - LA ESPERANZA,LA LIBERTAD,TRUJILLO,9040,ESSALUD,LA ESPERANZA,JIRÓN LIMA CUADRA 4 SECTOR SANTA VERÓNICA TRUJILLO LA LIBERTAD,-8.0750561,-79.05397420000001
CLINICA BELLAVISTA,CALLAO,CALLAO,9250,PRIVADO,BELLAVISTA,AV. LAS GAVIOTAS 207 URB. SAN JOSE CALLAO CALLAO,-12.0576329,-77.0965671
HOSPITAL  MOYOBAMBA,SAN MARTIN,MOYOBAMBA,6733,GOB REGIONAL,MOYOBAMBA,CARRETERA CARRETERA BAOS TERMALES KM 1.5 CARRETERA BAOS TERMALES KM 1.5 MOYOBAMBA MOYOBAMBA SAN MARTIN  MOYOBAMBA SAN MARTIN,-6.041571599999999,-76.97079190000001
HOSPITAL DE APOYO SANTA ROSA,LIMA,LIMA,6211,MINSA,PUEBLO LIBRE,AV. BOLIVAR SN CUADRA 8 LIMA LIMA,-12.0915579,-77.05607850000001
CLÍNICA MADRE DE CRISTO,LA LIBERTAD,TRUJILLO,21412,PRIVADO,LA ESPERANZA,AV JOSE GABRIEL CONDORCANQUI 1397 TRUJILLO LA LIBERTAD,-8.0796888,-79.0460971
CHENET CLINICA ESPECIALIZADA,JUNIN,HUANCAYO,27694,PRIVADO,,CHENET CLINICA ESPECIALIZADA HUANCAYO JUNIN,-12.060232899999999,-75.215195
CLINICA GAXAY E.I.R.L.,ICA,CHINCHA,17493,PRIVADO,CHINCHA ALTA,AVENIDA AMERICA MZ B LT 03 DISTRITO CHINCHA ALTA PROVINCIA CHINCHA DEPARTAMENTO ICA  CHINCHA ICA,-13.432723699999999,-76.13371149999998
CLINICA BILBAO,JUNIN,HUANCAYO,25971,PRIVADO,,CLINICA BILBAO HUANCAYO JUNIN,-12.0703605,-75.2150134
CLINICA MEDICO QUIRURGICO HUANCAYO,JUNIN,HUANCAYO,25383,PRIVADO,,CLINICA MEDICO QUIRURGICO HUANCAYO HUANCAYO JUNIN,-12.0731459,-75.22083570000001
HOSPITAL PROVINCIAL DE JULCAN,LA LIBERTAD,JULCAN,5306,GOB REGIONAL,JULCAN,JIRÓN JR CAPULY SN JULCAN NÚMERO SN DISTRITO JULCAN PROVINCIA JULCAN DEPARTAMENTO LA LIBERTAD  JULCAN LA LIBERTAD,-8.0428018,-78.48720550000002
HOGAR CLINICA SAN JUAN DE DIOS-CUSCO,CUSCO,CUSCO,16541,PRIVADO,CUSCO,AVENIDA AVENIDA MANZANARES N°264 URBANIZACION MANUEL PRADO AVENIDA MANZANARES N°264 URBANIZACION MANUEL PRADO CUSCO CUSCO CUSCO  CUSCO CUSCO,-13.523113500000001,-71.9533239
CLINICA LA LUZ,TACNA,TACNA,27462,PRIVADO,,CLINICA LA LUZ TACNA TACNA,-18.0226885,-70.2590629
HOSPITAL  DIOSPI SUYANA,APURIMAC,ABANCAY,8108,PRIVADO,CURAHUASI,SECTOR CCOCHARAY SN ABANCAY APURIMAC,-13.6301155,-72.8788627
SANTA MARIA DE CUTERVO,CAJAMARCA,CUTERVO,4981,GOB REGIONAL,CUTERVO,JR. EL INCA SN-CUTERVO CUTERVO CAJAMARCA,-6.3886651,-78.817185
INO DR. FRANCISCO CONTRERAS C.,LIMA,LIMA,6217,MINSA,LIMA,AVENIDA AV. TINGO MARÍA N 398 DISTRITO LIMA PROVINCIA LIMA DEPARTAMENTO LIMA  LIMA LIMA,-12.0514395,-77.0551828
CLINICA RENACER,LIMA,LIMA,19671,PRIVADO,MIRAFLORES,CALLE CALLE CORONEL INCLAN N° 986 DISTRITO MIRAFLORES PROVINCIA LIMA DEPARTAMENTO LIMA  LIMA LIMA,-12.109812300000002,-77.0313475
AUNA CLINICA MIRAFLORES,PIURA,PIURA,13494,PRIVADO,CASTILLA,CALLE LAS DALIAS A-12-URB.MIRAFLORES-CASTILLA-PIURA PIURA PIURA,-5.1943519999999985,-80.6225788
CLINICA DEL PACIFICO,LAMBAYEQUE,CHICLAYO,8750,PRIVADO,CHICLAYO,AV. JOSÉ LEONARDO ORTIZ N 420 CHICLAYO LAMBAYEQUE,-6.7747522999999985,-79.84581379999999
OXIGEN MEDICAL NETWORK,CUSCO,CUSCO,24173,PRIVADO,SANTIAGO,CALLE BELLAVISTA NÚMERO 1 MANZANA C LOTE 11 URBANIZACIÓN RESIDENCIAL HUANCARO DISTRITO SANTIAGO PROVINCIA CUSCO DEPARTAMENTO CUSCO  CUSCO CUSCO,-13.534035000000001,-71.974099
CLINICA AREQUIPA S.A.,AREQUIPA,AREQUIPA,13722,PRIVADO,AREQUIPA,ESQUINA PUENTE GRAU CON AVENIDA BOLOGNESI SIN NUMERO AREQUIPA AREQUIPA,-16.352808300000003,-71.54228499999998
SERVICIOS MEDICOS CLINICA SANTA ANITA SRL,LORETO,MAYNAS,12170,PRIVADO,IQUITOS,JIRÓN JIRON BOLOGNESI N° 1223 DISTRITO IQUITOS PROVINCIA MAYNAS DEPARTAMENTO LORETO  MAYNAS LORETO,-3.7568762,-73.2536813
CLINICA OLGUIN E.I.R.L (CLINICA OLGUIN),PIURA,SULLANA,16148,PRIVADO,SULLANA,CALLE SUCRE N 1300 SULLANA PIURA,-4.8972926,-80.69503440000003
CLINICA J. PRADO SANTA MARIA E.I.R.L.,AREQUIPA,AREQUIPA,19481,PRIVADO,MARIANO MELGAR,AV. MARISCAL CASTILLA 723 AREQUIPA AREQUIPA,-16.4034996,-71.51522220000001
LAS CONDES SAC,ICA,ICA,13386,PRIVADO,ICA,AVENIDA CONDE DE NIEVA N° 1073 URB LUREN DISTRITO ICA PROVINCIA ICA DEPARTAMENTO ICA  ICA ICA,-14.079834400000001,-75.72326559999998
CLINICA UNIVERSITARIA,LIMA,LIMA,8519,PRIVADO,COMAS,AV. UNIVERSITARIA N° 6062 Y JR. PAGADOR N 137 URB. SANTA LUZMILA LIMA LIMA,-11.951404,-77.059539
HOSPITAL II CAÑETE,LIMA,CAÑETE,10536,ESSALUD,SAN VICENTE DE CAÑETE,AV. MARISCAL BENAVIDES N 495 CAETE LIMA,-13.0751576,-76.38014270000001
HOSP. IV AUGUSTO HERNANDEZ MENDOZA,ICA,ICA,16374,ESSALUD,ICA,AVENIDA AV. JOSÉ MATIAS MANZANILLA SN NÚMERO SN DISTRITO ICA PROVINCIA ICA DEPARTAMENTO ICA  ICA ICA,-14.0649395,-75.7351139
CLINICA ALMONTE SAC,AREQUIPA,AREQUIPA,11995,PRIVADO,AREQUIPA,CALLE CALLE MANUEL UGARTECHE 311 URB. SELVA ALEGRE DISTRITO AREQUIPA PROVINCIA AREQUIPA DEPARTAMENTO AREQUIPA  AREQUIPA AREQUIPA,-16.3897115,-71.5291119
CLINICA MUNDO SALUD SAC,LIMA,LIMA,9641,PRIVADO,LOS OLIVOS,AV. CARLOS IZAGUIRRE NO 1234 LIMA LIMA,-11.991413900000001,-77.076977
HOSPITAL HIGOS URCO,AMAZONAS,CHACHAPOYAS,9066,ESSALUD,CHACHAPOYAS,JR. ORTIZ ARRIETA N° 612 CHACHAPOYAS AMAZONAS,-6.235473499999999,-77.8733506
CLÍNICA MEDICA SALAZAR,JUNIN,HUANCAYO,24425,PRIVADO,,CLÍNICA MEDICA SALAZAR HUANCAYO JUNIN,-12.059968300000001,-75.20490720000001
HOSPITAL I OXAPAMPA,PASCO,OXAPAMPA,9748,ESSALUD,OXAPAMPA,PROLONGACION ENRIQUE BOTTGER SN DISTRITO PROVINCIA DE OXAPAMPA Y REGIÓN PASCO OXAPAMPA PASCO,-10.5764218,-75.4031286
HOSPITAL EL BUEN SAMARITANO,AMAZONAS,UTCUBAMBA,9067,ESSALUD,BAGUA GRANDE,JR. ANGAMOS N 990 UTCUBAMBA AMAZONAS,-5.7515038,-78.44625500000001
DETECTA CLINICA,LIMA,LIMA,12206,PRIVADO,SURQUILLO,AVENIDA ANGAMOS ESTE N° 2688 DISTRITO SURQUILLO PROVINCIA LIMA DEPARTAMENTO LIMA  LIMA LIMA,-12.111651400000001,-76.99567619999998
HOSPITAL  SELVA CENTRAL Y ENFERMEDADES TROPICALES LA MERCED,JUNIN,CHANCHAMAYO,8656,ESSALUD,CHANCHAMAYO,JR. LOS CAUCHOS N 223-271 Y JR. LOS ROBLES N 527 CHANCHAMAYO JUNIN,-11.0575884,-75.33717320000001
HOSPITAL NACIONAL DOCENTE MADRE NIÑO SAN BARTOLOME,LIMA,LIMA,6215,MINSA,LIMA,AVENIDA AV ALFONSO UGARTE N 825 LIMA CERCADO AV ALFONSO UGARTE N 825 LIMA CERCADO LIMA LIMA LIMA  LIMA LIMA,-12.049814900000001,-77.04215490000001
SAN MARTIN DE PANGOA,JUNIN,SATIPO,442,GOB REGIONAL,PANGOA,AV. PANGOA SN ESQUINA CON AV. ESPAA SATIPO JUNIN,-11.4282809,-74.4889972
HOSPITAL I LAMPA - ESSALUD - RED ASISTENCIAL JULIACA,PUNO,LAMPA,9900,ESSALUD,LAMPA,JR. ALFONSO UGARTE 124 - LAMPA. LAMPA PUNO,-15.363830800000002,-70.3686017
HOSPITAL NACIONAL SERGIO E. BERNALES,LIMA,LIMA,7634,MINSA,COMAS,AV. TUPAC AMARU KM. 14.5 LIMA LIMA,-11.9331579,-77.04557040000002
HOSPITAL III EMERGENCIAS GRAU,LIMA,LIMA,8502,ESSALUD,LIMA,AVENIDA GRAU N° 351 LIMA LIMA,-12.0589621,-77.0310482
NACIONAL  DOS DE MAYO,LIMA,LIMA,6206,MINSA,LIMA,PARQUE HISTORIA DE LA MEDICINA PERUANA SN ALTURA CUADRA 13 AV GRAU LIMA LIMA,-12.056755099999998,-77.016015
HOSPITAL II CHOCOPE,LA LIBERTAD,ASCOPE,9037,ESSALUD,CHOCOPE,PANAMERICANA NORTE KM N° 604 DISTRITO JESUS MARIA PROVINCIA LIMA DEPARTAMENTO LIMA  ASCOPE LA LIBERTAD,-11.8453073,-77.09871340000001
HOSPITAL DE PAMPAS,HUANCAVELICA,TAYACAJA,4074,GOB REGIONAL,PAMPAS,JIRÓN BOLIVAR SN SN JR. BOLIVAR SN PAMPAS TAYACAJA HUANCAVELICA  TAYACAJA HUANCAVELICA,-12.402274,-74.86682900000001
ESSALUD - HOSPITAL I JORGE VOTO BERNALES CORPANCHO,LIMA,LIMA,8318,ESSALUD,SANTA ANITA,CARRETERA CENTRAL KM. 3.5 N 1351 LIMA LIMA,-12.05157,-76.95742039999998
HOSPITAL I VICTOR ALFREDO LAZO PERALTA,MADRE DE DIOS,TAMBOPATA,9319,ESSALUD,TAMBOPATA,AV. ANDRES AVELINO CACERES N 560 TAMBOPATA MADRE DE DIOS,-12.588511599999999,-69.21932170000001
"HOSPITAL DE APOYO DE PUQUIO ""FELIPE HUAMÁN POMA DE AYALA""",AYACUCHO,LUCANAS,3727,GOB REGIONAL,PUQUIO,AV. ARNALDO ALVARADO DE GREGORY N 969 - PUQUIO LUCANAS AYACUCHO,-14.686353200000001,-74.1195572
CLINICA FEIJOO EIRL,TUMBES,TUMBES,7874,PRIVADO,TUMBES,AV. MARISCAL CASTILLA N° 305 TUMBES TUMBES,-3.5719024,-80.45673459999998
HOSPITAL DE EMERGENCIA ATE VITARTE,LIMA,LIMA,28025,MINSA,,HOSPITAL DE EMERGENCIA ATE VITARTE LIMA LIMA,-12.0253814,-76.91785379999999
HOSPITAL II JORGE REATEGUI DELGADO,PIURA,PIURA,10244,ESSALUD,PIURA,AVENIDA GRAU N° 1150 PIURA PIURA,-5.193747,-80.63659670000001
HOSPITAL I TINGO MARIA,HUANUCO,LEONCIO PRADO,9180,ESSALUD,RUPA-RUPA,JR. BOLOGNESI 120 PPJJ TUPAC AMARU LEONCIO PRADO HUANUCO,-9.297105300000002,-75.9995756
HOSPITAL REGIONAL GUILLERMO DIAZ DE LA VEGA,APURIMAC,ABANCAY,7719,GOB REGIONAL,ABANCAY,AV DANIEL ALCIDES CARRION SN ABANCAY APURIMAC,-13.638739000000001,-72.8827854
HOSPITAL DISTRITAL JERUSALEN,LA LIBERTAD,TRUJILLO,5226,GOB REGIONAL,LA ESPERANZA,AVENIDA AVENIDA LOS CEDROS CUADRA 4 CS DISTRITO LA ESPERANZA PROVINCIA TRUJILLO DEPARTAMENTO LA LIBERTAD  TRUJILLO LA LIBERTAD,-8.0690033,-79.05438769999998
HOSPITAL NACIONAL GUILLERMO ALMENARA IRIGOYEN,LIMA,LIMA,9251,ESSALUD,LA VICTORIA,AV. GRAU N 800 LIMA LIMA,-12.058308199999999,-77.0224618
HOSPITAL MARIA AUXILIADORA,LIMA,LIMA,5987,MINSA,SAN JUAN DE MIRAFLORES,CALLE MIGUEL IGLESIAS N°968 LIMA LIMA,-12.1606065,-76.9587367
HOSPITAL II TALARA,PIURA,TALARA,12243,ESSALUD,PARIÑAS,AV. PANAMERICANA SN CARRETERA A LOBITOS TALARA PIURA,-7.8404507,-79.1510661
HOSPITAL DISTRITAL LAREDO,LA LIBERTAD,TRUJILLO,5231,GOB REGIONAL,LAREDO,AVENIDA ANTENOR ORREGO SN URB. CENTENARIO NÚMERO SN DISTRITO LAREDO PROVINCIA TRUJILLO DEPARTAMENTO LA LIBERTAD  TRUJILLO LA LIBERTAD,-8.127048700000001,-79.0314756
HOSPITAL II CLINICA JAEN,CAJAMARCA,JAEN,10136,ESSALUD,JAEN,CALLE MARIANO MELGAR N 192- URB. SANTA BEATRIZ JAEN CAJAMARCA,-5.705445200000001,-78.80467209999998
HOSPITAL II HUANCAVELICA,HUANCAVELICA,HUANCAVELICA,9132,ESSALUD,ASCENSION,AV. FELIX R. CRISPIN VARGAS SN HUANCAVELICA HUANCAVELICA,-12.7832573,-74.9890025
HOSPITAL II CAJAMARCA,CAJAMARCA,CAJAMARCA,10272,ESSALUD,CAJAMARCA,AV. MARIO URTEAGA NO  SN CAJAMARCA CAJAMARCA,-7.159377900000001,-78.50977490000001
HOSPITAL I OCTAVIO MONGRUT MUÑOZ,LIMA,LIMA,8564,ESSALUD,SAN MIGUEL,AV PARQUE DE LAS LEYENDAS 255 LIMA LIMA,-12.065938099999999,-77.09458269999998
HOSPITAL GOYENECHE,AREQUIPA,AREQUIPA,1232,GOB REGIONAL,AREQUIPA,AVENIDA GOYENECHE N° 100 AREQUIPA AREQUIPA,-16.402465900000003,-71.5288751
HOSPITAL II LUIS HEYSEN INCHAUSTEGUI,LAMBAYEQUE,CHICLAYO,11020,ESSALUD,PIMENTEL,KM. 3.5 CARRETERA CHICLAYO-PIMENTEL CHICLAYO LAMBAYEQUE,-6.7876673,-79.8799082
HOSPITAL DE ESPECIALIDADES BASICAS LA NORIA,LA LIBERTAD,TRUJILLO,5204,GOB REGIONAL,TRUJILLO,AVENIDA AVENIDA BLAS PASCAL N 124 URBANIZACION LA NORIA DISTRITO TRUJILLO PROVINCIA TRUJILLO DEPARTAMENTO LA LIBERTAD  TRUJILLO LA LIBERTAD,-8.103728,-79.0103354
"HOSPITAL DE APOYO DE HUANTA ""DANIEL ALCIDES CARRIÓN""",AYACUCHO,HUANTA,3655,GOB REGIONAL,HUANTA,AV. MARISCAL CASTILLA  N 625 HUANTA AYACUCHO,-12.936454300000001,-74.25174849999998
HOSPITAL  JESUS NAZARENO,AYACUCHO,HUAMANGA,3575,GOB REGIONAL,JESUS NAZARENO,JR. CIRO ALEGRIA N 800 HUAMANGA AYACUCHO,-13.155645100000001,-74.2142113
HOSPITAL REGIONAL MOQUEGUA,MOQUEGUA,MARISCAL NIETO,7732,GOB REGIONAL,MOQUEGUA,AVENIDA SAN ANTONIO NORTE SN MARISCAL NIETO MOQUEGUA,-17.205437600000003,-70.9529408
"HOSPITAL REGIONAL DE AYACUCHO ""MIGUEL ANGEL MARISCAL LLERENA""",AYACUCHO,HUAMANGA,3543,GOB REGIONAL,AYACUCHO,JIRÓN INDEPENDENCIA N355 URB. MARISCAL CACERES HUAMANGA AYACUCHO,-13.1497751,-74.22391879999998
CLINICA EL NAZARENO,AYACUCHO,HUAMANGA,8154,PRIVADO,AYACUCHO,JR. QUINUA N 428 HUAMANGA AYACUCHO,-13.1552562,-74.22318390000001
HOSPITAL DE APOYO  SAN MIGUEL,AYACUCHO,LA MAR,3792,GOB REGIONAL,SAN MIGUEL,AV. RAMON CASTILLA SN LA MAR AYACUCHO,-13.012467,-73.98124200000001
HOSPITAL III JOSE CAYETANO HEREDIA,PIURA,PIURA,15230,ESSALUD,CASTILLA,AV. INDEPENDENCIA SN PIURA PIURA,-5.188230799999999,-80.61856350000001
HOSPITAL I CARLOS ALCANTARA BUTTERFIELD,LIMA,LIMA,10135,ESSALUD,LA MOLINA,AV. LOS CONSTRUCTORES 1201 - URB. COVIMA LIMA LIMA,-12.062130999999999,-76.94554389999998
HOSPITAL DE APOYO OTUZCO ELPIDIO BEROVIDES PEREZ,LA LIBERTAD,OTUZCO,5314,GOB REGIONAL,OTUZCO,JIRÓN JR. PROGRESO N 385 DISTRITO OTUZCO PROVINCIA OTUZCO DEPARTAMENTO LA LIBERTAD  OTUZCO LA LIBERTAD,-7.9051554999999984,-78.56522259999998
HOSPITAL III YANAHUARA,AREQUIPA,AREQUIPA,13291,ESSALUD,YANAHUARA,AV. ZAMACOLA Y AV. ENMEL SN AREQUIPA AREQUIPA,-16.3960644,-71.54496499999998
HOSPITAL PROVINICIAL DE CASCAS,LA LIBERTAD,GRAN CHIMU,5277,GOB REGIONAL,CASCAS,AVENIDA AV. LIBERTAD N 249 DISTRITO CASCAS PROVINCIA GRAN CHIMU DEPARTAMENTO LA LIBERTAD  GRAN CHIMU LA LIBERTAD,-7.4813907,-78.81741059999999
HOSPITAL DISTRITAL VISTA ALEGRE,LA LIBERTAD,TRUJILLO,5243,GOB REGIONAL,VICTOR LARCO HERRERA,JIRÓN JIRON BERNARDO ALCEDO N 193 DISTRITO VICTOR LARCO HERRERA PROVINCIA TRUJILLO DEPARTAMENTO LA LIBERTAD  TRUJILLO LA LIBERTAD,-8.1383948,-79.04851599999998
HOSPITAL PROVINCIAL DE BOLIVAR,LA LIBERTAD,BOLIVAR,5366,GOB REGIONAL,BOLIVAR,AVENIDA AV. DOS DE MAYO N 120 DISTRITO BOLIVAR PROVINCIA BOLIVAR DEPARTAMENTO LA LIBERTAD  BOLIVAR LA LIBERTAD,-7.151213599999998,-77.707685
"INSTITUTO NACIONAL DE REHABILITACION ""DRA. ADRIANA REBAZA FLORES"" AMISTAD PERU - JAPON",LIMA,LIMA,7734,MINSA,CHORRILLOS,AVENIDA AV. DEFENSORES DEL MORRO N° 213 - 215 DISTRITO CHORRILLOS PROVINCIA LIMA DEPARTAMENTO LIMA  LIMA LIMA,-12.1668011,-77.02617240000001
HOSPITAL DE APOYO CANGALLO,AYACUCHO,CANGALLO,3494,GOB REGIONAL,CANGALLO,JR. SANTA ROSA N 110 CANGALLO AYACUCHO,-13.6291985,-74.14389899999998
HOSPITAL BASE III JULIACA - ESSALUD - RED ASISTENCIAL JULIACA,PUNO,SAN ROMAN,9899,ESSALUD,JULIACA,AV. JOSÉ SANTOS CHOCANO SN  LA CAPILLA JULIACA. SAN ROMAN PUNO,-15.490458800000003,-70.1631158
HOSPITAL DE APOYO LEONCIO PRADO,LA LIBERTAD,SANCHEZ CARRION,5349,GOB REGIONAL,HUAMACHUCO,AVENIDA 10 DE JULIO N 209 DISTRITO HUAMACHUCO PROVINCIA SANCHEZ CARRION DEPARTAMENTO LA LIBERTAD  SANCHEZ CARRION LA LIBERTAD,-7.817105099999999,-78.04397279999998
HOSPITAL DISTRITAL EL ESFUERZO DE FLORENCIA DE MORA,LA LIBERTAD,TRUJILLO,5217,GOB REGIONAL,FLORENCIA DE MORA,CALLE CALLE 18 DE MAYO N 1356 DISTRITO FLORENCIA DE MORA PROVINCIA TRUJILLO DEPARTAMENTO LA LIBERTAD  TRUJILLO LA LIBERTAD,-8.0875162,-79.02553370000001
HOSPITAL DE APOYO TOMAS LAFORA,LA LIBERTAD,PACASMAYO,5292,GOB REGIONAL,GUADALUPE,JIRÓN JR. LA VICTORIA SN NÚMERO SN DISTRITO GUADALUPE PROVINCIA PACASMAYO DEPARTAMENTO LA LIBERTAD  PACASMAYO LA LIBERTAD,-7.2416741999999985,-79.47454239999998
FELIX TORREALVA GUTIERREZ,ICA,ICA,13912,ESSALUD,ICA,AVENIDA AV. CUTERVO N° 104 DISTRITO ICA PROVINCIA ICA DEPARTAMENTO ICA  ICA ICA,-14.0715791,-75.7269957
HOSPITAL BELEN DE TRUJILLO,LA LIBERTAD,TRUJILLO,5195,GOB REGIONAL,TRUJILLO,JIRÓN JIRON BOLIVAR 350 DISTRITO TRUJILLO PROVINCIA TRUJILLO DEPARTAMENTO LA LIBERTAD  TRUJILLO LA LIBERTAD,-8.114493399999999,-79.02795400000001
"HOSPITAL PROVINCIAL ASCOPE ""ROSA SANCHEZ DE SANTILLAN""",LA LIBERTAD,ASCOPE,5263,GOB REGIONAL,ASCOPE,AVENIDA AV. GRAU SN NÚMERO SN DISTRITO ASCOPE PROVINCIA ASCOPE DEPARTAMENTO LA LIBERTAD  ASCOPE LA LIBERTAD,-7.713480399999999,-79.1072765
"HOSPITAL II LIMA NORTE CALLAO ""LUIS NEGREIROS VEGA"" ESSALUD",CALLAO,CALLAO,10533,ESSALUD,CALLAO,AV. TOMAS VALLE DRA.39 - URB. VIPOL CALLAO CALLAO,-12.0144283,-77.0964431
RENE TOCHE GROPPO,ICA,CHINCHA,13910,ESSALUD,CHINCHA ALTA,AV. SAN ILDEFONSO N° 101 CHINCHA ICA,-13.424594899999999,-76.13290129999999
HOSPITAL DE APOYO SAN FRANCISCO,AYACUCHO,LA MAR,3754,GOB REGIONAL,AYNA,AV. HUANTA SN LA MAR AYACUCHO,-12.6235962,-73.791055
HOSPITAL I HEROES DEL CENEPA,AMAZONAS,BAGUA,9068,ESSALUD,BAGUA,JR. LAMBAYEQUE N° 517 BAGUA AMAZONAS,-5.633839,-78.53430240000002
CLINICAS SAN BERNARDO S.A.,LIMA,LIMA,8351,PRIVADO,PUEBLO LIBRE,CALLE CALLE SAN  JOSE 161 DISTRITO PUEBLO LIBRE PROVINCIA LIMA DEPARTAMENTO LIMA  LIMA LIMA,-12.085039300000002,-77.06284219999998
HOSPITAL III BASE  (PUNO) - RED ASISTENCIAL PUNO,PUNO,PUNO,9215,ESSALUD,PUNO,JR. FRANCISCO CACERES JARA N 600 - DEL PARQUE INDUSTRIAL SALCEDO PUNO PUNO,-15.874125699999999,-70.00033409999999
HOSPITAL II TARAPOTO,SAN MARTIN,SAN MARTIN,27733,ESSALUD,,HOSPITAL II TARAPOTO SAN MARTIN SAN MARTIN,-6.473300099999999,-76.37082120000001
HOSPITAL NACIONAL ARZOBISPO LOAYZA,LIMA,LIMA,6207,MINSA,LIMA,AV. ALFONSO UGARTE 848 LIMA LIMA,-12.0499974,-77.04264640000001
HOSPITAL II HUANUCO,HUANUCO,HUANUCO,10571,ESSALUD,AMARILIS,JR.JOSE OLAYA C.2 HUANUCO HUANUCO,-9.9372551,-76.2394027
HOSPITAL II PASCO,PASCO,PASCO,9747,ESSALUD,SIMON BOLIVAR,BARRIO BUENOS AIRES SN PASCO PASCO,-10.6639323,-76.25359619999998
HOSPITAL II RAMON CASTILLA,LIMA,LIMA,9188,ESSALUD,LIMA,JIRÓN JIRÓN GUILLERMO DANSEY N 390 JIRÓN GUILLERMO DANSEY N 390 LIMA LIMA LIMA  LIMA LIMA,-12.045442999999999,-77.04140500000001
HOSPITAL NACIONAL ALBERTO SABOGAL SOLOGUREN DE LA RED ASISTENCIAL SABOGAL,CALLAO,CALLAO,8265,ESSALUD,BELLAVISTA,JR. COLINA NRO. 1081 CALLAO CALLAO,-12.0641779,-77.12243579999998
HOSPITAL NACIONAL RAMIRO PRIALE PRIALE,JUNIN,HUANCAYO,8652,ESSALUD,EL TAMBO,AVENIDA INDEPENDENCIA N 296 HUANCAYO JUNIN,-12.0532746,-75.2328684
ADOLFO GUEVARA VELASCO,CUSCO,CUSCO,10041,ESSALUD,WANCHAQ,AV. ANSELMO ALVAREZ SN CUSCO CUSCO,-13.524952800000001,-71.96133940000001
HOSPITAL NACIONAL ALMANZOR AGUINAGA ASENJO,LAMBAYEQUE,CHICLAYO,8577,ESSALUD,CHICLAYO,PLAZA DE LA SEGURIDAD SOCIAL SN CHICLAYO LAMBAYEQUE,-6.773263999999998,-79.83072469999998
HOSPITAL I MARINO MOLINA SCIPPA,LIMA,LIMA,8671,ESSALUD,COMAS,AV. GUILLERMO DE LA FUENTE NO 515 URB. SANTA LUZMILA LIMA LIMA,-11.943613800000001,-77.05763950000001
HOSPITAL I EDMUNDO ESCOMEL,AREQUIPA,AREQUIPA,13296,ESSALUD,PAUCARPATA,AV. CAYRO SN AREQUIPA AREQUIPA,-16.416985699999998,-71.50817679999999
HOSPITAL III CHIMBOTE,ANCASH,SANTA,9047,ESSALUD,CHIMBOTE,AV.CIRCUNVALACION N 119 - LADERAS DEL NORTE SANTA ANCASH,-9.061181199999998,-78.58844029999999
HOSPITAL I CLINICA UNIVERSITARIA,PUNO,PUNO,25544,ESSALUD,,HOSPITAL I CLINICA UNIVERSITARIA PUNO PUNO,-15.8616104,-70.00129770000001
HOSPITAL II ILO,MOQUEGUA,ILO,16153,ESSALUD,ILO,JIRON MIRAMAR SN ILO MOQUEGUA,-17.636494,-71.334124
SEGURO SOCIAL DE SALUD - ESSALUD,APURIMAC,ABANCAY,11213,ESSALUD,ABANCAY,SUB LOTE A PARTE INTEGRANTE DEL LOTE 61 Y 61A QUINTA CAYETANA PATIBAMBA ABANCAY APURIMAC,-13.641832999999998,-72.896801
ULDARICO ROCCA FERNANDEZ,LIMA,LIMA,8741,ESSALUD,VILLA EL SALVADOR,AV.SEPARADORA INDUSTRIAL Y AV. CESAR VALLEJO LIMA LIMA,-12.2106115,-76.93169329999998
ESSALUD - HOSPITAL I YURIMAGUAS,LORETO,ALTO AMAZONAS,20274,ESSALUD,YURIMAGUAS,HUMBOLT N° 100 ALTO AMAZONAS LORETO,-5.896292799999999,-76.1161817
HOSPITAL II PUCALLPA- ESSALUD,UCAYALI,CORONEL PORTILLO,9600,ESSALUD,CALLERIA,AV.LLOQUE YUPANQUI  510 CORONEL PORTILLO UCAYALI,-8.3938454,-74.5364676
HOSPITAL  MILITAR LUIS ARIAS SCHEREIBER,LIMA,LIMA,17024,FFAA Y PNP,JESUS MARIA,AV FAUSTINO SANCHEZ CARRION SN (EX. AV PERSHIN SN) LIMA LIMA,-12.0889569,-77.0595731
HOSPITAL II MOQUEGUA,MOQUEGUA,MARISCAL NIETO,16157,ESSALUD,MOQUEGUA,URBANIZACION CAPILLUNE SN SAN FRANCISCO MARISCAL NIETO MOQUEGUA,-17.194668399999998,-70.95415320000001
HOSPITAL I ALTO MAYO,SAN MARTIN,MOYOBAMBA,15598,ESSALUD,MOYOBAMBA,JR. 20 DE ABRIL NRO 347 MOYOBAMBA SAN MARTIN,-6.0386631999999985,-76.9711884
ESSALUD - HOSPITAL II VITARTE,LIMA,LIMA,8353,ESSALUD,ATE,JR. SAN MARTIN DE PORTES 265 LIMA LIMA,-12.0894516,-77.07089870000001
HOSPITAL I SANTA MARGARITA,APURIMAC,ANDAHUAYLAS,11214,ESSALUD,ANDAHUAYLAS,JR. AYACUCHO 740 ANDAHUAYLAS APURIMAC,-13.650717000000002,-73.436368
HOSPITAL AURELIO DIAZ UFANO Y PERAL,LIMA,LIMA,8317,ESSALUD,SAN JUAN DE LURIGANCHO,CALLE MAJES SN G-11 - URB. LOS PINOS LIMA LIMA,-12.1182819,-76.99496909999998
HOSPITAL NACIONAL III-1 CARLOS ALBERTO SEGUÍN ESCOBEDO,AREQUIPA,AREQUIPA,13290,ESSALUD,AREQUIPA,ESQUINA PERAL - EL FILTRO SN AREQUIPA AREQUIPA,-16.3935253,-71.53063320000001
HOSPITAL II DE HUAMANGA,AYACUCHO,HUAMANGA,11775,ESSALUD,SAN JUAN BAUTISTA,AV. VENEZUELA SN HUAMANGA AYACUCHO,-13.1700375,-74.2139042
HOSPITAL II MANUEL DE TORRES MUÑOZ -  MOLLENDO,AREQUIPA,ISLAY,13295,ESSALUD,MOLLENDO,CALLE JUAN B. ARENAS SN MOLLENDO ISLAY AREQUIPA,-17.0192967,-72.0160623
HOSPITAL II ALBERTO HURTADO ABADIA - LA OROYA,JUNIN,YAULI,8653,ESSALUD,SANTA ROSA DE SACCO,AVENIDA MIGUEL GRAU N 1250 YAULI JUNIN,-11.5432031,-75.929502
HOSPITAL II GUSTAVO LANATTA LUJAN - ESSALUD,LIMA,HUAURA,11337,ESSALUD,HUACHO,AVENIDA FRANCISCO VIDAL N 707 HUAURA LIMA,-11.1129497,-77.60870600000001
HOSPITAL I SAMUEL PASTOR DE CAMANA ESSALUD,AREQUIPA,CAMANA,11009,ESSALUD,SAMUEL PASTOR,AV. PLAZA DE ARMAS SN SAMUEL PASTOR - LA PAMPA CAMANA AREQUIPA,-16.6136795,-72.69912020000001
HOSPITAL I TARMA,JUNIN,TARMA,8654,ESSALUD,TARMA,AVENIDA ODRIA SN CD. 14 TARMA JUNIN,-11.4025582,-75.6849146
CENTRO MEDICO RIOJA - ESSALUD,SAN MARTIN,RIOJA,21003,ESSALUD,RIOJA,CRUCERO JR. CHACHAPOYAS CDRA11 CON JR. LUIS LINARES CDRA10 - BARRIO CASCAYUNGA RIOJA SAN MARTIN,-6.0670575,-77.1717963
HOSPITAL I ESSALUD-SULLANA,PIURA,SULLANA,10267,ESSALUD,SULLANA,CALLE SANTA CLARA MZA O LOTE 44 SANCHEZ CERRO SULLANA PIURA,-4.903638,-80.68643229999998
HOSPITAL II HUARAZ,ANCASH,HUARAZ,9053,ESSALUD,INDEPENDENCIA,AV INDEPENDENCIA N 2161 BARRIO VICHAY HUARAZ ANCASH,-9.4932351,-77.5374156
HOSPITAL II - E HUARIACA,PASCO,PASCO,9749,ESSALUD,HUARIACA,CARRETERA CENTRAL SN HUARIACA DISTRITO DE HUARIACA PROVINCIA Y REGIÓN PASCO PASCO PASCO,-10.444015199999999,-76.1885171
HOSPITAL REGIONAL DEL SUR,AREQUIPA,AREQUIPA,11448,FFAA Y PNP,CERRO COLORADO,AVENIDA AVIACION SN AREQUIPA AREQUIPA,-16.366426,-71.56378459999998
HOSPITAL DISTRITAL ALTO MOCHE-WALTER CRUZ VILCA,LA LIBERTAD,TRUJILLO,7152,GOB REGIONAL,MOCHE,OTROS MZ N 37 LOTE 01 DISTRITO MOCHE PROVINCIA TRUJILLO DEPARTAMENTO LA LIBERTAD  TRUJILLO LA LIBERTAD,-8.1852546,-78.98919570000001
HOSPITAL DE APOYO DE CORACORA,AYACUCHO,PARINACOCHAS,3523,GOB REGIONAL,CORACORA,AV. NELLO CATANZARO  SN PARINACOCHAS AYACUCHO,-15.0135416,-73.78267890000002
HOSPITAL CENTRAL DE LA FUERZA AEREA DEL PERU,LIMA,LIMA,10751,FFAA Y PNP,MIRAFLORES,AV. ARAMBURU 2DA. CUADRA SN LIMA LIMA,-12.103800300000001,-77.02993590000001
JULI,PUNO,CHUCUITO,2990,GOB REGIONAL,JULI,AVENIDA PANAMERICANA SN CHUCUITO PUNO,-15.891345000000001,-69.887985
ESSALUD - HOSPITAL III SUÁREZ ANGAMOS,LIMA,LIMA,8489,ESSALUD,MIRAFLORES,AV. ANGAMOS ESTE N 261 LIMA LIMA,-12.113361,-77.028143
"Centro de Atención y Aislamiento COVID-19 ""Villa Panamericana""",LIMA,LIMA,28024,ESSALUD,,Centro de Atención y Aislamiento COVID-19 Villa Panamericana LIMA LIMA,-12.2037784,-76.9571046
HOSPITAL I RIO NEGRO - SATIPO,JUNIN,SATIPO,8658,ESSALUD,RIO NEGRO,JIRON HEROES DEL CENEPA SN 2DA. CIUADRA - RIO NEGRO SATIPO JUNIN,-11.2270544,-74.64860449999998
HOSPITAL HERMILIO VALDIZAN,LIMA,LIMA,5948,MINSA,SANTA ANITA,CARRETERA CARRETERA CENTRAL KM 3.5 SANTA ANITA DISTRITO SANTA ANITA PROVINCIA LIMA DEPARTAMENTO LIMA  LIMA LIMA,-12.0568533,-76.97074219999998
CLÍNICA VESALIO,LIMA,LIMA,9850,PRIVADO,SAN BORJA,CALLE JOSEPH THOMPSON N° 140 - URB. SANTO TOMAS LIMA LIMA,-12.1062906,-77.00722189999998
CLINICA REBAGLIATI,JUNIN,HUANCAYO,25970,PRIVADO,,CLINICA REBAGLIATI HUANCAYO JUNIN,-12.066853199999999,-75.22205579999998
ANTONIO LORENA DEL CUSCO,CUSCO,CUSCO,2305,GOB REGIONAL,SANTIAGO,URB. PRIMAVERA CUARTEL AGUSTIN GAMARRA CALLE CARLOS UGARTE SN CUSCO CUSCO,-13.525646900000002,-71.9881733
CLUB DE LA SALUD,LIMA,LIMA,8281,PRIVADO,LIMA,JR. MIGUEL ALJOVIN  NRO. 208 -222 LIMA LIMA,-12.027401199999998,-77.07689520000001
CLINICA PORVENIR,LIMA,LIMA,17173,PRIVADO,JESUS MARIA,AVENIDA AV FRANCISCO MARIATEGUI 1418 URB FUNDO OYAGUE AV FRANCISCO MARIATEGUI 1418 URB FUNDO OYAGUE JESUS MARIA LIMA LIMA  LIMA LIMA,-12.0776663,-77.05082320000001
HOSPITAL REGIONAL DOCENTE CAJAMARCA,CAJAMARCA,CAJAMARCA,7686,GOB REGIONAL,CAJAMARCA,AV. MARIO URTEAGA N 500 CAJAMARCA CAJAMARCA,-7.1555371,-78.5138267
HOSPITAL II-E JUANJUI - MC LUIS IZQUIERDO VÁSQUEZ,SAN MARTIN,MARISCAL CACERES,6919,GOB REGIONAL,JUANJUI,JR. ARICA CUADRA 2 MARISCAL CACERES SAN MARTIN,-12.090380499999998,-77.01708289999998
"HOSPITAL DE APOYO DE POMABAMBA "" ANTONIO CALDAS DOMINGUEZ""",ANCASH,POMABAMBA,1765,GOB REGIONAL,POMABAMBA,AVENIDA AV. SEOR DE LOS MILAGROS SN - HUAJTACHACRA NÚMERO SN DISTRITO POMABAMBA PROVINCIA POMABAMBA DEPARTAMENTO ANCASH  POMABAMBA ANCASH,-8.8135716,-77.46340129999999
ANTONIO BARRIONUEVO (LAMPA),PUNO,LAMPA,3128,GOB REGIONAL,LAMPA,JR. ANTONIO BARRIONUEVO N 323 LAMPA PUNO,-15.362597000000001,-70.3663
SIMON BOLIVAR,CAJAMARCA,CAJAMARCA,4655,GOB REGIONAL,CAJAMARCA,AV.MARIO URTEAGA N 500 CAJAMARCA CAJAMARCA,-7.1555371,-78.5138267
INSTITUTO NACIONAL DE SALUD DEL NIÑO,LIMA,LIMA,6216,MINSA,BREÑA,AV. BRASIL N 600 LIMA LIMA,-12.0649989,-77.0458398
HOSPITAL VICTOR LARCO HERRERA,LIMA,LIMA,6214,MINSA,MAGDALENA DEL MAR,AV.AUGUSTO PEREZ ARANIBAR N° 600 LIMA LIMA,-12.1053254,-77.05600489999998
HOSPITAL DISTRITAL DE EL PORVENIR SANTA ISABEL,LA LIBERTAD,TRUJILLO,5209,GOB REGIONAL,EL PORVENIR,OTROS GABRIEL AGUILAR N 1605 DISTRITO EL PORVENIR PROVINCIA TRUJILLO DEPARTAMENTO LA LIBERTAD  TRUJILLO LA LIBERTAD,-8.083275200000001,-78.9967017
HOSPITAL DEPARTAMENTAL DE HUANCAVELICA,HUANCAVELICA,HUANCAVELICA,3853,GOB REGIONAL,HUANCAVELICA,AV. ANDRES AVELINO CACERES SN YANANACO HUANCAVELICA HUANCAVELICA,-12.787445199999999,-74.98067019999998
"INSTITUTO NACIONAL DE SALUD MENTAL ""HONORIO DELGADO - HIDEYO NOGUCHI""",LIMA,LIMA,7733,MINSA,SAN MARTIN DE PORRES,JR. ELOY ESPINOZA SALDAA 709 - URB. PALAO LIMA LIMA,-12.0205996,-77.05624019999998
HOSPITAL DE APOYO II - 1 NUESTRA SEÑORA DE LAS MERCEDES - PAITA,PIURA,PAITA,2021,GOB REGIONAL,PAITA,LOS PESCADORES SN LA PUNTA PAITA PIURA,-5.090691899999999,-81.0904127
HOSPITAL DE APOYO PICHANAKI,JUNIN,CHANCHAMAYO,340,GOB REGIONAL,PICHANAQUI,AVENIDA AV. SAN MARTIN SN PICHANAKI SN AV. SAN MARTIN SN PICHANAKI PICHANAQUI CHANCHAMAYO JUNIN  CHANCHAMAYO JUNIN,-10.9262966,-74.87283470000001
HOSPITAL REGIONAL VIRGEN DE FATIMA,AMAZONAS,CHACHAPOYAS,4838,GOB REGIONAL,CHACHAPOYAS,JIRON TRIUNFO N 035 CHACHAPOYAS AMAZONAS,-6.234800799999999,-77.8727184
SANTA MARIA DE NIEVA,AMAZONAS,CONDORCANQUI,5145,GOB REGIONAL,NIEVA,CALLE PRINCIPAL SN - URBANIZACIÓN JUAN VELAZCO  -  CIUDAD SANTA MARIA DE NIEVA CONDORCANQUI AMAZONAS,-4.6010065,-77.8610254
ONCOGYN CLINICA INTEGRAL,LIMA,LIMA,9089,PRIVADO,JESUS MARIA,AV. SAN FELIPE 1015 - 1017 LIMA LIMA,-12.0817789,-77.04735
HOSPITAL DE SUPE LAURA ESTHER RODRIGUEZ DULANTO,LIMA,BARRANCA,7636,GOB REGIONAL,SUPE,JIRÓN  ALFONSO UGARTE N 350 DISTRITO SUPE PROVINCIA BARRANCA DEPARTAMENTO LIMA BARRANCA LIMA,-10.7517663,-77.758433
INSTITUTO REGIONAL DE ENFERMEDADES NEOPLASICAS,AREQUIPA,AREQUIPA,7397,GOB REGIONAL,AREQUIPA,AV. LA SALUD SN CERCADO AREQUIPA AREQUIPA,-16.3918146,-71.5430599
GRAL. JAEN,CAJAMARCA,JAEN,4210,GOB REGIONAL,JAEN,AVENIDA AV. PAKAMAUROS SN SN AV. PAKAMAUROS SN JAEN JAEN CAJAMARCA  JAEN CAJAMARCA,-5.7279233,-78.7959125
HOSPITAL PROVINCIAL DE ACOBAMBA,HUANCAVELICA,ACOBAMBA,3917,GOB REGIONAL,ACOBAMBA,AVENIDA AV. MANCO CAPAC N° 705 AV. MANCO CAPAC N° 705 ACOBAMBA ACOBAMBA HUANCAVELICA  ACOBAMBA HUANCAVELICA,-12.844586300000001,-74.5690892
HOSPITAL CHINCHEROS,APURIMAC,CHINCHEROS,4140,GOB REGIONAL,CHINCHEROS,AV. FERNANDO B. TERRY SN CHINCHEROS APURIMAC,-13.516662799999999,-73.72110889999998
HOSPITAL DE LIRCAY,HUANCAVELICA,ANGARAES,3943,GOB REGIONAL,LIRCAY,AVENIDA ESMERALDA SN BELLAVISTA - LIRCAY SN AV. ESMERALDA SN BELLAVISTA - LIRCAY LIRCAY ANGARAES HUANCAVELICA  ANGARAES HUANCAVELICA,-12.9965739,-74.72363359999999
HOSPITAL DE APOYO GUSTAVO LANATTA LUJAN,AMAZONAS,BAGUA,5044,GOB REGIONAL,BAGUA,AVENIDA AVENIDA HEROES DEL CENEPA N° 980 - BAGUA CAPITAL AVENIDA HEROES DEL CENEPA N° 980 - BAGUA CAPITAL BAGUA BAGUA AMAZONAS  BAGUA AMAZONAS,-5.6397724999999985,-78.53072009999998
RICARDO CRUZADO RIVAROLA DE NASCA,ICA,NAZCA,3443,GOB REGIONAL,NAZCA,CALLE CALLE CALLAO SN 5TA. CUADRA SN CALLE CALLAO SN 5TA. CUADRA NAZCA NAZCA ICA  NAZCA ICA,-14.826857999999998,-74.9404228
HOSPITAL REGIONAL LAMBAYEQUE,LAMBAYEQUE,CHICLAYO,11470,GOB REGIONAL,CHICLAYO,VIA DE EVITAMIENTO PANAMERICANA NORTE Y AV. EL PROGRESO SN (PROVINCIA CHICLAYO) CHICLAYO LAMBAYEQUE,-7.8404507,-79.1510661
CARLOS SHOWING FERRARI,HUANUCO,HUANUCO,756,GOB REGIONAL,AMARILIS,AVENIDA AV. MICAELA BASTIDAS SN PAUCARBAMBA SN AV. MICAELA BASTIDAS SN PAUCARBAMBA AMARILIS HUANUCO HUANUCO  HUANUCO HUANUCO,-9.9431731,-76.2419877
"HOSPITAL ""VICTOR RAMOS GUARDIA"" - HUARAZ",ANCASH,HUARAZ,1543,GOB REGIONAL,HUARAZ,AV. LUZURIAGA SN CUADRA 12 HUARAZ ANCASH,-9.528728,-77.5290584
IRO,LA LIBERTAD,TRUJILLO,5197,GOB REGIONAL,TRUJILLO,OTROS MZ P LOTE 7-A SECTOR NATASHA ALTA DISTRITO TRUJILLO PROVINCIA TRUJILLO DEPARTAMENTO LA LIBERTAD  TRUJILLO LA LIBERTAD,-8.1131823,-79.0486157
HOSPITAL APLAO,AREQUIPA,CASTILLA,1382,GOB REGIONAL,APLAO,AVENIDA AVENIDA 21 DE MARZO SN NÚMERO SN DISTRITO APLAO PROVINCIA CASTILLA DEPARTAMENTO AREQUIPA  CASTILLA AREQUIPA,-16.0766864,-72.48745250000002
HOSPITAL DE BARRANCA,LIMA,BARRANCA,7635,GOB REGIONAL,BARRANCA,AV. NICOLAS DE PIEROLA 210 -224 BARRANCA LIMA,-10.7542808,-77.76418389999998
CENTRO DE SALUD CHAVIN,ANCASH,HUARI,1824,GOB REGIONAL,CHAVIN DE HUANTAR,AVENIDA JULIO C.TELLO SN NÚMERO SN DISTRITO CHAVIN DE HUANTAR PROVINCIA HUARI DEPARTAMENTO ANCASH  HUARI ANCASH,-9.5936721,-77.17733840000001
SANTO TOMAS,CUSCO,CHUMBIVILCAS,2398,GOB REGIONAL,SANTO TOMAS,AVENIDA AVENIDA PERU SN SANTO TOMAS  CHUMBIVILCAS  CUSCO SN AVENIDA PERU SN SANTO TOMAS  CHUMBIVILCAS  CUSCO SANTO TOMAS CHUMBIVILCAS CUSCO  CHUMBIVILCAS CUSCO,-14.455871900000002,-72.08163540000001
HOSPITAL SAN JUAN BAUTISTA HUARAL,LIMA,HUARAL,7637,GOB REGIONAL,HUARAL,CALLE CALLE TACNA N 120 URB. SAN JUAN I DISTRITO HUARAL PROVINCIA HUARAL DEPARTAMENTO LIMA  HUARAL LIMA,-11.5031049,-77.21321139999998
SAN JUAN DE DIOS,ICA,PISCO,3472,GOB REGIONAL,PISCO,OTROS ALTO LA LUNA SN COSTADO DEL MINISTERIO DE AGRICULTURA NÚMERO SN DISTRITO PISCO PROVINCIA PISCO DEPARTAMENTO ICA  PISCO ICA,-12.085823,-77.00780300000001
HOSPITAL PROVINCIAL DE VIRU,LA LIBERTAD,VIRU,5251,GOB REGIONAL,VIRU,CALLE SUCRE N 799 VIRU LA LIBERTAD,-8.4152088,-78.75015390000002
QUILLABAMBA,CUSCO,LA CONVENCION,2421,GOB REGIONAL,SANTA ANA,AVENIDA AVENIDA GENERAL GAMARRA SN SANTA ANA LA CONVENCION SN AVENIDA GENERAL GAMARRA SN SANTA ANA LA CONVENCION SANTA ANA LA CONVENCION CUSCO  LA CONVENCION CUSCO,-12.8641556,-72.69079980000001
HOSPITAL PROVINCIAL DE TAYABAMBA,LA LIBERTAD,PATAZ,5375,GOB REGIONAL,TAYABAMBA,AVENIDA AV. DOS DE MAYO SN NÚMERO SN DISTRITO TAYABAMBA PROVINCIA PATAZ DEPARTAMENTO LA LIBERTAD  PATAZ LA LIBERTAD,-8.2769363,-77.30085059999998
HOSPITAL DE APOYO HUARMEY,ANCASH,HUARMEY,1741,GOB REGIONAL,HUARMEY,PANAMERICANA SN HUARMEY ANCASH,-10.0688152,-78.1562881
BAMBAMARCA - TITO VILLAR CABEZAS,CAJAMARCA,HUALGAYOC,4782,GOB REGIONAL,BAMBAMARCA,JR. RICARDO PALMA HUALGAYOC CAJAMARCA,-6.6713021999999995,-78.52876119999998
HOSPITAL DE APOYO HUARI,ANCASH,HUARI,1813,GOB REGIONAL,HUARI,AVENIDA CIRCUNVALACION BAJA SN HUARI NÚMERO SN DISTRITO HUARI PROVINCIA HUARI DEPARTAMENTO ANCASH  HUARI ANCASH,-9.347077,-77.170608
HOSPITAL ILO,MOQUEGUA,ILO,2818,GOB REGIONAL,ILO,AVENIDA AVENIDA N 01 LOTE 01 MZ. C AREA 4 (A-4) PAMPA INALAMBRICA DISTRITO ILO PROVINCIA ILO DEPARTAMENTO MOQUEGUA  ILO MOQUEGUA,-17.6534749,-71.3372775
HOSPITAL LA CALETA,ANCASH,SANTA,1652,GOB REGIONAL,CHIMBOTE,AV. MALECON GRAU SN URB. LA CALETA SANTA ANCASH,-9.0773008,-78.5949468
HOSPITAL SANTA GEMA DE  YURIMAGUAS,LORETO,ALTO AMAZONAS,210,GOB REGIONAL,YURIMAGUAS,JIRÓN JR. PROGRESO 305 - 307 DISTRITO YURIMAGUAS PROVINCIA ALTO AMAZONAS DEPARTAMENTO LORETO  ALTO AMAZONAS LORETO,-5.8881513,-76.1134804
APOYO SIVIA,AYACUCHO,HUANTA,3770,GOB REGIONAL,SIVIA,PLAZA PRINCIPAL MZ.T LTE.6 HUANTA AYACUCHO,-12.5083493,-73.8625844
HOSPITAL VITARTE,LIMA,LIMA,5945,MINSA,ATE,AVENIDA NICOLAS AYLLON 5880-CARRETERA CENTRAL DISTRITO ATE PROVINCIA LIMA DEPARTAMENTO LIMA  LIMA LIMA,-12.056635400000001,-76.9689648
INSTITUTO REGIONAL DE ENFERMEDADES NEOPLÁSICAS DEL CENTRO - IREN CENTRO,JUNIN,CONCEPCION,27857,GOB REGIONAL,,INSTITUTO REGIONAL DE ENFERMEDADES NEOPLÁSICAS DEL CENTRO - IREN CENTRO CONCEPCION JUNIN,-11.9050665,-75.3255202
INSTITUTO NACIONAL MATERNO PERINATAL,LIMA,LIMA,6208,MINSA,LIMA,JIRÓN JR. ANTONIO MIROQUESADA N 941 JR. ANTONIO MIROQUESADA N 941 LIMA LIMA LIMA  LIMA LIMA,-12.0527686,-77.02216379999999
HOSPITAL I ALBRECHT,LA LIBERTAD,TRUJILLO,8685,ESSALUD,TRUJILLO,AV JESUS DE NAZARETH SN RESIDENCIAL ALBRECHT TRUJILLO LA LIBERTAD,-8.1100616,-79.0338951
"HOSPITAL PNP ""AUGUSTO B. LEGUIA""",LIMA,LIMA,16094,FFAA Y PNP,RIMAC,PSJE SAN GERMAN SN CUADRA 2 - URB VILLACAMPA LIMA LIMA,-12.0705174,-77.010876
HOSPITAL DE EMERGENCIAS PEDIATRICAS,LIMA,LIMA,6212,MINSA,LA VICTORIA,AVENIDA AV GRAU 854 - PROLONG JR HUAMANGA 147 DISTRITO LA VICTORIA PROVINCIA LIMA DEPARTAMENTO LIMA  LIMA LIMA,-12.0584282,-77.0215752
HOSPITAL DE EMERGENCIAS JOSE CASIMIRO ULLOA,LIMA,LIMA,6213,MINSA,MIRAFLORES,AVENIDA AV. ROOSVELT N° 6355 (EX AV. REPUBLICA DE PANAMA) AV. ROOSVELT N° 6355 (EX AV. REPUBLICA DE PANAMA) MIRAFLORES LIMA LIMA  LIMA LIMA,-12.137096099999999,-77.0177714
HOSPITAL REGIONAL JOSE ALFREDO MENDOZA OLAVARRIA JAMO II-2,TUMBES,TUMBES,17077,GOB REGIONAL,TUMBES,AV. PROL. FERNANDO BELAUNDE NRO. SN A.H. CIUDADELA NOE III ETAPA TUMBES TUMBES TUMBES,-3.5615175000000003,-80.42633400000003
HOSPITAL DE APOYO YUNGAY,ANCASH,YUNGAY,1633,GOB REGIONAL,YUNGAY,AVENIDA AV. REPUBLICA DE CUBA SN - YUNGAY NÚMERO SN DISTRITO YUNGAY PROVINCIA YUNGAY DEPARTAMENTO ANCASH  YUNGAY ANCASH,-9.1401635,-77.7446032
DE APOYO JUNIN,JUNIN,JUNIN,519,GOB REGIONAL,JUNIN,JR.SAENZ PEA N 650 JUNIN JUNIN,-11.1581347,-75.9981233
HOSPITAL REZOLA,LIMA,CAÑETE,5986,GOB REGIONAL,SAN VICENTE DE CAÑETE,CALLE SAN MARTIN N 120 -124  SAN VICENTE CAETE LIMA,-13.076281100000001,-76.38552320000001
HOSPITAL TARAPOTO,SAN MARTIN,SAN MARTIN,6918,GOB REGIONAL,TARAPOTO,ESQUINAS JR. PAJATEN Y BOLIVAR SN NÚMERO SN DISTRITO TARAPOTO PROVINCIA SAN MARTIN DEPARTAMENTO SAN MARTIN  SAN MARTIN SAN MARTIN,-6.4735739,-76.3713254
CLINICA SANTIVAÑEZ,PIURA,PIURA,14092,PRIVADO,PIURA,CALLE CALLE LOS TAMARINDOS 143 URB. 4 DE ENERO DISTRITO PIURA PROVINCIA PIURA DEPARTAMENTO PIURA  PIURA PIURA,-5.196331900000001,-80.63176639999998
"HOSPITAL II-1 ""DR. JOSE PEÑA PORTUGUEZ "" - TOCACHE",SAN MARTIN,TOCACHE,6580,GOB REGIONAL,TOCACHE,JR. JORGE CHAVEZ SN C07 TOCACHE SAN MARTIN,-8.183319000000001,-76.510612
HOSPITAL II-I  CONTAMANA,LORETO,UCAYALI,162,GOB REGIONAL,CONTAMANA,JR. BUENA VENTURA MARQUEZ N° 504 UCAYALI LORETO,-7.348156700000001,-75.006916
HOSPITAL GENERAL DE HUACHO,LIMA,HUAURA,7639,GOB REGIONAL,HUACHO,AVENIDA JOSE ARAMBULO LA ROSA N 221-251-271 HUAURA LIMA,-11.115751800000002,-77.60636720000002
REGIONAL DOCENTE DE TRUJILLO,LA LIBERTAD,TRUJILLO,5196,GOB REGIONAL,TRUJILLO,AVENIDA AV. MANSICHE SN NÚMERO SN DISTRITO TRUJILLO PROVINCIA TRUJILLO DEPARTAMENTO LA LIBERTAD  TRUJILLO LA LIBERTAD,-8.105326500000002,-79.0306032
HOSPITAL SAN JUAN DE MATUCANA,LIMA,HUAROCHIRI,5850,GOB REGIONAL,MATUCANA,AVENIDA AV FLORIDA SN -COSTADO DE LA UGEL NÚMERO SN DISTRITO MATUCANA PROVINCIA HUAROCHIRI DEPARTAMENTO LIMA  HUAROCHIRI LIMA,-12.11215,-77.028769
"HOSPITAL DE CHANCAY Y SBS ""Dr. HIDALGO ATOCHE LÓPEZ""",LIMA,HUARAL,7638,GOB REGIONAL,CHANCAY,JIRÓN JR. . SUCRE SN NÚMERO SN DISTRITO CHANCAY PROVINCIA HUARAL DEPARTAMENTO LIMA  HUARAL LIMA,-11.5606689,-77.2709562
HOSPITAL REGIONAL PNP AREQUIPA,AREQUIPA,AREQUIPA,11794,FFAA Y PNP,CAYMA,AVENIDA BOLOGNESI N° 602 URBANIZACION LA MARINA AREQUIPA AREQUIPA,-16.3503682,-71.54204
INSTITUTO NACIONAL DE ENFERMEDADES NEOPLASICAS,LIMA,LIMA,6210,MINSA,SURQUILLO,AV. ANGAMOS ESTE 2520 URB. CALERA DE LA MERCED LIMA LIMA,-12.1124415,-76.9982768
HOSPITAL DE APOYO CARHUAZ,ANCASH,CARHUAZ,1516,GOB REGIONAL,CARHUAZ,JR. UNION SN CARHUAZ CARHUAZ ANCASH,-9.2835636,-77.6430013
HOSPITAL GERIATRICO PNP SAN JOSE,LIMA,LIMA,14718,FFAA Y PNP,SAN MIGUEL,JR RAMON CASTILLA 590 LIMA LIMA,-12.1763972,-76.9513228
HOSPITAL DE APOYO CASMA,ANCASH,CASMA,1719,GOB REGIONAL,CASMA,AV. GARCILAZO DE LA VEGA N 659 CASMA ANCASH,-9.4740224,-78.30554240000001
HOSPITAL REGIONAL MANUEL NUÑEZ BUTRON,PUNO,PUNO,3251,GOB REGIONAL,PUNO,JIRON RICARDO PALMA N 120 PUNO PUNO,-15.842317199999998,-70.0226727
CLINICA SAN PEDRO,LIMA,HUAURA,10883,PRIVADO,HUACHO,AVENIDA AVENIDA ECHENIQUE N 641 - HUACHO AVENIDA ECHENIQUE N 641 - HUACHO HUACHO HUAURA LIMA  HUAURA LIMA,-11.1114966,-77.60995740000001
HOSPITAL I CHEPEN ESSALUD,LA LIBERTAD,CHEPEN,9954,ESSALUD,CHEPEN,AVENIDA AV. LAS PALMERAS SN - URB HUANCHACO NÚMERO SN DISTRITO CHEPEN PROVINCIA CHEPEN DEPARTAMENTO LA LIBERTAD  CHEPEN LA LIBERTAD,-7.222153400000002,-79.4354616
CLINICA CARRION,CALLAO,CALLAO,9917,PRIVADO,VENTANILLA,AV. PEDRO BELTRAN 175 URB. SATELITE VENTANILLA CALLAO CALLAO,-11.8733535,-77.12574609999999
DE APOYO FELIX MAYORCA SOTO,JUNIN,TARMA,520,GOB REGIONAL,TARMA,AV.PACHECO N 362 TARMA JUNIN,-11.4250735,-75.692987
NIEVERIA DEL PARAISO,LIMA,LIMA,5902,MINSA,LURIGANCHO,EX FUNDO AGRICOLA NIEVERIA LOTE 62-B LT.1 DISTRITO LURIGANCHO PROVINCIA LIMA DEPARTAMENTO LIMA LIMA LIMA,-11.9886668,-76.91498279999998
HOSPITAL CARLOS LANFRANCO LA HOZ,LIMA,LIMA,7632,MINSA,PUENTE PIEDRA,AV. SAENZ PEA - CUADRA 6 SN LIMA LIMA,-11.8628121,-77.0793757
HOSPITAL CENTRAL DE MAJES ING. ANGEL GABRIEL CHURA GALLEGOS,AREQUIPA,CAYLLOMA,16721,GOB REGIONAL,MAJES,ASENTAMIENTO B-1 LOTE 1 IRRIGACIÓN MAJES CAYLLOMA AREQUIPA,-16.3210564,-72.2221835
FLORENCIA DE MORA,LA LIBERTAD,TRUJILLO,9278,ESSALUD,FLORENCIA DE MORA,AVENIDA NUEVE DE OCTUBRE SN TRUJILLO LA LIBERTAD,-8.099439199999999,-79.02530089999998
CLINICA LIMATAMBO,LIMA,LIMA,9437,PRIVADO,SAN ISIDRO,AVENIDA AV. REPUBLICA DE PANAMA 3606 DISTRITO SAN ISIDRO PROVINCIA LIMA DEPARTAMENTO LIMA  LIMA LIMA,-12.1006305,-77.01948270000001
SICUANI,CUSCO,CANCHIS,2378,GOB REGIONAL,SICUANI,AVENIDA AV. MANUEL CALLO ZEBALOS SN SN AV. MANUEL CALLO ZEBALOS SN SICUANI CANCHIS CUSCO  CANCHIS CUSCO,-14.265190900000002,-71.2281146
HOSPITAL DE APOYO CARAZ,ANCASH,HUAYLAS,1587,GOB REGIONAL,CARAZ,AVENIDA AV. 9 DE OCTUBRE SN - CARAZ NÚMERO SN DISTRITO CARAZ PROVINCIA HUAYLAS DEPARTAMENTO ANCASH  HUAYLAS ANCASH,-9.04835,-77.8040025
BANDA SHILCAYO,SAN MARTIN,SAN MARTIN,6359,GOB REGIONAL,LA BANDA DE SHILCAYO,JIRÓN JR PAJATEN N° 319 DISTRITO LA BANDA DE SHILCAYO PROVINCIA SAN MARTIN DEPARTAMENTO SAN MARTIN SAN MARTIN SAN MARTIN,-6.4938638000000015,-76.348807
MARIA REICHE NEUMAN,ICA,NAZCA,13911,ESSALUD,MARCONA,AV.CIRCUNVALACION SN ZONA P DISTRITO MARCONA PROVINCIA NAZCA DEPARTAMENTO ICA NAZCA ICA,-15.361754999999999,-75.166167
VIRGEN GUADALUPE CUSCO,CUSCO,CUSCO,24584,PRIVADO,,VIRGEN GUADALUPE CUSCO CUSCO CUSCO,-13.528881599999998,-71.9411018
HOSPITAL DE APOYO DEPARTAMENTAL CUSCO,CUSCO,CUSCO,2289,GOB REGIONAL,CUSCO,AVENIDA LA CULTURA SN SN AV. LA CULTURA SN CUSCO CUSCO CUSCO  CUSCO CUSCO,-13.527826699999999,-71.94204289999998
HOSPITAL REGIONAL DOCENTE DE MEDICINA TROPICAL DR. JULIO CESAR DEMARINI CARO,JUNIN,CHANCHAMAYO,308,GOB REGIONAL,CHANCHAMAYO,AV. DANIEL A. CARRION SN AAVV PAMPA DEL CARMEN CHANCHAMAYO JUNIN,-11.0729616,-75.3378401
HOSPITAL NACIONAL CAYETANO HEREDIA,LIMA,LIMA,7633,MINSA,SAN MARTIN DE PORRES,AVENIDA AV. HONORIO DELGADO 262 URB. INGENIERIA AV. HONORIO DELGADO 262 URB. INGENIERIA SAN MARTIN DE PORRES LIMA LIMA  LIMA LIMA,-12.022497999999999,-77.0553495
HOSPITAL AMAZONICO - YARINACOCHA,UCAYALI,CORONEL PORTILLO,5577,GOB REGIONAL,YARINACOCHA,JIRÓN JIRON AGUAYTIA N 605 DISTRITO YARINACOCHA PROVINCIA CORONEL PORTILLO DEPARTAMENTO UCAYALI  CORONEL PORTILLO UCAYALI,-8.355968100000002,-74.57310260000001
SAN JUAN DE DIOS (AYAVIRI),PUNO,MELGAR,3156,GOB REGIONAL,AYAVIRI,JR. ARICA N 310 MELGAR PUNO,-14.874528699999999,-70.59519949999998
CLINICA PAULISTA DEL PERU S.A.C (CLINICA PAULISTA DEL PERU),LIMA,LIMA,12572,PRIVADO,SANTIAGO DE SURCO,AV. AVIACION NRO. 4786   - SANTIAGO DE SURCO LIMA LIMA,-12.123716900000002,-76.9992829
HOSPITAL SAN JUAN DE LURIGANCHO,LIMA,LIMA,5617,MINSA,SAN JUAN DE LURIGANCHO,ENTRE PARADERO 10 Y 11 DE AV. CANTO GRANDE (HUASCAR) LIMA LIMA,-11.9683664,-77.0042145
CORNEJO,CUSCO,CUSCO,10023,PRIVADO,WANCHAQ,AVENIDA CUSCO 211 SAN SEBASTIAN CUSCO CUSCO,-13.528692199999998,-71.9398585
CENTRO MEDICO ESPECIALIZADO SANTA ENA S.A. (SANTA ENA),LIMA,LIMA,8164,PRIVADO,PUEBLO LIBRE,JR JOSE LIZIER N 152 LIMA LIMA,-12.074818400000002,-77.0744897
CLINICA G'STAR,CALLAO,CALLAO,18670,PRIVADO,BELLAVISTA,CALLE CALLE AMANCAES 240 URB. JARDINES DE VIRU DISTRITO BELLAVISTA PROVINCIA CALLAO DEPARTAMENTO CALLAO  CALLAO CALLAO,-12.061297900000001,-77.098683
HOSPITAL I JUANJUI - ESSALUD,SAN MARTIN,MARISCAL CACERES,16481,ESSALUD,JUANJUI,JR. LA LIBERTAD CDRA. 2 SN (JUANJUI) (CRUCE CON JR LA MERCED - BARRIO LA MERCED) MARISCAL CACERES SAN MARTIN,-7.1765381999999995,-76.72839239999998
DR. VICTOR PAREDES,CUSCO,CUSCO,10014,PRIVADO,CUSCO,CALLE LECHUGAL N 405 Y CALLE MATARA N 410 CUSCO CUSCO,-13.522116800000001,-71.97831529999998
REGIONAL DOCENTE MATERNO INFANTIL EL CARMEN,JUNIN,HUANCAYO,6615,GOB REGIONAL,HUANCAYO,JR. PUNO N 951 HUANCAYO JUNIN,-12.0619436,-75.1999345
VICTOR LAZARTE ECHEGARAY,LA LIBERTAD,TRUJILLO,9042,ESSALUD,TRUJILLO,PROLONGACION UNION 1350 TRUJILLO LA LIBERTAD,-8.099382199999999,-79.0122686
CAP III ALFREDO PIAZZA ROBERTS,LIMA,LIMA,17695,ESSALUD,LINCE,CALLE CALLE LAS LILAS 223 SAN EUGENIO -LINCE CALLE LAS LILAS 223 SAN EUGENIO -LINCE LINCE LIMA LIMA  LIMA LIMA,-12.0863632,-77.02761509999998
HOSPITAL DE REHABILITACION DEL CALLAO,CALLAO,CALLAO,17883,GOB REGIONAL,BELLAVISTA,JR. ANDRES VIGIL N° 535 CALLAO CALLAO,-12.063205400000001,-77.13323620000001
CLINICA DE LOS VASQUEZ S.A.C,ICA,CHINCHA,20979,PRIVADO,CHINCHA ALTA,CALLE CALLE LIMA N°703 DISTRITO CHINCHA ALTA PROVINCIA CHINCHA DEPARTAMENTO ICA  CHINCHA ICA,-13.4239223,-76.1349345
TAMBOBAMBA,APURIMAC,COTABAMBAS,2625,GOB REGIONAL,TAMBOBAMBA,BARRIO PAMPAA SECTOR CHILCAMAYO SN COTABAMBAS APURIMAC,-13.945727999999999,-72.1756733
CLINICA MARIA SRL,LIMA,LIMA,18307,PRIVADO,LOS OLIVOS,JR AQUIA 4844 URB. NARANJAL LIMA LIMA,-11.979492500000001,-77.0804888
CLINICA DANIEL A. CARRION S.A.C.,ICA,CHINCHA,10559,PRIVADO,CHINCHA ALTA,AVENIDA AV. IDELFONSO N 226 - JR. LIMA N° 566 DISTRITO CHINCHA ALTA PROVINCIA CHINCHA DEPARTAMENTO ICA  CHINCHA ICA,-13.423832,-76.1346453
SAN JOSE,CUSCO,CUSCO,11339,PRIVADO,WANCHAQ,AV. LOS INCAS N 1408 CUSCO CUSCO,-13.5252071,-71.95583509999999
CLINICA PROVIDA,LAMBAYEQUE,CHICLAYO,12457,PRIVADO,CHICLAYO,CALLLE JUAN CUGLIEVAN N° 160 CHICLAYO LAMBAYEQUE,-6.7761796,-79.84085689999998
HOSPITAL II-E LAMAS,SAN MARTIN,LAMAS,6352,GOB REGIONAL,LAMAS,OTROS VICTOR RAUL HAYA DE LA TORRE SN NÚMERO SN DISTRITO LAMAS PROVINCIA LAMAS DEPARTAMENTO SAN MARTIN  LAMAS SAN MARTIN,-6.4215719999999985,-76.5164307
INSTITUTO MEDICO ESPECIALIZADO UROGINEC EIRL (UROGINEC E.I.R.L.),ANCASH,SANTA,10987,PRIVADO,CHIMBOTE,JR. SAENZ PEA  173 SANTA ANCASH,-12.064902499999999,-77.0297173
HOSPITAL NACIONAL HIPOLITO UNANUE,LIMA,LIMA,5946,MINSA,EL AGUSTINO,AVENIDA CÉSAR VALLEJO 1390 - EL AGUSTINO AV. CÉSAR VALLEJO 1390 - EL AGUSTINO EL AGUSTINO LIMA LIMA  LIMA LIMA,-12.0397589,-76.99377109999999
CLINICA REPROMEDIC,LIMA,LIMA,9982,PRIVADO,JESUS MARIA,JR.MAXIMO ABRIL N 585 - 589 LIMA LIMA,-12.0713088,-77.0391192
ERNESTO GERMAN GUZMÁN GONZALES,PASCO,OXAPAMPA,980,GOB REGIONAL,OXAPAMPA,JR. BOTTGER 760 - OXAPAMPA OXAPAMPA PASCO,-10.5756397,-75.40137390000001
CLINICA BELEN S.A.C. (CLINICA JUAN PABLO II),ANCASH,SANTA,16551,PRIVADO,CHIMBOTE,JR. VILLAVICENCIO N° 376 SANTA ANCASH,-9.0745285,-78.59291569999998
HOSPITAL DE LA AMISTAD PERU - COREA SANTA ROSA II-2,PIURA,PIURA,2084,GOB REGIONAL,VEINTISEIS DE OCTUBRE,AV. GRAU - CHULUCANAS SN SAN MARTIN PIURA PIURA,-5.1839027,-80.664665
DE APOYO CAJABAMBA,CAJAMARCA,CAJABAMBA,4511,GOB REGIONAL,CAJABAMBA,JR. LA TORRE N 277 CAJABAMBA CAJAMARCA,-7.6206489,-78.04550499999998
HOSPITAL REGIONAL HERMILIO VALDIZAN,HUANUCO,HUANUCO,754,GOB REGIONAL,HUANUCO,JIRÓN JR. HERMILIO VALDIZAN N° 950 JR. HERMILIO VALDIZAN N° 950 HUANUCO HUANUCO HUANUCO  HUANUCO HUANUCO,-9.927915,-76.2361437
CIRUGIA LAPAROSCOPICA E.I.R.LTDA (CLINICA CIRLAP),LIMA,LIMA,23918,PRIVADO,LINCE,AVENIDA AREQUIPA  NÚMERO 2685 PISO 3 INTERIOR 301 DISTRITO LINCE PROVINCIA LIMA DEPARTAMENTO LIMA  LIMA LIMA,-12.078250500000001,-77.03556479999999
SANTA MARIA DEL SOCORRO,ICA,ICA,3359,GOB REGIONAL,ICA,CALLE CALLE CASTROVIRREYNA N° 759 CALLE CASTROVIRREYNA N° 759 ICA ICA ICA  ICA ICA,-14.0585465,-75.72926290000001
PARDO,CUSCO,CUSCO,11338,PRIVADO,WANCHAQ,AV. LA CULTURA N 710 CUSCO CUSCO,-13.521556,-71.96538799999998
POSTA MEDICA CHALA,AREQUIPA,CARAVELI,27538,ESSALUD,,POSTA MEDICA CHALA CARAVELI AREQUIPA,-15.860706200000001,-74.2466666
HOSPITAL SAN JOSE,CALLAO,CALLAO,6219,GOB REGIONAL,CARMEN DE LA LEGUA-REYNOSO,JIRÓN LAS MAGNOLIAS 475 DISTRITO CARMEN DE LA LEGUA-REYNOSO PROVINCIA CALLAO DEPARTAMENTO CALLAO  CALLAO CALLAO,-12.0428159,-77.0985997
TUPAC AMARU,CUSCO,CUSCO,25210,GOB REGIONAL,,TUPAC AMARU CUSCO CUSCO,-13.5311854,-71.9189183
CLINICA MARIA HUARHUA E.I.R.L (CLINICA MARIA HUARHUA),LIMA,LIMA,17824,PRIVADO,VILLA MARIA DEL TRIUNFO,AV. LATINOAMERICA 200 JR CAETE 390 MZ 27 LT 4A SECT.VALLE BAJO 3ERA ETAPA JC MAREATEGUI SAN GABRIEL LIMA LIMA,-12.1482216,-76.9495281
HOSPITAL DE VENTANILLA,CALLAO,CALLAO,7126,GOB REGIONAL,VENTANILLA,AV. PEDRO BELTRAN  CALLE 3 SN (REF. AL COSTADO CO CALLAO CALLAO,-11.8706413,-77.1204966
HOSPITAL REFERENCIAL DOCENTE TUMAN,LAMBAYEQUE,CHICLAYO,11083,PRIVADO,TUMAN,AV. EL TRABAJO SN  - COOPERATIVA TUMAN CHICLAYO LAMBAYEQUE,-6.748572099999999,-79.7025168
CENTRO MEDICO ESPECIALIZADO VERONESI SAC,LIMA,HUAURA,14262,PRIVADO,HUACHO,AVENIDA TUPAC AMARU 516 DISTRITO HUACHO PROVINCIA HUAURA DEPARTAMENTO LIMA  HUAURA LIMA,-11.1075134,-77.597561
CLINICA SAN MIGUEL ARCANGEL S.A.C.,LIMA,LIMA,9104,PRIVADO,SAN JUAN DE LURIGANCHO,JIRÓN JR. LAS GARDENIAS 754-760 URB. - LOS JASMINES DISTRITO SAN JUAN DE LURIGANCHO PROVINCIA LIMA DEPARTAMENTO LIMA  LIMA LIMA,-11.970404199999999,-77.00162279999998
HOSPITAL DE APOYO RECUAY,ANCASH,RECUAY,1472,GOB REGIONAL,RECUAY,JR. BOLIVAR N 200 RECUAY RECUAY ANCASH,-9.7289114,-77.45280859999998
CLINICA DIVINO NIÑO JESUS - ORDEN DE MALTA,LIMA,LIMA,16794,PRIVADO,SAN JUAN DE MIRAFLORES,JR ISMAEL ESCOBAR 329 LIMA LIMA,-12.1484289,-76.9769438
HOSPITAL DE APOYO CHEPEN,LA LIBERTAD,CHEPEN,5299,GOB REGIONAL,CHEPEN,AVENIDA AV. 28 DE JULIO SN NÚMERO SN DISTRITO CHEPEN PROVINCIA CHEPEN DEPARTAMENTO LA LIBERTAD  CHEPEN LA LIBERTAD,-7.2233636,-79.43381289999998
HERMANA JOSEFINA SERRANO,CUSCO,CUSCO,16758,PRIVADO,CUSCO,CALLE SAN ANDRES 321 CUSCO CUSCO,-13.5201202,-71.9780502
HOSPITAL SAN JOSE DE CHINCHA,ICA,CHINCHA,3414,GOB REGIONAL,CHINCHA ALTA,AVENIDA ABELARDO ALVA MAURTUA N° 600 AV. ABELARDO ALVA MAURTUA N° 600 CHINCHA ALTA CHINCHA ICA  CHINCHA ICA,-13.4156394,-76.12867259999999
HOSPITAL SAN MARTÍN DE PORRES,PUNO,CARABAYA,2974,GOB REGIONAL,MACUSANI,JR. GRAU N 511 - MACUSANI CARABAYA PUNO,-12.067668,-77.03824499999999
SAN VICENTE,ICA,ICA,12765,PRIVADO,ICA,AVENIDA LOS MAESTROS N 422 URB. SAN JOSE DISTRITO ICA PROVINCIA ICA DEPARTAMENTO ICA  ICA ICA,-14.074388399999998,-75.7385582
CLINICA SANTA MARIA,LIMA,LIMA,12947,PRIVADO,SURQUILLO,CALLE LAS AGUILAS NO. 360 URB. LIMATAMBO LIMA LIMA,-12.1033684,-77.0261531
REGIONAL DE ICA,ICA,ICA,3358,GOB REGIONAL,ICA,PROLONGACIÓN PROLONG. AYABACA SN NÚMERO SN DISTRITO ICA PROVINCIA ICA DEPARTAMENTO ICA  ICA ICA,-14.071944400000001,-75.73388890000001
CLUB DE LA SALUD,LIMA,LIMA,10251,PRIVADO,CHORRILLOS,AV. CHORRILLOS 171 - 173 CHORRILLOS LIMA LIMA,-12.1571478,-77.02281769999998
SAN JUAN DE KIMBIRI-VRAEM,CUSCO,LA CONVENCION,2469,GOB REGIONAL,KIMBIRI,AVENIDA AVENIDA AEROPUERTOSN  KIMBIRI  LA CONVENCIÓN  CUSCO SN AVENIDA AEROPUERTOSN  KIMBIRI  LA CONVENCIÓN  CUSCO KIMBIRI LA CONVENCION CUSCO  LA CONVENCION CUSCO,-12.6160299,-73.79498090000001
CLINICA BELLAFORMA,LIMA,LIMA,26793,PRIVADO,,CLINICA BELLAFORMA LIMA LIMA,-12.0711759,-77.05020700000001
HOSPITAL DE MEDIANA COMPLEJIDAD JOSE AGURTO TELLO,LIMA,LIMA,5947,MINSA,LURIGANCHO,JR. AREQUIPA 214-218 LIMA LIMA,-11.9562018,-77.05160029999998
CARLOS MONJE MEDRANO,PUNO,SAN ROMAN,3299,GOB REGIONAL,JULIACA,SALIDA A HUANACANE KILOMETRO 2 SAN ROMAN PUNO,-15.481712599999998,-70.12015339999999
PERUANO SUIZA,CUSCO,CUSCO,11163,PRIVADO,CUSCO,AVENIDA PERÚ K-3 URBANIZACIÓN QUISPICANCHISS CUSCO CUSCO,-13.526249900000002,-71.94549620000001
HOSPITAL REGIONAL DE PUCALLPA,UCAYALI,CORONEL PORTILLO,5576,GOB REGIONAL,CALLERIA,JIRÓN JR AGUSTIN CAUPER N 285 - PUCALLPA JR AGUSTIN CAUPER N 285 - PUCALLPA CALLERIA CORONEL PORTILLO UCAYALI  CORONEL PORTILLO UCAYALI,-8.374862299999998,-74.5323571
CLINICA CENTENARIO PERUANO JAPONESA,LIMA,LIMA,8325,PRIVADO,PUEBLO LIBRE,AV. PASO DE LOS ANDES 675 LIMA LIMA,-12.0731243,-77.059128
CLINICA SERVISALUD,LIMA,LIMA,14181,PRIVADO,JESUS MARIA,JR.MAXIMO ABRIL 552 LIMA LIMA,-12.0709289,-77.03959429999998
DR.DANIEL ALCIDES CARRION GARCIA.,PASCO,PASCO,979,GOB REGIONAL,YANACANCHA,ACTUALIZAR PASCO PASCO,-10.663981,-76.2533128
HOSPITAL DE LA MUJER.,LIMA,LIMA,13952,PRIVADO,SURQUILLO,AVENIDA AV MARISCAL ANDRES AVELINO CACERES 559-563 DISTRITO SURQUILLO PROVINCIA LIMA DEPARTAMENTO LIMA  LIMA LIMA,-12.1193837,-77.01973319999998
HOSPITAL NACIONAL POLICIA NACIONAL DEL PERU GRAL PNP LUIS N. SAENZ.,LIMA,LIMA,13591,FFAA Y PNP,JESUS MARIA,AVENIDA BRASIL CUADRA 26 SN SN AVENIDA BRASIL CUADRA 26 SN MIRAFLORES LIMA LIMA  LIMA LIMA,-12.0847014,-77.0602522
CLINICA MONTE SINAI,LIMA,LIMA,9145,PRIVADO,LINCE,JIRÓN JR. GARCILASO DE LA VEGA 1799 DISTRITO LINCE PROVINCIA LIMA DEPARTAMENTO LIMA  LIMA LIMA,-12.0831036,-77.04051379999999
CLINICA MEDICA ZEGARRA S.A.C.,LIMA,LIMA,9144,PRIVADO,COMAS,AVENIDA AVENIDA TUPAC AMARU 1801 URB HUAQUILLAY - COMAS DISTRITO COMAS PROVINCIA LIMA DEPARTAMENTO LIMA  LIMA LIMA,-11.9455311,-77.050539
CLINICA ARROYO,LIMA,LIMA,18667,PRIVADO,SAN ISIDRO,AVENIDA AV. PABLO CARRIQUIRY 798 CORPAC SAN ISIDRO DISTRITO SAN ISIDRO PROVINCIA LIMA DEPARTAMENTO LIMA  LIMA LIMA,-12.0997879,-77.0186137
CLINICA BELEN S.A.C. (CLINICA BELEN),ANCASH,SANTA,17075,PRIVADO,CHIMBOTE,AV. JOSE GALVEZ N° 1158 CAR. PANAMERICANA NORTE SANTA ANCASH,-9.0668991,-78.5878005
HOSPITAL DE APOYO CHOTA - JOSE SOTO CADENILLAS,CAJAMARCA,CHOTA,4659,GOB REGIONAL,CHOTA,JR. EXEQUIEL  MONTOYA N 718 CHOTA CAJAMARCA,-6.5624454,-78.6522533
CLINIC NOVASALUD,LIMA,LIMA,24178,PRIVADO,VILLA EL SALVADOR,PASAJE SECTOR 2 GRUPO RESIDENCIAL 10 MANZANA I LOTE 2 DISTRITO VILLA EL SALVADOR PROVINCIA LIMA DEPARTAMENTO LIMA  LIMA LIMA,-12.2110311,-76.93330959999999
SAN JAVIER BELLAVISTA,CAJAMARCA,JAEN,4223,GOB REGIONAL,BELLAVISTA,JR DANIEL ALCIDES CARRION SN JAEN CAJAMARCA,-7.1463747,-78.52032290000001
"HOSPITAL REGIONAL DE LORETO ""FELIPE SANTIAGO ARRIOLA IGLESIAS""",LORETO,MAYNAS,3,GOB REGIONAL,PUNCHANA,AVENIDA AVENIDA 28 DE JULIO SN NÚMERO SN DISTRITO PUNCHANA PROVINCIA MAYNAS DEPARTAMENTO LORETO  MAYNAS LORETO,-3.7276304,-73.24889329999998
NAC. DANIEL A. CARRION,CALLAO,CALLAO,6218,GOB REGIONAL,BELLAVISTA,AV. GUARDIA CHALACA N 2176 CALLAO CALLAO,-12.0628109,-77.1235085
DE APOYO CELENDIN,CAJAMARCA,CELENDIN,4466,GOB REGIONAL,CELENDIN,AV. TUPAC AMARU SN CELENDIN CAJAMARCA,-6.868655099999999,-78.1426417
CLINICA KIRSCHBAUM,LIMA,LIMA,15179,PRIVADO,SAN BORJA,AV. JAVIER PRADO ESTE 2973 LIMA LIMA,-12.08636,-76.9937599
MARIA AUXILIADORA,AMAZONAS,RODRIGUEZ DE MENDOZA,4950,GOB REGIONAL,SAN NICOLAS,JIRÓN JIRON ALONSO DE ALVARADO SN - RODRIGUEZ DE MENDOZA SN JIRON ALONSO DE ALVARADO SN - RODRIGUEZ DE MENDOZA SAN NICOLAS RODRIGUEZ DE MENDOZA AMAZONAS  RODRIGUEZ DE MENDOZA AMAZONAS,-6.3953903,-77.47912629999998
ELEAZAR GUZMAN BARRON,ANCASH,SANTA,1703,GOB REGIONAL,NUEVO CHIMBOTE,AV. BRASIL SN URB. SANTA CRISTINA SANTA ANCASH,-9.119811,-78.5216348
MELO CLINICA DE REPRODUCCION Y GENETICA,AREQUIPA,AREQUIPA,17588,PRIVADO,AREQUIPA,CALLE CALLE MALAGA GRENET N 110 - UMACOLLO DISTRITO AREQUIPA PROVINCIA AREQUIPA DEPARTAMENTO AREQUIPA  AREQUIPA AREQUIPA,-16.400418,-71.5477884
CLINICA FLEMING,LIMA,LIMA,10467,PRIVADO,SAN BORJA,JIRÓN JR ALEXANDER FLEMING 103 URB SAN BORJA SUR DISTRITO SAN BORJA PROVINCIA LIMA DEPARTAMENTO LIMA  LIMA LIMA,-12.1017164,-77.00681440000001
CLÍNICA NORVISION,LIMA,LIMA,11741,PRIVADO,PUEBLO LIBRE,AV.PASO DE LOS ANDES 850 PUEBLO LIBRE LIMA LIMA,-12.071017300000001,-77.0587175
HOSPITAL DE APOYO SIHUAS,ANCASH,SIHUAS,1795,GOB REGIONAL,SIHUAS,JIRÓN JR. DANIEL ALCIDES CARRION SN - AGUASHIRCA-SIHUAS NÚMERO SN DISTRITO SIHUAS PROVINCIA SIHUAS DEPARTAMENTO ANCASH  SIHUAS ANCASH,-8.552672300000001,-77.63198390000001
HOSPITAL HIPOLITO UNANUE DE TACNA,TACNA,TACNA,2864,GOB REGIONAL,TACNA,CALLE FEDERICO BARRETO SN TACNA TACNA,-18.0130111,-70.25575440000001
clinica especializada amazonica sac,UCAYALI,CORONEL PORTILLO,27312,PRIVADO,,clinica especializada amazonica sac CORONEL PORTILLO UCAYALI,-8.3789829,-74.53690139999998
"HOSPITAL DE APOYO II - 2, SULLANA",PIURA,SULLANA,1910,GOB REGIONAL,SULLANA,AV. SANTA ROSA SN SULLANA PIURA,-4.8957207,-80.6939993
HOSPITAL SANDIA,PUNO,SANDIA,3335,GOB REGIONAL,SANDIA,JIRON ARICA N 448 SANDIA PUNO,-14.3204275,-69.4652921
CLINICA PERUANO AMERICANA S. A.,LA LIBERTAD,TRUJILLO,13373,PRIVADO,TRUJILLO,AV. MANSICHE N 810 TRUJILLO LA LIBERTAD,-8.103671799999999,-79.0368008
HOSPITAL DOMINGO OLAVEGOYA,JUNIN,JAUJA,365,GOB REGIONAL,JAUJA,JIRÓN JR. SAN MARTIN N1153 URBANIZACION OLAVEGOYA DISTRITO JAUJA PROVINCIA JAUJA DEPARTAMENTO JUNIN  JAUJA JUNIN,-11.776955099999999,-75.49614509999998
CLINICA ZARATE,JUNIN,HUANCAYO,25973,PRIVADO,,CLINICA ZARATE HUANCAYO JUNIN,-12.0603631,-75.20541109999998
LA CLINICA DE ICA DR. JULIO TATAJE BARRIGA SRL,ICA,ICA,15963,PRIVADO,ICA,AVENIDA CONDE DE NIEVA N° 360 URB. LUREN DISTRITO ICA PROVINCIA ICA DEPARTAMENTO ICA  ICA ICA,-14.073479500000001,-75.72491720000001
CLINICA OFTALMOLOGICA DEL CENTRO DEL PERU,JUNIN,HUANCAYO,10250,PRIVADO,EL TAMBO,JR ROSEMBERG N 427 HUANCAYO JUNIN,-12.0558237,-75.2165005
YUNGUYO,PUNO,YUNGUYO,3349,GOB REGIONAL,YUNGUYO,JR. LIMA N 938 - YUNGUYO YUNGUYO PUNO,-16.2469386,-69.0908554
HOSPITAL LUCIO ALDAZABAL PAUCA,PUNO,HUANCANE,3068,GOB REGIONAL,HUANCANE,AV SANTA CRUZ SN HUANCANE PUNO,-15.197973900000001,-69.7663851
SEÑOR DE LUREN DE ICA,ICA,ICA,9660,PRIVADO,ICA,AVENIDA SAN MARTIN N° 536 URB. LA MORALES DISTRITO ICA PROVINCIA ICA DEPARTAMENTO ICA  ICA ICA,-14.0686337,-75.7294208
ILAVE,PUNO,EL COLLAO,3032,GOB REGIONAL,ILAVE,JR. ATAHUALPA N 685 - ILAVE EL COLLAO PUNO,-16.0838117,-69.6385627
CLINICA CORI,LIMA,LIMA,23151,PRIVADO,LOS OLIVOS,AVENIDA CARLOS ALBERTO IZAGUIRRE 978 L 13 14 15 LAS PALMERAS A una cuadra de la Municipalidad de Los Olivos LOS OLIVOS LIMA LIMA  LIMA LIMA,-11.9910913,-77.073246
SAN JUAN PABLO II,CUSCO,CUSCO,12995,OTROS,SANTIAGO,PLAZOLETA ALMUDENA SN DIST. SANTIAGO PROV.CUSCO DPTO. CUSCO CUSCO CUSCO,-13.524196300000002,-71.986987
CONSULTORIOS  MÉDICOS ESPECIALIZADOS CJ S.A.C,CALLAO,CALLAO,26735,PRIVADO,,CONSULTORIOS  MÉDICOS ESPECIALIZADOS CJ S.A.C CALLAO CALLAO,-12.0752969,-77.0449196
DE APOYO MANUEL HIGA ARAKAKI,JUNIN,SATIPO,432,GOB REGIONAL,SATIPO,CALLE CALLE DANIEL ALCIDES CARRION N 398 DISTRITO SATIPO PROVINCIA SATIPO DEPARTAMENTO JUNIN  SATIPO JUNIN,-11.2490622,-74.6361823
CLINICA SAN ANDRES,LIMA,HUARAL,17081,PRIVADO,HUARAL,CALLE CALLE DE LOS INCAS N° 288 LOTIZADORA SEOR DE LOS MILAGROS MZ F LOTE 1 Y 2 CALLE DE LOS INCAS N° 288 LOTIZADORA SEOR DE LOS MILAGROS MZ F LOTE 1 Y 2 HUARAL HUARAL LIMA  HUARAL LIMA,-11.4922494,-77.2128864
CLINICA DEL NORTE,LIMA,LIMA,17847,PRIVADO,LOS OLIVOS,AVENIDA UNIVERSITARIA MZ- B LT- 12 COOP. CAJABAMBA DISTRITO LOS OLIVOS PROVINCIA LIMA DEPARTAMENTO LIMA  LIMA LIMA,-11.9903703,-77.08128599999998
CLÍNICA DE ATENCIÓN GENERAL (CLINICA BAHIA S.A.C.),ANCASH,SANTA,16536,PRIVADO,NUEVO CHIMBOTE,URB. SANTA ROSA  MZ-F LT-24 SANTA ANCASH,-9.1220077,-78.52301870000001
CLINICA MEDICA PRIMAVERA,LIMA,LIMA,12106,PRIVADO,LOS OLIVOS,JR. LOS JAZMINES N° 122 URB. PRIMAVERA - LOS OLIVOS LIMA LIMA,-12.0086397,-77.0757266
CLIN. DANIEL A. CARRION,ICA,CHINCHA,25160,PRIVADO,,CLIN. DANIEL A. CARRION CHINCHA ICA,-13.423832,-76.1346453
HOSPITAL II-1 SANTA CLOTILDE,LORETO,MAYNAS,66,GOB REGIONAL,NAPO,ACTUALIZAR MAYNAS LORETO,-3.7700696000000002,-73.2625513
OPRECE,LIMA,LIMA,17703,PRIVADO,MAGDALENA DEL MAR,AV. BRASIL 3219 LIMA LIMA,-12.0891303,-77.0650552
CARLOS CORNEJO ROSELLO,PUNO,AZANGARO,2941,GOB REGIONAL,AZANGARO,JR- FRANCISCO BOLOGNESI N 557 AZANGARO PUNO,-14.904166,-70.19968659999999
HOSPITAL DE  RIOJA,SAN MARTIN,RIOJA,6732,GOB REGIONAL,RIOJA,JR. VENECIA SN RIOJA SAN MARTIN,-6.0684054000000005,-77.17026709999998
"HOSP. ""ROMAN EGOAVIL PANDO"" VILLA RICA",PASCO,OXAPAMPA,981,GOB REGIONAL,VILLA RICA,AV. VALENTIN CUEVA SN- VILLA RICA OXAPAMPA PASCO,-10.7373231,-75.27361490000001
HOSPITAL DE HUAYCAN,LIMA,LIMA,5883,MINSA,ATE,AV JOSÉ C.MARIÁTEGUI SN ZONA B - A.H.HUAYCÁN LIMA LIMA,-12.015669,-76.8202878
SR DE TORRECHAYOC,CUSCO,LA CONVENCION,26080,PRIVADO,,SR DE TORRECHAYOC LA CONVENCION CUSCO,-12.868355000000001,-72.6919814
GONZALES PINEDO RODOLFO (CLINICA ANTONIO MIROQUESADA),LIMA,LIMA,17392,PRIVADO,LIMA,JR. ANTONIO MIROQUESADA NRO.332 - CERCADO LIMA LIMA,-12.049628,-77.030399
SANTA ROSA,MADRE DE DIOS,TAMBOPATA,2698,GOB REGIONAL,TAMBOPATA,JR. CAJAMARCA N 171 TAMBOPATA MADRE DE DIOS,-12.5892035,-69.19625959999999
CLINICA CORAZON DE JESUS,LIMA,CAÑETE,26070,PRIVADO,,CLINICA CORAZON DE JESUS CAETE LIMA,-13.0754852,-76.3794369
CLINICA BOLIVAR S.A.C,HUANUCO,HUANUCO,19176,PRIVADO,HUANUCO,JR. BOLIVAR N° 490 HUANUCO HUANUCO,-9.930067,-76.236699
CLINICA  BELLMED,LA LIBERTAD,TRUJILLO,12292,PRIVADO,TRUJILLO,AV. TUPAC AMARU N 849 URB. PRIMAVERA TRUJILLO LA LIBERTAD,-8.0971674,-79.03046009999998
LOS ANGELES DE CCARAHUASA,HUANCAVELICA,HUANCAVELICA,3875,GOB REGIONAL,ACORIA,OTROS CENTRO POBLADO LOS ANGELES DE CCARAHUASA CENTRO POBLADO LOS ANGELES DE CCARAHUASA ACORIA HUANCAVELICA HUANCAVELICA  HUANCAVELICA HUANCAVELICA,-12.711905900000001,-74.8879915
CLINICA ISABEL,TACNA,TACNA,11466,PRIVADO,TACNA,CALLE ARICA N 151 CALLE ARICA N 151 TACNA TACNA TACNA  TACNA TACNA,-18.017560600000003,-70.2505072
CLINICA GONZALEZ S.A.,LIMA,LIMA,15684,PRIVADO,LINCE,AVENIDA IGNACIO MERINO 1884 LIMA LIMA,-12.08296,-77.032814
CLINICA ALIVIARI,AREQUIPA,AREQUIPA,21966,PRIVADO,YANAHUARA,CALLE CALLE LEÓN VELARDE N° 406 DISTRITO YANAHUARA PROVINCIA AREQUIPA DEPARTAMENTO AREQUIPA  AREQUIPA AREQUIPA,-16.3841071,-71.54050840000001
OCULASER SAC,LIMA,LIMA,9483,PRIVADO,LIMA,AV. ARENALES 1181LIMA CERCADO LIMA LIMA,-12.0798735,-77.0363455
CLÍNICA VISTA,LIMA,LIMA,15716,PRIVADO,JESUS MARIA,JIRON CARACAS 2410 LIMA LIMA,-12.085456,-77.0568
CLÍNICA SANTA CATALINA,LIMA,LIMA,9431,PRIVADO,LA VICTORIA,CALLE CALLE JOSE BAZZOCHI N 339  339 SANTA CATALINA CALLE JOSE BAZZOCHI N 339 - URB. SANTA CATALINA LA VICTORIA LIMA LIMA  LIMA LIMA,-12.082645800000002,-77.0232457
HOSPITAL DE APOYO CESAR VALLEJO MENDOZA,LA LIBERTAD,SANTIAGO DE CHUCO,5332,GOB REGIONAL,SANTIAGO DE CHUCO,JIRÓN JR. MARISCAL CACERES 1145 DISTRITO SANTIAGO DE CHUCO PROVINCIA SANTIAGO DE CHUCO DEPARTAMENTO LA LIBERTAD  SANTIAGO DE CHUCO LA LIBERTAD,-8.145180700000001,-78.1735887
HOSPITAL REGIONAL HONORIO DELGADO ESPINOZA,AREQUIPA,AREQUIPA,1231,GOB REGIONAL,AREQUIPA,AV. ALCIDES CARRION N° 505 AREQUIPA AREQUIPA,-16.4164481,-71.53304890000001
OBRA DE SAN CAMILO,LIMA,LIMA,26473,PRIVADO,,OBRA DE SAN CAMILO LIMA LIMA,-12.046735,-77.0222457
HOSPITAL DE TINGO MARIA (HOSPITAL DE CONTINGENCIA),HUANUCO,LEONCIO PRADO,932,GOB REGIONAL,LUYANDO,HOSPITAL MAPRESA-TINGO MARIA LEONCIO PRADO HUANUCO,-9.301680099999999,-76.0000687
HOSPITAL REGIONAL DOCENTE CLINICO QUIRURGICO DANIEL ALCIDES CARRION,JUNIN,HUANCAYO,753,GOB REGIONAL,HUANCAYO,AV. DANIEL A.CARRION N 1552-1556 HUANCAYO JUNIN,-12.086868199999998,-75.21351640000002
VIRGEN DEL ROSARIO SA,ICA,ICA,9606,PRIVADO,ICA,CALLE CALLAO N° 263 ICA ICA,-14.0618065,-75.7293562
CLINICA SANTO DOMINGO,JUNIN,HUANCAYO,8516,PRIVADO,HUANCAYO,AV. FRANCISCO SOLANO NRO. 274 HUANCAYO JUNIN,-12.060878599999999,-75.2042282
CLINICA OFTALMOLOGICA DE LA SELVA,SAN MARTIN,SAN MARTIN,15835,PRIVADO,LA BANDA DE SHILCAYO,PASAJE LAS TUNAS N 264 - 270 SAN MARTIN SAN MARTIN,-6.4898213999999985,-76.35192529999998
INCHUPALLA,PUNO,PUNO,3230,GOB REGIONAL,PICHACANI,CARRETERA INCHUPALLA FRENTE AL MUNICIPIO PUNO PUNO,-15.840182,-70.0280305
HOSPITAL REFERENCIAL FERREÑAFE,LAMBAYEQUE,FERREÑAFE,4440,GOB REGIONAL,FERREÑAFE,AV. AUGUSTO B. LEGUIA N 600 FERREAFE LAMBAYEQUE,-6.762631699999999,-79.84216740000001
CLINICA TATAJE,ICA,ICA,9648,PRIVADO,ICA,AVENIDA CONDE DE NIEVA N° 355 URB. LUREN DISTRITO ICA PROVINCIA ICA DEPARTAMENTO ICA  ICA ICA,-14.0734598,-75.72488390000001
CLINICA REAL LOS LAURELES SAC,LIMA,LIMA,12220,PRIVADO,CHORRILLOS,CALLE ARMANDO CAMBANA N279 URB. LOS LAURELES - CHORRILLOS LIMA LIMA,-12.1748714,-77.02031300000002
CLINICA SAN MARTIN,LIMA,LIMA,14509,PRIVADO,SAN JUAN DE LURIGANCHO,AV. PROCERES DE LA INDEPENDENCIA 576 LIMA LIMA,-12.022381,-77.0065905
IPOR CLINICA ESPECIALIZADA ONCOLOGIA & CIRUGIA,LIMA,LIMA,11346,PRIVADO,SAN BORJA,JR. EDUARDO ORDOEZ N 215 - 219 LIMA LIMA,-12.1056534,-77.00743849999998
FAMISALUD SAC,ICA,PISCO,27173,PRIVADO,,FAMISALUD SAC PISCO ICA,-13.7088666,-76.20145179999999
BELLAVISTA NANAY,LORETO,MAYNAS,16,GOB REGIONAL,PUNCHANA,AV. LA MARINA N2880 MAYNAS LORETO,-3.722424199999999,-73.2414624
CLINICA SAN ANTONIO,LA LIBERTAD,TRUJILLO,12301,PRIVADO,TRUJILLO,AV. LARCO N 620 - 630 URB. SAN ANDRÉS TRUJILLO LA LIBERTAD,-8.120304599999999,-79.0353327
OPTIMA VISION S.R.L. (OPTIMA VISION),LIMA,LIMA,15182,PRIVADO,MIRAFLORES,AV. ANGAMOS OESTE 884 LIMA LIMA,-12.1137996,-77.0377585
HOSPITAL DE CAMANA,AREQUIPA,CAMANA,1344,GOB REGIONAL,CAMANA,AV LIMA 550 CAMANA AREQUIPA,-16.618263199999998,-72.70817269999998
CLINICA VIRGEN DEL ROSARIO SRL,LIMA,LIMA,11803,PRIVADO,MAGDALENA DEL MAR,JR. CASTILLA N° 976 LIMA LIMA,-12.163920800000001,-76.9423759
PRAXIS MEDICAL S.A.C.,AREQUIPA,AREQUIPA,24208,PRIVADO,,PRAXIS MEDICAL S.A.C. AREQUIPA AREQUIPA,-16.3887084,-71.5409973
"HOSPITAL IQUITOS ""CESAR GARAYAR GARCIA""",LORETO,MAYNAS,1,GOB REGIONAL,IQUITOS,CALLE CORNEJO PORTUGAL N° 1710 MAYNAS LORETO,-3.7640762999999997,-73.25430290000001
CLINICA ORTEGA,JUNIN,HUANCAYO,8858,PRIVADO,HUANCAYO,AV. DANIEL A. CARRION N 1124 HUANCAYO JUNIN,-12.086868199999998,-75.21351640000002
CEFERGIN,AREQUIPA,AREQUIPA,18935,PRIVADO,YANAHUARA,OTROS URBANIZACIÓN INDEPENDENCIA AMERICANA D - 8 DISTRITO YANAHUARA PROVINCIA AREQUIPA DEPARTAMENTO AREQUIPA  AREQUIPA AREQUIPA,-16.4017911,-71.5514014
CLINICA MAISON DE SANTE DEL ESTE,LIMA,LIMA,15118,PRIVADO,SANTIAGO DE SURCO,AV. PROLONGACION ALFREDO BENAVIDES 5362 URB. LAS GARDENIAS SANTIAGO DE SURCO LIMA LIMA,-12.1304301,-76.98116040000001
LIGA CONTRA EL CÁNCER,LIMA,LIMA,15077,PRIVADO,PUEBLO LIBRE,AVENIDA AVENIDA BRASIL 2746 DISTRITO PUEBLO LIBRE PROVINCIA LIMA DEPARTAMENTO LIMA  LIMA LIMA,-12.0847639,-77.06212409999998
CLINICA LUZ Y VIDA,LA LIBERTAD,TRUJILLO,21354,PRIVADO,TRUJILLO,CAL.TAKAYNAMO MZA. SN LOTE. 10 A.H. LA ARENITA TRUJILLO LA LIBERTAD,-8.1001116,-79.04773929999999
CLINICA AVIVA SEDE MENDIOLA,LIMA,LIMA,26936,PRIVADO,,CLINICA AVIVA SEDE MENDIOLA LIMA LIMA,-11.9547045,-77.06988319999998
CLINICA PROVIDENCIA,LIMA,LIMA,12666,PRIVADO,SAN MIGUEL,CALLE CARLOS GONZALES 250 URB. MARANGA LIMA LIMA,-12.0750842,-77.0914
CLINICA CONTINENTAL,LIMA,LIMA,11547,PRIVADO,SAN BORJA,AV. SAN BORJA SUR N° 526 LIMA LIMA,-12.101414,-77.003663
CLINICA MIRAFLORES SAC,LIMA,LIMA,11849,PRIVADO,MIRAFLORES,CALLE J.A. ENCINAS 141 URBANIZACIÓN EL ROSEDAL LIMA LIMA,-12.127350999999999,-77.013511
SERVICIOS MEDICOS LIONEL FLORES E HIJOS SAC - CLINICA SAN MARTIN,SAN MARTIN,SAN MARTIN,8269,PRIVADO,TARAPOTO,JR SAN MARTIN 274 SAN MARTIN SAN MARTIN,-6.4786546,-76.38627609999999
MEGASALUD NARANJAL S.A.C. (CLINICA NARANJAL),LIMA,LIMA,13044,PRIVADO,LOS OLIVOS,AV. NARANJAL 1582 URB PARQUE NARANJAL 2DA ETAPA LIMA LIMA,-11.9758011,-77.0852195
CLINICA LOS ANDES SAC,LIMA,LIMA,11750,PRIVADO,MIRAFLORES,CALLE CALLE ASUNCION N 177 DISTRITO MIRAFLORES PROVINCIA LIMA DEPARTAMENTO LIMA  LIMA LIMA,-12.104821699999999,-77.03210209999999
HOSPITAL BELEN - LAMBAYEQUE,LAMBAYEQUE,LAMBAYEQUE,4370,GOB REGIONAL,LAMBAYEQUE,AV. RAMON CASTILLA  N 597 LAMBAYEQUE LAMBAYEQUE,-6.839132999999999,-79.9356071
HOSPITAL DE ESPECIALIDADES MEDICAS SAN IGNACIO DE LOYOLA S.C.R.L.,PIURA,PIURA,27488,PRIVADO,,HOSPITAL DE ESPECIALIDADES MEDICAS SAN IGNACIO DE LOYOLA S.C.R.L. PIURA PIURA,-5.1980773000000005,-80.6199343
CLINICA CEDRON,LIMA,LIMA,13064,PRIVADO,SANTIAGO DE SURCO,AVENIDA AV EL POLO 438 CC MONTERRICO DISTRITO SANTIAGO DE SURCO PROVINCIA LIMA DEPARTAMENTO LIMA  LIMA LIMA,-12.1046619,-76.9729184
HOSPITAL MEGASALUD UNIVERSAL,LIMA,LIMA,16291,PRIVADO,LIMA,AVENIDA EMANCIPACION 785-791-799 LIMA LIMA,-12.0448239,-77.04027119999998
HOGAR DE LA MADRE CLINICA-HOSPITAL,LIMA,LIMA,10827,OTROS,MIRAFLORES,GERVASIO SANTILLANA N 260 LIMA LIMA,-12.104325300000001,-77.02966090000001
CLINICA CAMPBELL,LIMA,LIMA,11110,PRIVADO,SANTIAGO DE SURCO,AVENIDA AV. BENAVIDES 4813  LAS GARDENIAS DISTRITO SANTIAGO DE SURCO PROVINCIA LIMA DEPARTAMENTO LIMA  LIMA LIMA,-12.1277039,-76.9871194
FAMISALUD,ICA,CHINCHA,18704,PRIVADO,CHINCHA ALTA,CALLE CALLE 28 DE JULIO N° 397 DISTRITO CHINCHA ALTA PROVINCIA CHINCHA DEPARTAMENTO ICA  CHINCHA ICA,-13.4154242,-76.13264760000001
CENTRO MEDICO ESPECIALIZADO CLINICA DE LA MUJER Y EL NIÑO EIRL (CLINICA DE LA MUJER Y EL NIÑO),ANCASH,SANTA,10475,PRIVADO,NUEVO CHIMBOTE,CALLE 4MANZANA HLOTE 33 - 35NICOLAS GARATEA SANTA ANCASH,-9.120292300000001,-78.5081204
HOSPITAL I MIGUEL CRUZADO VERA - PAITA,PIURA,PAITA,11763,ESSALUD,PAITA,CARRETERA PAITA - PIURA KM 1.5 PAITA PIURA,-5.088025,-81.10041290000001
HOSPITAL MILITAR GERIATRICO,LIMA,LIMA,10098,FFAA Y PNP,CHORRILLOS,AVENIDA AV. ESCUELA MILITAR SN SN AV. ESCUELA MILITAR SN CHORRILLOS LIMA LIMA  LIMA LIMA,-12.1612636,-77.017196
HOSPITAL MILITAR DIVISIONARIO III DE AREQUIPA,AREQUIPA,AREQUIPA,18659,FFAA Y PNP,MARIANO MELGAR,ZOLEZZI AREQUIPA AREQUIPA,-16.4016808,-71.5137798
CLINICA SANTA LEONOR,LIMA,LIMA,19839,PRIVADO,CHORRILLOS,AVENIDA AV. DEFENSORS DEL MORRO N 2697 - URB. SANTA LEONOR DISTRITO CHORRILLOS PROVINCIA LIMA DEPARTAMENTO LIMA  LIMA LIMA,-12.183766499999999,-77.0083693
INVERSIONES GENERALES SALOMON S.A. (CLINICA VIRGEN MILAGROSA),LIMA,LIMA,9645,PRIVADO,SURQUILLO,CALLE VALDEMAR MOSER 501 - URB LA AURORA LIMA LIMA,-12.116843,-77.006905
MEDAVAN,LIMA,LIMA,25749,PRIVADO,,MEDAVAN LIMA LIMA,-12.092970699999999,-77.0568275
CLINICA PAZ HOLANDESA,AREQUIPA,AREQUIPA,16064,PRIVADO,PAUCARPATA,URB.VILLA CONTINENTAL CALLE 4 N 101 AREQUIPA AREQUIPA,-16.4302546,-71.51096700000001
SAN FRANCISCO DE ASIS,ANCASH,HUARAZ,16039,PRIVADO,HUARAZ,AV. RAYMONDI N 799 - HUARAZ HUARAZ ANCASH,-9.5261384,-77.527919
CLÍNICA SANTA ROSA,PIURA,SULLANA,12262,PRIVADO,SULLANA,AVENIDA PANAMERICANA N 332 URBANIZACIÓN SANTA ROSA SULLANA PIURA,-4.903977200000001,-80.6995385
CLINICA GONZALES,PASCO,PASCO,12449,PRIVADO,YANACANCHA,AV DANIEL ALCIDES CARRION 099 SAN JUAN PASCO PASCO,-10.663981,-76.2533128
HOSPITAL MILITAR I DIVISION DEL EJERCITO PIURA,PIURA,PIURA,12953,FFAA Y PNP,CASTILLA,AVENIDA CAYETANO HEREDIA N 100 DISTRITO CASTILLA PROVINCIA PIURA  DEPARTAMENTO PIURA  PIURA PIURA,-5.1976419,-80.6208418
HOSPITAL SPCC - ILO,MOQUEGUA,ILO,17563,PRIVADO,PACOCHA,CIUDAD NUEVA  SN ILO MOQUEGUA,-17.614497,-71.3364168
CLINICA SANTA JULIA  S.A.C. (CLINICA SANTA JULIA),LIMA,LIMA,22113,PRIVADO,LA MOLINA,AVENIDA AVENIDA JAVIER PRADO ESTE N° 7118 URB. COVIMA DISTRITO LA MOLINA PROVINCIA LIMA DEPARTAMENTO LIMA  LIMA LIMA,-12.0657815,-76.94144250000001
CENTRO MEDICO ESPECIALIZADO PRIMAVERA,HUANUCO,HUANUCO,27693,PRIVADO,,CENTRO MEDICO ESPECIALIZADO PRIMAVERA HUANUCO HUANUCO,-9.9078509,-76.22741090000001
CLINICA OFTALMOLOGICA ESPECIALIZADA ÑAHUI,LIMA,LIMA,12020,PRIVADO,SURQUILLO,AV. ANGAMOS ESTE N 714 - 1ER 2DO Y 3ER PISO LIMA LIMA,-12.1135458,-77.02408009999998
CLINICA ZIEGLER CIRUGIA PLASTICA,LIMA,LIMA,16113,PRIVADO,SAN ISIDRO,AVENIDA AV. GUARDIA CIVIL N 990 DISTRITO SAN ISIDRO PROVINCIA LIMA DEPARTAMENTO LIMA  LIMA LIMA,-12.101537599999999,-77.0142485
ESPINAR,CUSCO,ESPINAR,7135,GOB REGIONAL,ESPINAR,CALLE DOMINGO HUARCA CRUZ SN BARRIO TUPAC AMARU  ESPINAR  ESPINAR  CUSCO SN CALLE DOMINGO HUARCA CRUZ SN BARRIO TUPAC AMARU  ESPINAR  ESPINAR  CUSCO ESPINAR ESPINAR CUSCO  ESPINAR CUSCO,-14.7905984,-71.40393780000001
MAX SALUD AVISAL S.A.,LAMBAYEQUE,CHICLAYO,11129,PRIVADO,CHICLAYO,AVENIDA AV.FRANCISCO BOLOGNESI 774 DISTRITO CHICLAYO PROVINCIA CHICLAYO DEPARTAMENTO LAMBAYEQUE  CHICLAYO LAMBAYEQUE,-6.7758879,-79.8374731
CLÍNICA PERUANA DE LA VISION,LIMA,LIMA,10669,PRIVADO,JESUS MARIA,JIRÓN MAYTA CAPAC NÚMERO 1398 DISTRITO JESUS MARIA PROVINCIA LIMA DEPARTAMENTO LIMA  LIMA LIMA,-12.0764074,-77.04258039999998
CLINICA SERVICIOS MEDICOS INTEGRALES SAN MARCOS,LIMA,LIMA,12267,PRIVADO,SAN JUAN DE LURIGANCHO,AV. SANTA ROSA 1719 - URB. INCA MANCO CAPAC LIMA LIMA,-12.0019466,-76.9995488
CLÍNICA CHICLAYO S.A,LAMBAYEQUE,CHICLAYO,16192,PRIVADO,CHICLAYO,CALLE CALLE LA FLORIDA N° 225 URB. STA. VICTORIA DISTRITO CHICLAYO PROVINCIA CHICLAYO DEPARTAMENTO LAMBAYEQUE  CHICLAYO LAMBAYEQUE,-6.7799144,-79.8422166
ESSALUD SICUANI,CUSCO,CANCHIS,10063,ESSALUD,SICUANI,AVENIDA EL SOL N° 501 LA BOMBONERA  SICUANI  CANCHIS  CUSCO CANCHIS CUSCO,-14.2786,-71.22528790000001
HOSPITAL CUAJONE DE LA SOUTHERN PERU,MOQUEGUA,MARISCAL NIETO,17393,PRIVADO,TORATA,CAMPAMENTO MINERO CUAJONE SN MARISCAL NIETO MOQUEGUA,-17.0384034,-70.70495199999998
CLINICA MADRE ZORAIDA,LIMA,LIMA,16951,PRIVADO,LURIGANCHO,JIRÓN ESQUINA DE JR. CHUCUITO Y JR. TRUJILLO SUR SN NÚMERO SN DISTRITO LURIGANCHO PROVINCIA LIMA DEPARTAMENTO LIMA  LIMA LIMA,-11.9384568,-76.6992738
CLÍNICA OFTALMOLÓGICA VIDAVAS SAC,LAMBAYEQUE,CHICLAYO,26707,PRIVADO,,CLÍNICA OFTALMOLÓGICA VIDAVAS SAC CHICLAYO LAMBAYEQUE,-6.784088799999998,-79.84586350000001
OFTALMOVISION,LA LIBERTAD,TRUJILLO,8044,PRIVADO,TRUJILLO,AVENIDA AV. AMERICA NORTE NRO. 2120 URB. PRIMAVERA AV. AMERICA NORTE NRO. 2120 URB. PRIMAVERA TRUJILLO TRUJILLO LA LIBERTAD  TRUJILLO LA LIBERTAD,-8.1007071,-79.03197589999998
MEDICAL PLASTIC,LIMA,LIMA,15349,PRIVADO,MAGDALENA DEL MAR,AV BRASIL 3281 LIMA LIMA,-12.0896085,-77.0654182
"ESSALUD HOSPITAL 1 ""AGUSTIN ARBULU NEYRA"" FERREÑAFE",LAMBAYEQUE,FERREÑAFE,8901,ESSALUD,PUEBLO NUEVO,CALLE MIGUEL PASCO N° 101 - PUEBLO NUEVO DISTRITO PUEBLO NUEVO PROVINCIA FERREAFE DEPARTAMENTO LAMBAYEQUE FERREAFE LAMBAYEQUE,-6.639297200000001,-79.79318470000001
VISUAL CENTER CLINICA DE OJOS,LIMA,LIMA,20976,PRIVADO,SAN MIGUEL,AVENIDA AV. ELMER FAUCETT NO 170 DISTRITO SAN MIGUEL PROVINCIA LIMA DEPARTAMENTO LIMA  LIMA LIMA,-12.0724514,-77.09860139999998
Creo Clínica Renal y Oncológica,LIMA,LIMA,25573,PRIVADO,,Creo Clínica Renal y Oncológica LIMA LIMA,-12.019801,-77.05522640000001
HOSPITAL DISTRITAL DE PACASMAYO,LA LIBERTAD,PACASMAYO,5296,GOB REGIONAL,PACASMAYO,JIRÓN JIRON RAZURI SN NÚMERO SN DISTRITO PACASMAYO PROVINCIA PACASMAYO DEPARTAMENTO LA LIBERTAD  PACASMAYO LA LIBERTAD,-7.400491400000001,-79.57142540000001
Medi Vida,LIMA,LIMA,25773,PRIVADO,,Medi Vida LIMA LIMA,-12.218924699999999,-76.9324111
CLINICA DE CORTA ESTANCIA  ROCA E.I.R.L.,HUANUCO,HUANUCO,18769,PRIVADO,HUANUCO,JIRÓN PEDRO BARROSO N°466 DISTRITO HUANUCO PROVINCIA HUANUCO DEPARTAMENTO HUANUCO  HUANUCO HUANUCO,-9.9235786,-76.23571969999998
REJUVENECIMIENTO Y ESTETICA CABANI SRL,LIMA,LIMA,8258,PRIVADO,SAN BORJA,AV GUARDIA CIVIL 627 LIMA LIMA,-12.095988900000002,-77.01063239999998
E.S  II-1  HOSPITAL  CHULUCANAS,PIURA,MORROPON,2161,GOB REGIONAL,CHULUCANAS,CALLE DANIEL ALCIDES CARRION SN VATE MANRIQUE MORROPON PIURA,-5.1034125,-80.17085460000001
CLINICA DE OJOS D´OPELUCE,LIMA,LIMA,15927,PRIVADO,LINCE,AV AREQUIPA 1885 LIMA LIMA,-12.0832743,-77.034449
POLICLINICO HERMANA MARIA DONROSE SUTMÖLLER,CALLAO,CALLAO,8146,ESSALUD,VENTANILLA,AVENIDA AVENIDA GONZALES GANOZA SN I SECTOR IZQUIERDO URB ANTONIO MORENO DE CACERES NÚMERO SN DISTRITO VENTANILLA PROVINCIA CALLAO DEPARTAMENTO CALLAO  CALLAO CALLAO,-11.8865243,-77.1243942
CENTRO DE SALUD CON INTERNAMIENTO EL PORVENIR,LA LIBERTAD,TRUJILLO,9041,ESSALUD,EL PORVENIR,JIRON MAYTA CAPAC N 823 RIO SECO TRUJILLO LA LIBERTAD,-8.0863394,-79.00857370000001
ESSALUD,LIMA,LIMA,8289,ESSALUD,SAN LUIS,AVENIDA CIRCUNVALACION N° 2161 SAN LUIS LIMA LIMA,-12.074136099999999,-76.99189899999998
CENTRO DE SALUD CON INTERNAMIENTO PACASMAYO,LA LIBERTAD,PACASMAYO,8514,ESSALUD,PACASMAYO,AVENIDA MARISCAL CÁCERES N° 701 PACASMAYO LA LIBERTAD,-7.4061457,-79.5652246
POLICLINICO CHOSICA - ESSALUD,LIMA,LIMA,8370,ESSALUD,LURIGANCHO,JR.TRUJILLO SUR 800 LIMA LIMA,-11.9386985,-76.69919370000001
"CENTRO DE SALUD ""VICTOR SOLES GARCIA""",LA LIBERTAD,VIRU,11702,ESSALUD,VIRU,AVENIDA VICTOR RAUL SN SECTOR SAN LUIS VIRU LA LIBERTAD,-8.4231047,-78.7521816
HOSPITAL TOQUEPALA,TACNA,JORGE BASADRE,18230,PRIVADO,ILABAYA,TOQUEPALA  PLAZA SN JORGE BASADRE TACNA,-17.420402300000003,-70.5127345
CENTRO DE ATENCION PRIMARIA III INDEPENDENCIA - RAA - ESSALUD,LIMA,LIMA,16357,ESSALUD,INDEPENDENCIA,CALLE A  MZ D LOTE 13 Y 14 - URB. PANAMERICANA LIMA LIMA,-11.9925,-77.060446
POLICLINICO FRANCISCO PIZARRO,LIMA,LIMA,8881,ESSALUD,RIMAC,AV. FRANCISCO PIZARRO 585 LIMA LIMA,-12.03691,-77.0348879
CENTRO DE ATENCION PRIMARIA III PEDRO REYES BARBOZA - BARRANCA,LIMA,BARRANCA,17814,ESSALUD,BARRANCA,AV. EL BOSQUE SN - URB LAS PALMERAS BARRANCA LIMA,-10.7442956,-77.7659732
CENTRO DE ATENCION PRIMARIA III HUARAL,LIMA,HUARAL,10333,ESSALUD,HUARAL,AVENIDA AV CIRCUNVALACION ESTE 405 DISTRITO HUARAL PROVINCIA HUARAL DEPARTAMENTO LIMA  HUARAL LIMA,-11.4959109,-77.2002153
CAP III HUAYCAN-GRDA-ESSALUD,LIMA,LIMA,8251,ESSALUD,ATE,AV. J.C. MARIATEGUI MZ. C LOTE 49-50 - URB. LUCUMO PARIACHI LIMA LIMA,-12.0098521,-76.8298855
CENTRO DE SALUD CON INTERNAMIENTO CASA GRANDE,LA LIBERTAD,ASCOPE,9141,ESSALUD,CASA GRANDE,PROLONGACION AV. ATAHUALPA MZ 15 LOTE 01 URB. 8 DE SETIEMBRE ASCOPE LA LIBERTAD,-7.747340299999999,-79.1901505
CENTRO DE SALUD CON INTERNAMIENTO MOCHE,LA LIBERTAD,TRUJILLO,9038,ESSALUD,MOCHE,CALLE ELIO JACOBO CAFFO SN URB EL PARAISO TRUJILLO LA LIBERTAD,-8.143540699999999,-78.9990887
CENTRO MEDICO AVENDAÑO S.A.C.,LIMA,LIMA,16121,PRIVADO,MIRAFLORES,CALLE CALLE LEONIDAS AVENDAO N 116 DISTRITO MIRAFLORES PROVINCIA LIMA DEPARTAMENTO LIMA  LIMA LIMA,-12.131149699999998,-77.02453359999998
CAP II REQUENA,LORETO,REQUENA,11405,ESSALUD,REQUENA,MALECON BOLOGNESI SN REQUENA LORETO,-5.061814,-73.85665999999998
QUILLABAMBA - ESSALUD,CUSCO,LA CONVENCION,10062,ESSALUD,SANTA ANA,AVENIDA KUMPIRUSHIATO SN°  SANTA ANA  LA CONVENCION  CUSCO SN AVENIDA KUMPIRUSHIATO SN°  SANTA ANA  LA CONVENCION  CUSCO SANTA ANA LA CONVENCION CUSCO  LA CONVENCION CUSCO,-12.862625999999999,-72.693354
CLINICA ESPECIALIZADA EN CIRUGÍA PLÁSTICA SAN AGUSTIN,LIMA,LIMA,21096,PRIVADO,PUEBLO LIBRE,AVENIDA BRASIL 2630 INTERIOR A Y LA AV BRASIL 2610 INTERIOR 101 DISTRITO PUEBLO LIBRE PROVINCIA LIMA DEPARTAMENTO LIMA  LIMA LIMA,-12.0249227,-76.9886599
OFTALMOSALUD,LIMA,LIMA,23852,PRIVADO,LOS OLIVOS,AVENIDA CARLOS ALBERTO IZAGUIRRE 1250 K 11-20 ANGELICA GAMARRA LEON VELARDE I ETAPA LOS OLIVOS LIMA LIMA  LIMA LIMA,-12.0061197,-77.07551099999998
CENTRO DE ATENCION PRIMARIA II CABALLOCOCHA,LORETO,MARISCAL RAMON CASTILLA,11556,ESSALUD,RAMON CASTILLA,CALLE RAMON CASTILLA N° 700 MARISCAL RAMON CASTILLA LORETO,-3.9101854,-70.5135928
OFTALMOLOGOS CONTRERAS  C.SCRL,LIMA,LIMA,17099,PRIVADO,SAN ISIDRO,AV. JAVIER PRADO ESTE N 1010 10MO. PISO URB EL PALOMAR LIMA LIMA,-12.0905446,-77.01828499999998
OFTALMOLOGIA AVANZADA,AREQUIPA,AREQUIPA,12692,PRIVADO,YANAHUARA,CALLE LEON VELARDE N 116. URB LOS CLAVELES SECCION 2. AREQUIPA AREQUIPA,-16.3845573,-71.53856309999998
SAN MARTIN,ICA,ICA,9627,PRIVADO,ICA,AVENIDA AV SAN MARTIN 598 URB. LA MORALES AV SAN MARTIN 598 URB. LA MORALES ICA ICA ICA  ICA ICA,-14.0693699,-75.729224
OFTALMOSALUD,LIMA,LIMA,9505,PRIVADO,SAN ISIDRO,AVENIDA AV. JAVIER PRADO ESTE N° 1142 DISTRITO SAN ISIDRO PROVINCIA LIMA DEPARTAMENTO LIMA  LIMA LIMA,-12.0892205,-77.01293509999998
TG LASER OFTALMICA S.A.,LIMA,LIMA,8388,PRIVADO,SAN ISIDRO,AVENIDA Dos de Mayo N° 646-666 DISTRITO SAN ISIDRO PROVINCIA LIMA DEPARTAMENTO LIMA  LIMA LIMA,-12.0911314,-77.0383497
CLINICA SANENS,LIMA,LIMA,25930,PRIVADO,,CLINICA SANENS LIMA LIMA,-12.119530000000001,-77.02410379999998
CLINICA SAN VICENTE S.A.,LIMA,LIMA,11241,PRIVADO,SAN MARTIN DE PORRES,AVENIDA AV PERÚ 3220 AV PERÚ 3220 SAN MARTIN DE PORRES LIMA LIMA  LIMA LIMA,-12.031181199999999,-77.08157920000001
CENTRO MEDICO CASAPALCA,LIMA,HUAROCHIRI,10570,ESSALUD,CHICLA,CENTRO MINERO CASAPALCA CARRETERA CENTRAL KM 116 HUAROCHIRI LIMA,-11.6486161,-76.23507479999998
UNIDAD DE CUIDADOS INTENSIVOS Y HOSPITALIZACIÓN COVID19 - TINGO MARIA,HUANUCO,LEONCIO PRADO,28069,GOB REGIONAL,,UNIDAD DE CUIDADOS INTENSIVOS Y HOSPITALIZACIÓN COVID19 - TINGO MARIA LEONCIO PRADO HUANUCO,-9.297105300000002,-75.9995756
HOSPITAL INTEGRADO REGIONAL COVID 19  SANTA MARIA DEL VALLE,HUANUCO,HUANUCO,28131,GOB REGIONAL,,HOSPITAL INTEGRADO REGIONAL COVID 19  SANTA MARIA DEL VALLE HUANUCO HUANUCO,-9.8624674,-76.1701334
CLINICA SANTA LUZMILA,LIMA,LIMA,28134,PRIVADO,,CLINICA SANTA LUZMILA LIMA LIMA,-11.951404,-77.059539
CLINICA PERUANA DE LOS ANDES,APURIMAC,ANDAHUAYLAS,14017,PRIVADO,ANDAHUAYLAS,JIRÓN AYACUCHO 336 JR. AYACUCHO 336 ANDAHUAYLAS ANDAHUAYLAS APURIMAC  ANDAHUAYLAS APURIMAC,-13.6585742,-73.39440640000001
CLINICA ASTOCONDOR,LIMA,LIMA,15143,PRIVADO,SAN BORJA,AV BOULEVARD 610 1ER PISO Y SOTANO LIMA LIMA,-12.0963621,-76.98934709999999
CLÍNICA J & C INMACULADA CONCEPCIÓN S.A.C (CONSULTORIOS INMACULADA),PIURA,TALARA,19279,PRIVADO,PARIÑAS,PARQUE 19 -14 TALARA TALARA PIURA,-4.9010358,-80.69575019999998
FRANCISCO ASTOCONDOR SALAZAR (ASTOCONDOR SPA),LIMA,LIMA,9143,PRIVADO,SAN BORJA,AV. BOULEVARD N 610 LIMA LIMA,-12.096357000000001,-76.989352
CLINICA HIGUERETA,LIMA,LIMA,19748,PRIVADO,MIRAFLORES,AVENIDA AV. BENAVIDES  2951 MIRAFLORES AV. BENAVIDES  2951 MIRAFLORES MIRAFLORES LIMA LIMA  LIMA LIMA,-12.128228300000002,-77.00454690000001
CLINICA INMACULADA,PIURA,SULLANA,12261,PRIVADO,SULLANA,AV. JOSE DE LAMA N 1011 SULLANA PIURA,-4.9010358,-80.69575019999998
BM CLINICA,LAMBAYEQUE,CHICLAYO,8730,PRIVADO,CHICLAYO,AVENIDA AV.SESQUICENTENARIO 416-URB. SANTA VICTORIA DISTRITO CHICLAYO PROVINCIA CHICLAYO DEPARTAMENTO LAMBAYEQUE  CHICLAYO LAMBAYEQUE,-6.780454300000001,-79.84273329999998
CLINICA UNION SAC.,LAMBAYEQUE,CHICLAYO,26706,PRIVADO,,CLINICA UNION SAC. CHICLAYO LAMBAYEQUE,-6.7735145,-79.8423378
HOSPITAL PRIVADO DEL PERU,PIURA,PIURA,10723,PRIVADO,CATACAOS,CARRETERA KM. 5 CARRETERA PIURA - CATACAOS  CASERÍO SIMBILÁ DISTRITO CATACAOS PROVINCIA PIURA DEPARTAMENTO PIURA  PIURA PIURA,-5.2454611,-80.6529809
CLINICA BUENA VENTURA,LIMA,LIMA,27478,PRIVADO,,CLINICA BUENA VENTURA LIMA LIMA,-12.158772,-76.9734391
CLINICA SANTA LUCIA S.A.C.,LIMA,LIMA,10515,PRIVADO,SAN BORJA,AV. GUARDIA CIVIL 301 LIMA LIMA,-12.0914623,-77.00831289999998
CLINICA LA LUZ S.A.C.,LIMA,LIMA,11087,PRIVADO,LIMA,AVENIDA AV. AREQUIPA 1148 - URB. SANTA BEATRIZ AV. AREQUIPA 1148 - URB. SANTA BEATRIZ LIMA LIMA LIMA  LIMA LIMA,-12.0750854,-77.0358619
CLAS CORRALES,TUMBES,TUMBES,1866,GOB REGIONAL,CORRALES,PASAJE PASAJE ALEJANDRO HENCKELL N 104 DISTRITO CORRALES PROVINCIA TUMBES DEPARTAMENTO TUMBES  TUMBES TUMBES,-3.6007696000000005,-80.48233590000001
CLINICA ADVENTISTA ANA STAHL,LORETO,MAYNAS,12854,PRIVADO,IQUITOS,AVENIDA LA MARINA N° 285 MAYNAS LORETO,-3.7385992,-73.2411621
CENTRO DE SALUD ZARUMILLA,TUMBES,ZARUMILLA,1896,GOB REGIONAL,ZARUMILLA,CALLE LETICIA SIN NUMERO ZARUMILLA ZARUMILLA TUMBES,-3.5011894999999997,-80.27564319999998
HOSPITAL  SANTIAGO APOSTOL DE UTCUBAMBA,AMAZONAS,UTCUBAMBA,5125,GOB REGIONAL,BAGUA GRANDE,AVENIDA FELIPE SANTIAGO SN - BAGUA GRANDE UTCUBAMBA AMAZONAS,-5.7572823,-78.44226069999998
CLINICA CHORRILLOS,LIMA,LIMA,11950,PRIVADO,CHORRILLOS,AVENIDA AV. DEFENSORES DEL MORRO N°1201 DISTRITO CHORRILLOS PROVINCIA LIMA DEPARTAMENTO LIMA  LIMA LIMA,-12.1745254,-77.01880159999999
ZORRITOS,TUMBES,CONTRALMIRANTE VILLAR,1900,GOB REGIONAL,ZORRITOS,AVENIDA AV. REPUBLICA SN ZORRITOS NÚMERO SN DISTRITO ZORRITOS PROVINCIA CONTRALMIRANTE VILLAR DEPARTAMENTO TUMBES  CONTRALMIRANTE VILLAR TUMBES,-3.677751599999999,-80.66807709999998
PAMPA GRANDE,TUMBES,TUMBES,1882,GOB REGIONAL,TUMBES,AV. SIMON BOLIVAR N° 304 PAMPA GRANDE TUMBES TUMBES,-3.5854922999999994,-80.4504297
CLINICA SAN PEDRO (CLINICA SAN PEDRO S.A.C.),ANCASH,SANTA,15375,PRIVADO,CHIMBOTE,JR. MANUEL VILLAVICENCIO N° 481 - CHIMBOTE SANTA ANCASH,-9.073342199999999,-78.59272390000001
CLÍNICA MATERNO INFANTIL DEL NORTE S.A,LA LIBERTAD,TRUJILLO,13395,PRIVADO,TRUJILLO,AV. MANUEL VERA ENRIQUEZ N 777 - URB. PRIMAVERA TRUJILLO LA LIBERTAD,-8.102304499999999,-79.03472430000001
CLINICA SANTA MARIA DE CHIMBOTE S.A.C.,ANCASH,SANTA,13164,PRIVADO,CHIMBOTE,ELIAS AGUIRRE 761 - BOLIVAR BAJO SANTA ANCASH,-9.070853900000001,-78.5909077
CLINICA Y BOTICA SAN JUAN,CAJAMARCA,JAEN,15266,PRIVADO,JAEN,CALLE TUPAC AMARU N° 695 SECTOR MORRO SOLAR JAEN CAJAMARCA,-5.7133176,-78.81116309999999
CLINICA SAN MARCOS,LIMA,LIMA,15718,PRIVADO,BREÑA,JIRÓN JR HUARAZ 1425 JR HUARAZ 1425 BREA LIMA LIMA  LIMA LIMA,-12.0637848,-77.0480599
SAN MARTIN DE PORRES DE IBERIA,MADRE DE DIOS,TAHUAMANU,2793,GOB REGIONAL,IBERIA,CALLE CALLE MOCOPATA SN NÚMERO SN DISTRITO IBERIA PROVINCIA TAHUAMANU DEPARTAMENTO MADRE DE DIOS  TAHUAMANU MADRE DE DIOS,-11.4042828,-69.48788909999999
CLINICA SINAI,SAN MARTIN,RIOJA,28254,PRIVADO,,CLINICA SINAI RIOJA SAN MARTIN,-6.0667968,-77.1702263
CLINICA SAGRADA FAMILIA DEL SUR,LIMA,LIMA,28244,PRIVADO,,CLINICA SAGRADA FAMILIA DEL SUR LIMA LIMA,-12.1664075,-76.9609476
CHANTA UMACA,APURIMAC,ANDAHUAYLAS,7251,GOB REGIONAL,ANDARAPA,OTROS CHANTA UMACA DISTRITO ANDARAPA PROVINCIA ANDAHUAYLAS DEPARTAMENTO APURIMAC  ANDAHUAYLAS APURIMAC,-13.5117891,-73.3944466
AGUAYTIA,UCAYALI,PADRE ABAD,5395,GOB REGIONAL,PADRE ABAD,JIRÓN JR LAMAS N 280 VILLA AGUAYTIA DISTRITO PADRE ABAD PROVINCIA PADRE ABAD DEPARTAMENTO UCAYALI  PADRE ABAD UCAYALI,-9.0395314,-75.51311170000001
CLINICA AVANSALUD,LIMA,LIMA,23022,PRIVADO,MAGDALENA DEL MAR,AVENIDA DEL EJERCITO NÚMERO 1020 URBANIZACIÓN SALAVERRY DISTRITO MAGDALENA DEL MAR PROVINCIA LIMA DEPARTAMENTO LIMA  LIMA LIMA,-12.100758599999999,-77.06197590000001
CLINICA SANTA BEATRIZ,LIMA,LIMA,20346,PRIVADO,JESUS MARIA,JIRÓN JR. RAMON DAGNINO N 227 JR. RAMON DAGNINO N 227 JESUS MARIA LIMA LIMA  LIMA LIMA,-12.0716856,-77.03819859999999
CLINICA MATER PURISSIMA,LIMA,LIMA,25598,PRIVADO,,CLINICA MATER PURISSIMA LIMA LIMA,-11.9350236,-77.0470729
C.S EL TUNAL,PIURA,HUANCABAMBA,2232,GOB REGIONAL,LALAQUIZ,CALLE CANCHAQUE SN HUANCABAMBA PIURA,-5.376266999999999,-79.60582
E.S. FRÍAS,PIURA,AYABACA,2171,GOB REGIONAL,FRIAS,AV. HUARIGAS SN AYABACA PIURA,-12.09832,-77.01463389999998
CLINICA AUNA GUARDIA CIVIL,LIMA,LIMA,27320,PRIVADO,,CLINICA AUNA GUARDIA CIVIL LIMA LIMA,-12.0922465,-77.0090463
CLINICA HUANUCO E-I-R-LTDA.,HUANUCO,HUANUCO,11592,PRIVADO,HUANUCO,JR.CONSTITUCION N 980 HUANUCO HUANUCO,-9.9292225,-76.2352252
CLINICA SAN LUIS ASISTENCIAL DOCENTE S.R.L.,LA LIBERTAD,TRUJILLO,21009,PRIVADO,TRUJILLO,AVENIDA DEL EJERCITO N° 1175 URBANIZACION EL MOLINO TRUJILLO LA LIBERTAD,-8.097527699999999,-79.0180882
Hospital I Marino Molina Scippa - EsSalud,LIMA,LIMA,27565,ESSALUD,,Hospital I Marino Molina Scippa - EsSalud LIMA LIMA,-11.943613800000001,-77.05763950000001
CLINICA SAN FERNANDO E.I.R.L,CAJAMARCA,JAEN,15269,PRIVADO,JAEN,MARISCAL CASTILLA N 820 JAEN CAJAMARCA,-5.7038246,-78.80975269999998
CLINICA PROSALUD,PUNO,PUNO,9683,PRIVADO,PUNO,JR JOSE CARLOS MARIATEGUI 253 PUNO PUNO,-15.833106200000001,-70.02168160000001
CENTRO DE ATENCION PRIMARIA II SAN IGNACIO,CAJAMARCA,SAN IGNACIO,10299,ESSALUD,SAN IGNACIO,AV.SAN IGNACIO 425 SAN IGNACIO CAJAMARCA,-5.1461517,-79.0009417
HOSPITAL BELLAVISTA,SAN MARTIN,BELLAVISTA,6502,GOB REGIONAL,BELLAVISTA,JR. ANCASH-CRUCE CON APURIMAC BELLAVISTA SAN MARTIN,-7.058922099999998,-76.5933967
ESPINAR - ESSALUD,CUSCO,ESPINAR,10061,ESSALUD,ESPINAR,CALLE 22 DE FEBRERO Y SAN PEDRO N°108  YAURI  ESPINAR  CUSCO ESPINAR CUSCO,-14.792369,-71.4128571
CAS URUBAMBA -ESSALUD,CUSCO,URUBAMBA,10060,ESSALUD,URUBAMBA,AV. 9 DE NOVIEMBRE SN  URUBAMBA  URUBAMBA  CUSCO URUBAMBA CUSCO,-13.308205,-72.1121837
ZUÑIGA,LIMA,CAÑETE,6019,GOB REGIONAL,ZUÑIGA,JIRÓN JR. BERNARDO ALCEDO SN NÚMERO SN DISTRITO ZUIGA PROVINCIA CAETE DEPARTAMENTO LIMA  CAETE LIMA,-12.084166499999998,-77.09513640000002
HOSPITAL PRIVADO REFERENCIAL DOCENTE TUMÁN,LAMBAYEQUE,CHICLAYO,7322,PRIVADO,TUMAN,BLOCK 10 SN TUMAN CHICLAYO LAMBAYEQUE,-6.7469921,-79.6988921
ACOMAYO,CUSCO,ACOMAYO,2317,GOB REGIONAL,ACOMAYO,AVENIDA AVENIDA FRANCISCO BOLOGNESI SN  ACOMAYO  ACOMAYO  CUSCO SN AVENIDA FRANCISCO BOLOGNESI SN  ACOMAYO  ACOMAYO  CUSCO ACOMAYO ACOMAYO CUSCO  ACOMAYO CUSCO,-13.919276000000002,-71.683763
INSTITUTO PERUANO DE OFTALMOLOGIA,PIURA,PIURA,16363,ESSALUD,CASTILLA,AV. UNIVERSITARIA SN PIURA PIURA,-12.0684832,-77.0783849
PEDRO SANCHEZ MEZA,JUNIN,CHUPACA,646,GOB REGIONAL,CHUPACA,JIRÓN RUFINO ECHENIQUE N 560 -690 JR. RUFINO ECHENIQUE N 560 -690 CHUPACA CHUPACA JUNIN  CHUPACA JUNIN,-12.0561522,-75.2858208
SAN JERONIMO,CUSCO,CUSCO,2300,GOB REGIONAL,SAN JERONIMO,AVENIDA AVENIDA MANCO CPAC SN  SAN JERÓNIMO  CUSCO  CUSCO SN AVENIDA MANCO CPAC SN  SAN JERÓNIMO  CUSCO  CUSCO SAN JERONIMO CUSCO CUSCO  CUSCO CUSCO,-13.5461862,-71.88960870000001
OCONGATE,CUSCO,QUISPICANCHI,2536,GOB REGIONAL,OCONGATE,CALLE CALLE LAGUNILLAS SN  OCONGATE  QUISPICANCHI  CUSCO SN CALLE LAGUNILLAS SN  OCONGATE  QUISPICANCHI  CUSCO OCONGATE QUISPICANCHI CUSCO  QUISPICANCHI CUSCO,-12.0817493,-76.9431895
QUIQUIJANA,CUSCO,QUISPICANCHI,2538,GOB REGIONAL,QUIQUIJANA,OTROS CALLAPAMPA  QUIQUIJANA  QUISPICANCHI  CUSCO CALLAPAMPA  QUIQUIJANA  QUISPICANCHI  CUSCO QUIQUIJANA QUISPICANCHI CUSCO  QUISPICANCHI CUSCO,-13.8262541,-71.5401821
OROPESA,CUSCO,QUISPICANCHI,2537,GOB REGIONAL,OROPESA,CALLE CALLE GARCILASO SN  OROPESA  QUISPICANCHI  CUSCO SN CALLE GARCILASO SN  OROPESA  QUISPICANCHI  CUSCO OROPESA QUISPICANCHI CUSCO  QUISPICANCHI CUSCO,-13.602770000000001,-71.7676089
PARURO,CUSCO,PARURO,2499,GOB REGIONAL,PARURO,CALLE CALLE ALFONSO UGARTE SN  PARURO  PARURO  CUSCO SN CALLE ALFONSO UGARTE SN  PARURO  PARURO  CUSCO PARURO PARURO CUSCO  PARURO CUSCO,-12.1281106,-76.98229079999999
PAUCARTAMBO,CUSCO,PAUCARTAMBO,2510,GOB REGIONAL,PAUCARTAMBO,AVENIDA AVENIDA ENRIQUE YÁBAR SN  PAUCARTAMBO  PAUCARTAMBO  CUSCO SN AVENIDA ENRIQUE YÁBAR SN  PAUCARTAMBO  PAUCARTAMBO  CUSCO PAUCARTAMBO PAUCARTAMBO CUSCO  PAUCARTAMBO CUSCO,-13.314010199999998,-71.5931657
HUANCARANI,CUSCO,PAUCARTAMBO,2520,GOB REGIONAL,HUANCARANI,AVENIDA AVENIDA PRINCIPAL SN  HUANCARANI  PAUCARTAMBO  CUSCO SN AVENIDA PRINCIPAL SN  HUANCARANI  PAUCARTAMBO  CUSCO HUANCARANI PAUCARTAMBO CUSCO  PAUCARTAMBO CUSCO,-13.5032144,-71.65455940000001
URCOS,CUSCO,QUISPICANCHI,2523,GOB REGIONAL,URCOS,JIRÓN JIRÓN TUPAC AMARU SN  URCOS  QUISPICANCHI  CUSCO SN JIRÓN TUPAC AMARU SN  URCOS  QUISPICANCHI  CUSCO URCOS QUISPICANCHI CUSCO  QUISPICANCHI CUSCO,-12.088127,-77.0013
LA ESPERANZA,TACNA,TACNA,2883,GOB REGIONAL,ALTO DE LA ALIANZA,AVENIDA AV.JORGE BASADRE N1100 AV.JORGE BASADRE N1100 ALTO DE LA ALIANZA TACNA TACNA  TACNA TACNA,-18.0128248,-70.2359672
